	google_id	name	query	lat	lon	address	types
0	ChIJjUmBNj4DJoQRMRgVb0oMrpQ	Jardin de Niﾃｱos Sor Juana Ines De La Cruz	preescolar	20.7257001	-103.5619422	Calle Mariano Matamoros, Pinar de la Venta, 45226 La Primavera, Jal., Mﾃｩxico	['school', 'point_of_interest', 'establishment']
1	ChIJhaRuv0oDJoQRFKUy57hZNzI	Preescolar Cuitlahuac 14DJN0151P	preescolar	20.7259452	-103.5453428	C. Tabachines 158, 45221 La Venta del Astillero, Jal., Mﾃｩxico	['school', 'point_of_interest', 'establishment']
2	ChIJm1OFLsWnKIQRegsIbwoz_mc	D1V3RT1 APR3ND3 汨ｾ洫ｮ沍鞘恟ｸ条泅笨ｨAcadﾃｩmia de clases de regularizaciﾃｳn, Inicial, Preescolar, Primaria, Secundaria.	preescolar	20.7730848	-103.4758446	Fuente Caliza 1921, 45200 Zapopan, Jal., Mﾃｩxico	['point_of_interest', 'establishment']
3	ChIJK41d_5GnKIQR1JTCI6XudMU	Bubble World educacion preescolar kinder	preescolar	20.802224	-103.4630105	bugambilias # 15 la magdalena, 45200 Zapopan, Jal., Mﾃｩxico	['school', 'point_of_interest', 'establishment']
4	ChIJxw3JLzmnKIQRaJK5uMbJvT8	Preescolar Vazco de Quiroga 14EJN0416F	preescolar	20.7977405	-103.4846492	Dedal, Las Agujas, 45200 Tesistﾃ｡n, Jal., Mﾃｩxico	['school', 'point_of_interest', 'establishment']
5	ChIJv1YiwrSoKIQRH1VvwYga9LY	Peek-a-Boo Kinder	preescolar	20.7314083	-103.4522801	Av. Sta. Margarita 2418, Valle Real, 45201 Zapopan, Jal., Mﾃｩxico	['school', 'point_of_interest', 'establishment']
6	ChIJQ478UYanKIQRLmaF8ZAlWyQ	Preescolar Irene Robledo	preescolar	20.7707355	-103.4739045	agua Laguna Azul, C. Agua Azul 33, 45200 La Cuchilla, Jal., Mﾃｩxico	['school', 'point_of_interest', 'establishment']
7	ChIJa7ba-xSvKIQRXP7EmFmSF68	Jardﾃｭn de Niﾃｱos Maria del Refugio Pacheco de Lﾃｳpez Portillo	preescolar	20.7272015	-103.4246777	Calle Girasoles esquina Av Santa Esther 120, Los Girasoles, 45130 Zapopan, Jal., Mﾃｩxico	['school', 'point_of_interest', 'establishment']
8	ChIJ9beprjmsKIQR8_Kk8ihIoyI	Sofia Preescolar Bilingﾃｼe	preescolar	20.6399866	-103.4190336	C. Volcﾃ｡n Vesubio 4826, Colli Urbano, 45070 Zapopan, Jal., Mﾃｩxico	['school', 'point_of_interest', 'establishment']
9	ChIJP_Y32FobJoQR1GjjyHmThAo	Preescolar Federal Revolucion Mexicana	preescolar	20.7437704	-103.6415259	C. Florida 27, 45350 Santa Cruz del Astillero, Jal., Mﾃｩxico	['school', 'point_of_interest', 'establishment']
10	ChIJabBRQtSoKIQRQ03mEGlZ5RQ	Colegio Montessori	preescolar	20.7081802	-103.4550014	C. Ocampo 175, San Juan de Ocotﾃ｡n, 45019 Zapopan, Jal., Mﾃｩxico	['school', 'point_of_interest', 'establishment']
11	ChIJz5uSWoOuKIQRZejQShfplRY	Kinder Play	preescolar	20.6721046	-103.4252921	Av. Miguel Angel 235, La Estancia, 45030 Zapopan, Jal., Mﾃｩxico	['school', 'point_of_interest', 'establishment']
12	ChIJHRujij6sKIQRKbisTf6oiLY	CENTRO EDUCATIVO BUCKINGHAM	preescolar	20.6407219	-103.4251652	Volcﾃ｡n de Fuego # 2680, Colli Urbano, 45070 Zapopan, Jal., Mﾃｩxico	['primary_school', 'school', 'point_of_interest', 'establishment']
13	ChIJvU4w3c6uKIQRXwjDsz5A9cA	Educare Escuela Para El Exito	preescolar	20.6874314	-103.4400072	C. Francisco I. Madero 5850, Jocotﾃ｡n, 45017 Zapopan, Jal., Mﾃｩxico	['school', 'point_of_interest', 'establishment']
14	ChIJ-Z4I7-2uKIQRf9B0SR2Oyw0	Instituto Tanesque Preescolar	preescolar	20.6885803	-103.4172322	Av Naciones Unidas 4680, Jardines Universidad, 45110 Zapopan, Jal., Mﾃｩxico	['school', 'point_of_interest', 'establishment']
15	ChIJM2DTn7OtKIQRfA9o7JiQnSM	PREESCOLAR GENERACION 1938	preescolar	20.6308489	-103.4018023	Vicente Guerrero 3203, Loma Bonita Ejidal, 45085 Zapopan, Jal., Mﾃｩxico	['school', 'point_of_interest', 'establishment']
16	ChIJcSvFWq2oKIQRrpd4_Y3cyNM	Cendi #7	preescolar	20.7399027	-103.4520343	45019 Zapopan, Jal., Mﾃｩxico	['school', 'point_of_interest', 'establishment']
17	ChIJmWCYxMGrKIQROox59vWKJfs	Josﾃｩ Clemente Orozco	preescolar	20.6362413	-103.4752486	Tizate, El Tizate, Colinas de la Primavera, 45100 Zapopan, Jal., Mﾃｩxico	['school', 'point_of_interest', 'establishment']
18	ChIJCzs-DIipKIQRh7rGi2usJac	Preescolar del Ciencias	preescolar	20.7230292	-103.4733338	45019 Zapopan, Jal., Mﾃｩxico	['school', 'point_of_interest', 'establishment']
19	ChIJj5h3rUqpKIQROnvMpiugx2o	JARDﾃ康 DE NIﾃ前S FEDERALES ENRIQUE VELAZQUEZ ESPINOZA	preescolar	20.6801892	-103.4513887	Calz de los Paraﾃｭsos 123, Granja, 45010 Zapopan, Jal., Mﾃｩxico	['school', 'point_of_interest', 'establishment']
20	ChIJzwTNb4umKIQR1syfRhTliCo	Kinder Marﾃｭa Montessori	preescolar	20.8010649	-103.4718773	C. Puente Chico 249-C, 45200 Tesistﾃ｡n, Jal., Mﾃｩxico	['school', 'point_of_interest', 'establishment']
21	ChIJVVU5oX-vKIQR2LKDjwPazng	Coleex Preescolar	preescolar	20.7517861	-103.4066847	Av Torremolinos 3326, Colinas del Rey, 45130 Zapopan, Jal., Mﾃｩxico	['school', 'point_of_interest', 'establishment']
22	ChIJLymL_3AFJoQRCnRg7Bu5HwY	Preescolar Federal Mi Pequeﾃｱo Reino	preescolar	20.7225837	-103.6569543	Francisco Villa 2, Destiladora Refugio, 45368 Col. Cuisillos, Jal., Mﾃｩxico	['school', 'point_of_interest', 'establishment']
23	ChIJpX660EUbJoQR-5n2OO7iJhs	Kinder Maria Trinidad Nuﾃｱez	preescolar	20.748674	-103.6531095	C. Pensador Mexicano 227, Destiladora Refugio, 45360 Santa Cruz del Astillero, Jal., Mﾃｩxico	['school', 'point_of_interest', 'establishment']
24	ChIJVcsFhN6lKIQR8o_e99HtKF0	Instituto Nelson Mandela	preescolar	20.7779176	-103.445713	Antiguo Camino a Copalita 2385, Marcelino Garcﾃｭa Barragﾃ｡n, 45130 Zapopan, Jal., Mﾃｩxico	['primary_school', 'school', 'point_of_interest', 'establishment']
25	ChIJG4ENrPGmKIQRRm02QMektH4	Colegio Don Bosco - Salesianas	preescolar	20.8044087	-103.482728	Don Bosco 31, Roberto Orozco, 45200 Zapopan, Jal., Mﾃｩxico	['school', 'point_of_interest', 'establishment']
26	ChIJVwn6bj-uKIQR_h6wYGZiuqI	Preescolar Fray Pedro de Gante	preescolar	20.6902874	-103.3808044	C. Montreal 884, Lomas de Guevara, 44657 Guadalajara, Jal., Mﾃｩxico	['school', 'point_of_interest', 'establishment']
27	ChIJIbR75UesKIQROwBBCWbYZVc	Grownland School Maternal Y Preescolar Bilingﾃｼe	preescolar	20.6359889	-103.4172191	C. Carnero 3732, La Calma, 45070 Zapopan, Jal., Mﾃｩxico	['school', 'point_of_interest', 'establishment']
28	ChIJ010fo2SuKIQRs-MqPfpSzDM	CENTRO INFANTIL Montessori Mocel	preescolar	20.6746888	-103.3984827	Av. Ignacio L Vallarta 3314, Vallarta Poniente, 44110 Guadalajara, Jal., Mﾃｩxico	['school', 'point_of_interest', 'establishment']
29	ChIJA6nbtH2pKIQRRBkT_5s-W5w	Centro de Atenciﾃｳn Infantil Castores	preescolar	20.7262813	-103.5430288	C. Juan Gil Preciado 168A, El Campestre, 45221 La Venta del Astillero, Jal., Mﾃｩxico	['point_of_interest', 'establishment']
30	ChIJucrYtx2oKIQRCQXfHLSvgWg	Escuela Secundaria General 64 Jesﾃｺs Reyes Hﾃｩroles	preescolar	20.7271859	-103.5415868	C. Allende 47, El Campestre, 45221 La Venta del Astillero, Jal., Mﾃｩxico	['school', 'point_of_interest', 'establishment']
31	ChIJ6_oFfISuKIQRRhDjhZDbitI	Montessori La Casa Del Papalote	preescolar	20.6667043	-103.4133324	Sta. Teresa de Jesﾃｺs 706, Camino Real, 45040 Zapopan, Jal., Mﾃｩxico	['school', 'point_of_interest', 'establishment']
32	ChIJNZkdkDC1KIQR0g7q5EOq9KQ	Jardin de Niﾃｱos Galileo Galilei	preescolar	20.7395022	-103.4224641	Priv. Sta. Lucﾃｭa 937, Girasoles Elite, 45136 Zapopan, Jal., Mﾃｩxico	['school', 'point_of_interest', 'establishment']
33	ChIJhdN6A_yrKIQRmLGNcO7QQK4	Jardﾃｭn de Niﾃｱos Guillermo Chﾃ｡vez Vega	preescolar	20.6516455	-103.4566451	C. Galeana 25, Balcones del Sol, 45068 Zapopan, Jal., Mﾃｩxico	['school', 'point_of_interest', 'establishment']
34	ChIJM4acQm-vKIQR-RHm22Id5Gc	KINDER GARDNER	preescolar	20.7406006	-103.4209191	Calle Sta Mercedes 68, Sta Margarita, 45138 Zapopan, Jal., Mﾃｩxico	['school', 'point_of_interest', 'establishment']
35	ChIJNxO4wqynKIQRVwN332GJUFI	Colegio Jean Piaget	preescolar	20.7664304	-103.5245387	45220 Nextipac, Jal., Mﾃｩxico	['school', 'point_of_interest', 'establishment']
36	ChIJbyXnCf6mKIQRGuwxNtyTVR8	Jardin De Niﾃｱos Yoloxochitl	preescolar	20.7998901	-103.4964325	18552 220189248, 45100, Acueducto 153148 153148, Santa Lucﾃｭa, Tesistﾃ｡n, Jal., Mﾃｩxico	['school', 'point_of_interest', 'establishment']
37	ChIJ60eb8b2lKIQRNgVt2PFIAas	Kids Idea	preescolar	20.7565339	-103.4394263	C. P.ﾂｺ Laureles 3777-1, Hogares de Nuevo Mﾃｩxico, 45138 Zapopan, Jal., Mﾃｩxico	['school', 'point_of_interest', 'establishment']
38	ChIJr8v7ZeSmKIQReLcVJZ97pYc	Jardﾃｭn de Niﾃｱos Federal Irene Robledo	preescolar	20.8097883	-103.4904316	C. Hidalgo 1750, Revoluciﾃｳn, 45200 Zapopan, Jal., Mﾃｩxico	['school', 'point_of_interest', 'establishment']
39	ChIJ_UNlN4mnKIQRP0L5f1jLpr4	Preescolar Tesistan 14DJN0144f	preescolar	20.8009281	-103.4819442	C. Lucio Blanco 50, 45200 Tesistﾃ｡n, Jal., Mﾃｩxico	['school', 'point_of_interest', 'establishment']
40	ChIJuUF3I1KlKIQRD5STFImP8DE	Preescolar Jaime Nuno	preescolar	20.7665368	-103.4234757	San Juan de Los Lagos 2640-2706, Hogares de Nuevo Mﾃｩxico, 45160 Nuevo Mﾃｩxico, Jal., Mﾃｩxico	['school', 'point_of_interest', 'establishment']
41	ChIJXVW8iYWlKIQRYoVoOaAYr20	Prescolar Bosques	preescolar	20.7615163	-103.4163254	Los Robles 572, Los Robles, 45134 Zapopan, Jal., Mﾃｩxico	['school', 'point_of_interest', 'establishment']
42	ChIJ6xiesqinKIQRAKls3hMNh4E	14DTV0330Q IGNACIO L VALLARTA	preescolar	20.7666707	-103.5257176	45220 Nextipac, Jal., Mﾃｩxico	['school', 'point_of_interest', 'establishment']
43	ChIJj9y_hYmmKIQRirvP_fJ7P-A	Jardﾃｭn de Niﾃｱos Jose Guﾃｭzar Morfﾃｭn	preescolar	20.7990773	-103.4679997	Av Paseo Rﾃｭo Blanco 1642, Parques Tesistan, 45200 Tesistﾃ｡n, Jal., Mﾃｩxico	['school', 'point_of_interest', 'establishment']
44	ChIJV6-FQHqvKIQRmmdwpH1C04s	Genius Kids	preescolar	20.7441659	-103.4121212	C. Tesistﾃ｡n 1317, Arcos de Zapopan, 45130 Zapopan, Jal., Mﾃｩxico	['school', 'point_of_interest', 'establishment']
45	ChIJbzOiKwCpKIQRPhrWJVZCZ0U	CENDI ROSIE STRAFFON	preescolar	20.6813347	-103.4582775	Bajﾃｭo II, 45012 Zapopan, Jal., Mﾃｩxico	['school', 'point_of_interest', 'establishment']
46	ChIJFYeZ1rKuKIQR8h2fftFJaco	El Jardin de Niﾃｱos Enrique Gonzalez Martinez	preescolar	20.6718706	-103.4508362	Calz de los Angeles 112, Granja, 45010 Zapopan, Jal., Mﾃｩxico	['school', 'point_of_interest', 'establishment']
47	ChIJt_2OeWmvKIQRAK0cQFI3aCM	Jardﾃｭn de Niﾃｱos Miguel Hidalgo y Costilla	preescolar	20.7360815	-103.4249243	esq. Jesﾃｺs, C. Violetas sn, La Casita, 45138 Zapopan, Jal., Mﾃｩxico	['school', 'point_of_interest', 'establishment']
48	ChIJdz6BLeOvKIQREiGfbPdDY4U	Kinder Irene Robledo Garcﾃｭa	preescolar	20.7405613	-103.4100558	C. Arco Decio, Arcos de Zapopan, 45130 Zapopan, Jal., Mﾃｩxico	['school', 'point_of_interest', 'establishment']
49	ChIJaaBz9v-mKIQRnBX7zzLK8qA	Jardin de niﾃｱos Amado Nervo	preescolar	20.7941603	-103.4963674	45100, Rﾃｭo Yang-Tsen 153384 153384 2601 136089LB, Santa Lucﾃｭa, Tesistﾃ｡n, Jal., Mﾃｩxico	['school', 'point_of_interest', 'establishment']
50	ChIJudTRzPamKIQRCgSe-otWkfc	Jardin De Niﾃｱos Tesistan	preescolar	20.8012898	-103.4815083	C. Lucio Blanco 15, 45100 Tesistﾃ｡n, Jal., Mﾃｩxico	['school', 'point_of_interest', 'establishment']
51	ChIJE-pYMgCnKIQRh5bfDX6M1DA	cbaij prados de santa lucia	preescolar	20.8011191	-103.4994859	Francisco I. Madero 1248, Santa Lucﾃｭa, 45200 Tesistﾃ｡n, Jal., Mﾃｩxico	['school', 'point_of_interest', 'establishment']
52	ChIJi61xPUunKIQR9-XarVaQsoU	Jardin de niﾃｱos francisco villa	preescolar	20.8137323	-103.4967389	Chihuahua 55, Santa Lucﾃｭa, 45200 Tesistﾃ｡n, Jal., Mﾃｩxico	['school', 'point_of_interest', 'establishment']
53	ChIJ4f-RYb2vKIQRwNC0a8jI94U	"Jardﾃｭn de niﾃｱos ""Agustﾃｭn Yaﾃｱez"" 595"	preescolar	20.743264	-103.4396879	Valle de Atemajac 1717, Parque Real, 45130 Zapopan, Jal., Mﾃｩxico	['school', 'point_of_interest', 'establishment']
54	ChIJKWtvUfmlKIQR2JJp3Y3EYAM	Palatino Centro Educativo	preescolar	20.7819753	-103.4453343	Antiguo Camino a Copalita 2751, Nuevo Mﾃｩxico, 45138 Zapopan, Jal., Mﾃｩxico	['school', 'point_of_interest', 'establishment']
55	ChIJQdp6296lKIQRa2BREwJNEsU	Estancia Infantil Apprehendere Aprender	preescolar	20.779371	-103.4477014	Av. de las Calandrias 2485, Villas de La Loma, 45200 Zapopan, Jal., Mﾃｩxico	['school', 'point_of_interest', 'establishment']
56	ChIJuwwEWfymKIQR43cBoFpMIyQ	Jardﾃｭn de niﾃｱos Jean Piaget	preescolar	20.8031715	-103.4934396	45100, Morelos 38a, Santa Lucﾃｭa, Tesistﾃ｡n, Jal., Mﾃｩxico	['school', 'point_of_interest', 'establishment']
57	ChIJu8vBpOWmKIQRbT2yy2NMXUg	Jardin De Niﾃｱos JOSE ROLON ALCARAZ	preescolar	20.8099221	-103.4876008	Loma del Nte. 74, Loma Chica, 45200 Tesistﾃ｡n, Jal., Mﾃｩxico	['school', 'point_of_interest', 'establishment']
58	ChIJYSZ_fQGnKIQRW1q86QdC5Mg	"Jardﾃｭn De Niﾃｱos No. 493 ""Niﾃｱos Hﾃｩroes"""	preescolar	20.7994529	-103.50087	45100, Juan Escutia 148182, Santa Lucﾃｭa, Tesistﾃ｡n, Jal., Mﾃｩxico	['school', 'point_of_interest', 'establishment']
59	ChIJZ-HyrJqmKIQR_h23CnMjOi0	Kinder Ma Trinidad Yaﾃｱez	preescolar	20.8086193	-103.4622273	C. San Vicente 3239, san josﾃｩ ejidal, 45200 Zapopan, Jal., Mﾃｩxico	['school', 'point_of_interest', 'establishment']
60	ChIJ96MHXhWvKIQR0v7Pqisdyqc	Jardﾃｭn de Niﾃｱos Josﾃｩ Marﾃｭa Velasco	preescolar	20.7471943	-103.4393657	C. Atequiza 40, 45138 Nuevo Mﾃｩxico, Jal., Mﾃｩxico	['school', 'point_of_interest', 'establishment']
61	ChIJ7QvowV6vKIQRSYTnrMajlOQ	JARDIN DE NIﾃ前S NIﾃ前 ARTILLERO	preescolar	20.7482042	-103.4322517	Av. Valle de Mﾃｩxico, Jardines del Valle, 45138 Zapopan, Jal., Mﾃｩxico	['school', 'point_of_interest', 'establishment']
62	ChIJWTBJBQyvKIQRbdMvYLd8Wok	JARDﾃ康 DE NIﾃ前S CITLALLI	preescolar	20.7253904	-103.4116287	Sta. Laura 177, Lomas del Bosque, Santa Margarita1a Secc., 45140 Zapopan, Jal., Mﾃｩxico	['school', 'point_of_interest', 'establishment']
63	ChIJfdYAYWCmKIQR0ZIe3Xu_1yg	J.de N. Agustin Melgar	preescolar	20.7932341	-103.4729208	Lﾃｳpez Mateos 13, Estrada, 45200 Tesistﾃ｡n, Jal., Mﾃｩxico	['school', 'point_of_interest', 'establishment']
64	ChIJdYPpGoamKIQR25oTszFDY40	Jardin De Niﾃｱos Magdalena Cueva	preescolar	20.8017147	-103.4621775	C. Hidalgo 5-62, Hacienda Las Palomas, 45200 La Magdalena, Jal., Mﾃｩxico	['school', 'point_of_interest', 'establishment']
65	ChIJ4ZN81fCvKIQR2SkL0cQP3uk	Preescolar Ausubel	preescolar	20.7511289	-103.373245	C. Prol. Belenes 1619, Jardines del Vergel, 45180 Zapopan, Jal., Mﾃｩxico	['school', 'point_of_interest', 'establishment']
66	ChIJQ9N_aOSmKIQRZLhC-iyzSck	kinder primavera	preescolar	20.8098919	-103.4904268	Loma Real 361, Santa Lucﾃｭa, 45100 Tesistﾃ｡n, Jal., Mﾃｩxico	['school', 'point_of_interest', 'establishment']
67	ChIJbYF6hRCjKIQRtVJ4xK3i8kI	Kinder marcos castellanos	preescolar	20.8567084	-103.4354763	45200 Zapopan, Jal., Mﾃｩxico	['school', 'point_of_interest', 'establishment']
68	ChIJ4xlXKiKkKIQRqxKdIdqT7co	Jardin de Niﾃｱos Joaquﾃｭn Gutiﾃｩrrez Heras # 724	preescolar	20.8187965	-103.4452238	Av. Molino de Trigo, 45200 Fraccionamiento Los Molinos, Jal., Mﾃｩxico	['school', 'point_of_interest', 'establishment']
69	ChIJZ4SLIF2tKIQRzaCfd_NfDpU	Creer Preescolar	preescolar	20.5942401	-103.438339	San Antonio 30, El Campanario, 45609 Zapopan, Jal., Mﾃｩxico	['school', 'point_of_interest', 'establishment']
70	ChIJSbCryI2rKIQRt1SEEkuhNBg	Jardﾃｭn de Niﾃｱos Aurora Sanchez Gutierrez de Rovelo	preescolar	20.6285447	-103.4605329	Prol. Av. Guadalupe 1610-A, Arenales Tapatﾃｭos, 45066 Zapopan, Jal., Mﾃｩxico	['school', 'point_of_interest', 'establishment']
71	ChIJIVvAsVirKIQR0_lb06xjlB4	Kinder preescolar	preescolar	20.5810664	-103.4520011	San Josﾃｩ, Santa Isabel, El Palomar, 45640 Palomar, Jal., Mﾃｩxico	['school', 'point_of_interest', 'establishment']
72	ChIJn1zU1ZWrKIQRI-uqca-PLp8	Kﾃｭnder Biizu Huiini	preescolar	20.6269465	-103.4716947	Francisco Montes de Oca 3352, El Fortﾃｭn, 45066 Zapopan, Jal., Mﾃｩxico	['school', 'point_of_interest', 'establishment']
73	ChIJ02PhcWusKIQRCt0mIRQ1F0s	Santillana Preescolar Bilingﾃｼe	preescolar	20.6335264	-103.4329119	C. Claudio Ptolomeo 2962, Arboledas, 45079 Zapopan, Jal., Mﾃｩxico	['school', 'point_of_interest', 'establishment']
74	ChIJe1K-qL2sKIQRS0VDwp_HEjI	Colegio Mahatma Preescolar	preescolar	20.586442	-103.4364588	Priv. Azucena 3270, La Tijera, 45647 La Tijera, Jal., Mﾃｩxico	['school', 'point_of_interest', 'establishment']
75	ChIJfwYM9VOsKIQRqbuvo1rlCWQ	Preescolar Ca Edu	preescolar	20.6199756	-103.4096242	C. Rio Tula, Colinas de las ﾃ“uilas, 45608 Zapopan, Jal., Mﾃｩxico	['school', 'point_of_interest', 'establishment']
76	ChIJFStppkOsKIQRICLmxMfnJ-E	Centro Pedagﾃｳgico Colibrﾃｭ	preescolar	20.6278658	-103.4244548	C. Carnero 5566, Arboledas, 45070 Zapopan, Jal., Mﾃｩxico	['library', 'school', 'point_of_interest', 'establishment']
77	ChIJ31GI44WrKIQRP3ihZqezXUs	Jardin de Niﾃｱos Yolotl	preescolar	20.6210747	-103.4572659	Iturbide, Esquina Con Calle Morelos 59, Santa Ana Tepetitlﾃ｡n, 45230 Zapopan, Jal., Mﾃｩxico	['school', 'point_of_interest', 'establishment']
78	ChIJ-4EpKlhTL4QR1kNgri7Yuvk	PREESCOLAR DISCOVERY	preescolar	20.5526099	-103.4488192	Av. Ramon Corona 582, 45600 Santa Anita, Jal., Mﾃｩxico	['school', 'point_of_interest', 'establishment']
79	ChIJUXBwKKmtKIQRjfuhkLpSNGM	PREESCOLAR Lﾃ撤EZ COTILLA	preescolar	20.6203445	-103.3965404	C. Vista a la Campiﾃｱa 2989, El Sauz, 45608 San Pedro Tlaquepaque, Jal., Mﾃｩxico	['school', 'point_of_interest', 'establishment']
80	ChIJj3lS8ZRUL4QRLIR7wIJQ8Qk	Preescolar Estefanﾃｭa Castaﾃｱeda	preescolar	20.5353028	-103.4717289	C. Laguna Madre 23, 45640 Lomas de San Agustﾃｭn, Jal., Mﾃｩxico	['school', 'point_of_interest', 'establishment']
81	ChIJLWgyfThVL4QROvp0ghCQnx8	Bilingual Genius Kids Plantel Tlajomulco	preescolar	20.5450178	-103.4657678	Nicolﾃ｡s R. Casillas 47, 45640 San Agustﾃｭn, Jal., Mﾃｩxico	['school', 'point_of_interest', 'establishment']
82	ChIJIVIqx0esKIQRPpBSDyYKgdE	Ozmy Gdl (Guarderﾃｭa, preescolar y club de tareas primaria))	preescolar	20.6349825	-103.417775	C. Oriﾃｳn 3424, La Calma, 45070 Zapopan, Jal., Mﾃｩxico	['school', 'point_of_interest', 'establishment']
83	ChIJheWN1PCrKIQRKO-MxMF6Yg0	JARDIN DE NIﾃ前S HUITZILIHUITL	preescolar	20.6426735	-103.457235	Puerto Lobo 3639, Miramar, 45060 Zapopan, Jal., Mﾃｩxico	['school', 'point_of_interest', 'establishment']
84	ChIJf3AnUkSsKIQRINmh5r8_rok	JARDIN DE NIﾃ前S MI GRAN MUNDO	preescolar	20.6283783	-103.4198372	Av. Nicolﾃ｡s Copﾃｩrnico 3647, Arboledas, 45070 Zapopan, Jal., Mﾃｩxico	['school', 'point_of_interest', 'establishment']
85	ChIJ61CgtHWsKIQR4mnJ2QV5Ltk	J. De N. Citlaltzintli	preescolar	20.630509	-103.4483229	Calle, Lﾃ｡zaro Cﾃ｡rdenas 2071, Mariano Otero, 45067 Zapopan, Jal., Mﾃｩxico	['school', 'point_of_interest', 'establishment']
86	ChIJJRsEQhqsKIQRAZp5veBKOeI	EL JARDIN DE NIﾃ前S ANA MARIA CASILLAS MEZA	preescolar	20.6485957	-103.4356656	C. Playa de Santiago 6254, Moctezuma Pte., Moctezuma Poniente, 45059 Zapopan, Jal., Mﾃｩxico	['school', 'point_of_interest', 'establishment']
87	ChIJJ7qYNoKvKIQRzeQGxjccu_g	KINDER NIﾃ前 ARTILLERO	preescolar	20.7478636	-103.4024989	Av Torremolinos 2523, Lomas de Zapopan, 45130 Zapopan, Jal., Mﾃｩxico	['school', 'point_of_interest', 'establishment']
88	ChIJqahXYGCmKIQR6M9cilTQ1Q0	Jardin De Niﾃｱos C Bancalary	preescolar	20.7932202	-103.4729197	Lﾃｳpez Mateos 13, Estrada, 45200 Tesistﾃ｡n, Jal., Mﾃｩxico	['school', 'point_of_interest', 'establishment']
89	ChIJI02LgFqrKIQRQYXGoFsR0cA	Jardﾃｭn de niﾃｱos Fernando Montes de Oca	preescolar	20.5809874	-103.4518155	San Josﾃｩ 105, Santa Isabel, El Palomar, 45640 Palomar, Jal., Mﾃｩxico	['school', 'point_of_interest', 'establishment']
90	ChIJUZo7qcRVL4QR9kqaUSls_aQ	Jardﾃｭn de niﾃｱos Josﾃｩ Clemente Orozco	preescolar	20.5399681	-103.4695909	San Agustﾃｭn, 45645 San Agustﾃｭn, Jal., Mﾃｩxico	['school', 'point_of_interest', 'establishment']
91	ChIJo6K-b3CsKIQRYB_RQBK8eYM	Johann Heinrich Pestalozzi	preescolar	20.6239372	-103.4417057	Av. Tepeyac 5483, Jardines del Ixtﾃｩpete, 45236 Zapopan, Jal., Mﾃｩxico	['school', 'point_of_interest', 'establishment']
92	ChIJwZcRHR6tKIQR0BYNK-6gFV0	GUZYMARD	preescolar	20.6029679	-103.4411299	Cto. de las Flores Pte. 2073, Bugambilias, 45078 Zapopan, Jal., Mﾃｩxico	['school', 'primary_school', 'point_of_interest', 'establishment']
93	ChIJJ69WnO2rKIQRBvQF_LoycdE	"JARDIN DE NIﾃ前S ""MANUEL LOPEZ COTILLA"""	preescolar	20.6363243	-103.4636402	Radio 17, Arenales Tapatﾃｭos, 45066 Zapopan, Jal., Mﾃｩxico	['school', 'point_of_interest', 'establishment']
94	ChIJrfvp34yrKIQREc971gh9xFg	"Jardﾃｭn de Niﾃｱos ""Tomﾃ｡s Escobedo Barba"""	preescolar	20.6320857	-103.4596947	C. Cromita 51, Arenales Tapatﾃｭos, 45066 Zapopan, Jal., Mﾃｩxico	['school', 'point_of_interest', 'establishment']
95	ChIJfdbgDsmuKIQRYt4vmZssBzA	Waldorf de Guadalajara	preescolar	20.6349372	-103.475996	Avenida Central 25, El Tizate, Granja, 45010 Zapopan, Jal., Mﾃｩxico	['school', 'point_of_interest', 'establishment']
96	ChIJN5BJbgCrKIQRgG5P0ttWvWw	Prescolar	preescolar	20.6387638	-103.4748059	Jdn. de Los Claveles SN-C PAPELERIA, Lomas de La Primavera, Colinas de la Primavera, 45066 Zapopan, Jal., Mﾃｩxico	['school', 'point_of_interest', 'establishment']
97	ChIJGzgN89yrKIQR-dAWA23X0J8	Jardﾃｭn de Niﾃｱos Paulo Freide	preescolar	20.6461657	-103.4784938	Gardenias Sn, Lomas de La Primavera, Colinas de la Primavera, 45180 Zapopan, Jal., Mﾃｩxico	['school', 'point_of_interest', 'establishment']
98	ChIJ0V3gpuurKIQRXD1T-pyaPTM	JARDIN DE NINOS TENAMAZTLI	preescolar	20.6358374	-103.4704747	Cascada esquina Paseo de la Primavera, Lomas de La Primavera, Arenales Tapatﾃｭos, 45010 Zapopan, Jal., Mﾃｩxico	['school', 'point_of_interest', 'establishment']
99	ChIJkT7axAWrKIQR_NcLr66X_9E	Jardﾃｭn de Niﾃｱos Enrique Gonzalez Mtz T/V	preescolar	20.6454115	-103.4746116	C. Tepatitlﾃ｡n 2909, Lomas de La Primavera, Colinas de la Primavera, 45066 Zapopan, Jal., Mﾃｩxico	['school', 'point_of_interest', 'establishment']
100	ChIJ25B3r5KrKIQRe0a_A48hhHc	Kinder Juan Escutia	preescolar	20.6325501	-103.4632716	Arenales Tapatﾃｭos, 45066 Zapopan, Jal., Mﾃｩxico	['school', 'point_of_interest', 'establishment']
101	ChIJp92dqvWrKIQRgKS6AWzx_uk	JARDIN DE NIﾃ前S ZAPOPAN	preescolar	20.6369178	-103.453941	C. Puerto Chamela 1610, Miramar, 45070 Zapopan, Jal., Mﾃｩxico	['school', 'point_of_interest', 'establishment']
102	ChIJjcvVyKurKIQR0bobh5FdeOM	Luis farah mata	preescolar	20.6480124	-103.4653765	La Floresta del Colli, Colinas de la Primavera, 45068 Zapopan, Jal., Mﾃｩxico	['school', 'point_of_interest', 'establishment']
103	ChIJkxJ_YwCrKIQRJuSYt1i_g9Y	Kinder guarderﾃｭa JJR	preescolar	20.6359691	-103.4524006	Puerto Isla Mujeres 2822, Miramar, 45060 Zapopan, Jal., Mﾃｩxico	['school', 'point_of_interest', 'establishment']
104	ChIJURrPcraxKIQRZNrxwL14le0	Gregoria Ramﾃｭrez de Orozco	preescolar	20.6406421	-103.4506126	Puerto Batabampo 3040, Miramar, 45060 Zapopan, Jal., Mﾃｩxico	['school', 'point_of_interest', 'establishment']
105	ChIJjcIlIQCrKIQRpFIVAPI1iTw	Jefri hepstein (jardﾃｭn de niﾃｱos especiales)	preescolar	20.6297122	-103.4671022	Av. del Bronce 268, Misiﾃｳn la Floresta, 45066 Zapopan, Jal., Mﾃｩxico	['school', 'point_of_interest', 'establishment']
106	ChIJbdscVnWsKIQRcI7K7Rc5nhU	Jardﾃｭn de niﾃｱos Josﾃｩ Vasconcelos	preescolar	20.6354459	-103.4505486	C. Turqueza 1462, Mariano Otero, 45067 Zapopan, Jal., Mﾃｩxico	['school', 'point_of_interest', 'establishment']
107	ChIJL5hXUcWoKIQRmKiqTYk5XWY	Summit School	preescolar	20.7154187	-103.4631429	Prol. Av. 5 De Mayo 500, Rinconada del Bosque, 45019 Zapopan, Jal., Mﾃｩxico	['primary_school', 'secondary_school', 'school', 'point_of_interest', 'establishment']
108	ChIJcd4fT4evKIQRPQtjdJG0Ocw	Kinder preescolar	preescolar	20.677921	-103.4351409	Emiliano Zapata, Sta Marﾃｭa del Pueblito, 45018 Zapopan, Jal., Mﾃｩxico	['school', 'point_of_interest', 'establishment']
109	ChIJv6SYCYKvKIQRmWb84Ke5Wjk	Preescolar Niﾃｱo Artillero	preescolar	20.6854223	-103.4171758	C. Ernest Hemingway 196, Jardines de la Patria, 45110 Zapopan, Jal., Mﾃｩxico	['school', 'point_of_interest', 'establishment']
110	ChIJ4aQfQcqvKIQRZ120EsN0QB8	Instituto de Ciencias	preescolar	20.7251313	-103.4734963	P.ﾂｺ de la Estrella 1371, Col. San Juan de Ocotﾃ｡n, 45019 Zapopan, Jal., Mﾃｩxico	['primary_school', 'secondary_school', 'school', 'point_of_interest', 'establishment']
111	ChIJm722UkKvKIQRI-VdkuAeBXQ	Wonderland Kindergarten	preescolar	20.7372008	-103.4310319	Av. del Servidor Pﾃｺblico no. 1351, Jardines del Valle, 45136 Zapopan, Jal., Mﾃｩxico	['school', 'point_of_interest', 'establishment']
112	ChIJQ1A7gK-vKIQRdnCTEDikZik	"JARDﾃ康 de NIﾃ前S ""EVA SAMANO DE LOPEZ MATEOS"""	preescolar	20.7200642	-103.3962541	Naranjos, esquina con Calle Del Naranjo 469, Linda Vista, 45169 Zapopan, Jal., Mﾃｩxico	['school', 'point_of_interest', 'establishment']
113	ChIJLWdEBeuuKIQRqQzMfGotoF8	El Pequeﾃｱo Mundo Infantil	preescolar	20.6852543	-103.4245137	Avenida Enrique Gﾃｳmez Carrillo 5159, Jardines Universidad, 45110 Zapopan, Jal., Mﾃｩxico	['school', 'point_of_interest', 'establishment']
114	ChIJTzhO-HmvKIQR-jdpumPpri4	Jardin de Niﾃｱos IRENE ROBLEDO GARCIA	preescolar	20.7430432	-103.410607	Lat. Juan Gil Preciado 1197, Arcos de Zapopan, 45130 Zapopan, Jal., Mﾃｩxico	['school', 'point_of_interest', 'establishment']
115	ChIJ-Z92TEOvKIQRJC_i4BQDTDI	Kids Valley School	preescolar	20.7417281	-103.4325806	Av Valle de Atemajac 2445-18, 45138 Zapopan, Jal., Mﾃｩxico	['school', 'primary_school', 'point_of_interest', 'establishment']
116	ChIJvUJT-1qlKIQRsJL5-Kpeqq0	Jardﾃｭn de Niﾃｱos Josﾃｩ Vasconcelos 183	preescolar	20.7677878	-103.4465379	Eliseo Orozco Gtz. 140, 45138 Nuevo Mﾃｩxico, Jal., Mﾃｩxico	['school', 'point_of_interest', 'establishment']
117	ChIJ-5UuevmnKIQR60CfFqcD7gk	Colegio Kaambal	preescolar	20.799353	-103.475622	San Francisco 63, 45200 Tesistﾃ｡n, Jal., Mﾃｩxico	['school', 'point_of_interest', 'establishment']
118	ChIJL7m76eqsKIQRps5IzA_mx7Q	Jardﾃｭn de Niﾃｱos Jose Parrea Arias 488	preescolar	20.5913769	-103.4265197	De Las Rosas 2396, Los Cajetes, 45234 Zapopan, Jal., Mﾃｩxico	['school', 'point_of_interest', 'establishment']
119	ChIJF2-hr42rKIQRv9F4eZ2EsV8	COLEGIO MONTESSORI IXTEPETE	preescolar	20.6299801	-103.4604191	Prol. Av. Guadalupe No. 21, Arenales Tapatﾃｭos, 45066 Zapopan, Jal., Mﾃｩxico	['school', 'point_of_interest', 'establishment']
120	ChIJe7FAEnWtKIQRo_Xmj4KQMJA	PREESCOLAR REVOLUCION MEXICANA	preescolar	20.6147996	-103.379936	C. Othﾃｳn Blanco Cﾃ｡ceres 4601, Lﾃ｡zaro Cﾃ｡rdenas, 44980 Guadalajara, Jal., Mﾃｩxico	['school', 'point_of_interest', 'establishment']
121	ChIJu1VwrhysKIQRUeqJRH8F5P8	Jardin De Niﾃｱos Bertha Von Glummer	preescolar	20.6526478	-103.4392359	4 de Febrero 2201, Colli Sitio, 45036 Zapopan, Jal., Mﾃｩxico	['school', 'point_of_interest', 'establishment']
122	ChIJeZDpfJCuKIQRKzGfgaeK9WU	Jardin de NiﾃｱosTeresa de Calcuta	preescolar	20.6723135	-103.4191569	Juan, Av. Sebastian Bach 4797, Prados Vallarta, 45020 Zapopan, Jal., Mﾃｩxico	['school', 'point_of_interest', 'establishment']
123	ChIJLZks8KuuKIQR8pc7Nvs4uSA	Parvulari Kinder	preescolar	20.6629602	-103.4451925	C. Mision San Lorenzo 445, Rinconada del Parque, 45010 Zapopan, Jal., Mﾃｩxico	['school', 'point_of_interest', 'establishment']
124	ChIJ5TegOpuuKIQRlwx9uU5EFkw	Clairmont School Preescolar, Primaria, Secundaria	preescolar	20.6685375	-103.4171172	Antonio ﾃ〕varez del Castillo 4228, Calle San Juan Bosco 4759, Lomas de Guadalupe, 45030 Guadalajara, Jal., Mﾃｩxico	['primary_school', 'school', 'point_of_interest', 'establishment']
125	ChIJYY_sbpquKIQRDxC_FT-_TAA	PRESCOLAR MARGARITA LOPEZ BARBA	preescolar	20.6707693	-103.4202486	George Haendel 335, Residencial Cordilleras, 45039 Zapopan, Jal., Mﾃｩxico	['school', 'point_of_interest', 'establishment']
126	ChIJYfaLbQClKIQRC4u5ulhb4Ys	Jardﾃｭn de niﾃｱos federal Maria Izquierdo	preescolar	20.7755	-103.4365704	Col. San Gonzalo, 45134 Nuevo Mﾃｩxico, Jal., Mﾃｩxico	['school', 'point_of_interest', 'establishment']
127	ChIJ2QZq4YumKIQRlGL9IZD6WQs	Escuela Primaria Amado Nervo	preescolar	20.8013808	-103.4665713	C. Puente Chico 730, 45200 Tesistﾃ｡n, Jal., Mﾃｩxico	['school', 'point_of_interest', 'establishment']
128	ChIJz-OIfSmjKIQR_GokJmi-CI4	Jardﾃｭn de niﾃｱos Arturo Mﾃ｡rquez Navarro	preescolar	20.8473516	-103.4239888	Valle de Zapopan, 45200 Valle de los Molinos, Jal., Mﾃｩxico	['school', 'point_of_interest', 'establishment']
129	ChIJU6fwB3qlKIQRQByBdklni24	Jardin de Niﾃｱos Pedro Moreno	preescolar	20.8306266	-103.447203	45200 Ejido Copalita, Jal., Mﾃｩxico	['school', 'point_of_interest', 'establishment']
130	ChIJicSH07KhKIQRwnXzD2gD3kA	Jardﾃｭn de Niﾃｱos ﾃ］gela Peralta	preescolar	20.8586946	-103.4517489	Mirador del Bosque, 45200 Mirador del Bosque, Jal., Mﾃｩxico	['school', 'point_of_interest', 'establishment']
131	ChIJTdy1e5-sKIQRXbQDYTpZ6OA	Oakland School	preescolar	20.588218	-103.4475055	C. Las Villas 18, Fraccionamiento las villas, 45643 Palomar, Jal., Mﾃｩxico	['school', 'point_of_interest', 'establishment']
132	ChIJPSdwGPGrKIQRQQEyQq5Hx6Q	Guarderia Mi Primer Paso	preescolar	20.6417896	-103.4584554	C. Puerto Tampico 127, Miramar, 45060 Zapopan, Jal., Mﾃｩxico	['school', 'point_of_interest', 'establishment']
133	ChIJS_XxBQesKIQRPC_ZBvCwlww	Jardﾃｭn de Niﾃｱos 588 Maria Dolores Hijar Medina	preescolar	20.6494568	-103.4489264	Chabacano 1585, Paraﾃｭsos del Colli, 45069 Zapopan, Jal., Mﾃｩxico	['school', 'point_of_interest', 'establishment']
134	ChIJm2XCdgCpKIQR_WIpDT1lkw8	"Jardﾃｭn de Niﾃｱos""Pablo Montesinos"""	preescolar	20.6610235	-103.4536408	C. San Gregorio 16, La Gloria del Colli, 45010 Zapopan, Jal., Mﾃｩxico	['school', 'point_of_interest', 'establishment']
135	ChIJzyJ1xQasKIQRPN8tdv5531w	Jardﾃｭn de Niﾃｱos Margarita Zermeﾃｱo	preescolar	20.6513426	-103.4474564	Abedul 1438, Paraﾃｭsos del Colli, 45069 Zapopan, Jal., Mﾃｩxico	['school', 'point_of_interest', 'establishment']
136	ChIJx3UJo--rKIQR0FvpMWm2jG8	effff	preescolar	20.6458869	-103.451568	C. Pino 1033, Paraﾃｭsos del Colli, 45069 Zapopan, Jal., Mﾃｩxico	['school', 'point_of_interest', 'establishment']
137	ChIJmT7TxsquKIQRCpBVEq8p3rc	Bambino- Haramara	preescolar	20.6829151	-103.4499055	Calz. De Los Ciprﾃｩses 7283, Granja, 45010 Zapopan, Jal., Mﾃｩxico	['school', 'point_of_interest', 'establishment']
138	ChIJ-at_9xisKIQRbuDZOIC4a4A	Jardin de niﾃｱos PROF. RAMON GARCIA RUIZ	preescolar	20.6506459	-103.430215	Av Moctezuma 5510, Nueva Primavera, 45050 Zapopan, Jal., Mﾃｩxico	['school', 'point_of_interest', 'establishment']
139	ChIJB8R-RMCvKIQRr4NWsxU36V0	Calz.Cipreses 148	preescolar	20.6853777	-103.4511265	Calz. De Los Ciprﾃｩses 148, Granja, 45010 Zapopan, Jal., Mﾃｩxico	['school', 'point_of_interest', 'establishment']
140	ChIJyw-N-LWuKIQRACiH3Yr_loI	CreeSer Montessori Preescolar	preescolar	20.6811462	-103.4457787	Calz. Circunvalaciﾃｳn Pte 57A, Granja, 45010 Zapopan, Jal., Mﾃｩxico	['school', 'point_of_interest', 'establishment']
141	ChIJzdh_RR6pKIQRhdHgcQJexTs	Neurotools Zona Real	preescolar	20.7292008	-103.4517613	Av. Aviaciﾃｳn 3640, Valle Real, 45019 Zapopan, Jal., Mﾃｩxico	['school', 'point_of_interest', 'establishment']
142	ChIJjachk2-vKIQRp-zzh7mBnX0	JARDIN DE NIﾃ前S JUAN ESCUTIA	preescolar	20.7409863	-103.4179147	1310-A, San Marcos, Sta Margarita, 45138 Zapopan, Jal., Mﾃｩxico	['school', 'point_of_interest', 'establishment']
143	ChIJzREaJcunKIQRSqHl85VGfwo	Escuela de Lia	preescolar	20.7629392	-103.451909	Rincﾃｳn de Los Naranjos 99, Heroes Nacionales, 45138 Nuevo Mﾃｩxico, Jal., Mﾃｩxico	['school', 'point_of_interest', 'establishment']
144	ChIJbW5nwdClKIQRqyYWXE5Yd4o	Primaria Frida Kahlo	preescolar	20.7623388	-103.439273	C. 6 de Enero 290, 45138 Nuevo Mﾃｩxico, Jal., Mﾃｩxico	['school', 'point_of_interest', 'establishment']
145	ChIJrcChBgimKIQRuNkbaeHsavo	Jardin De Niﾃｱo Genaro Codina	preescolar	20.7625797	-103.4508894	C. las Palmas, Heroes Nacionales, 45138 Nuevo Mﾃｩxico, Jal., Mﾃｩxico	['school', 'point_of_interest', 'establishment']
146	ChIJl_tjnYumKIQRMJCq4s2Ww2M	Jardin De Niﾃｱos Maria Montesory	preescolar	20.8010873	-103.4713367	45100, C. Puente Chico 95, Tesistﾃ｡n, Jal., Mﾃｩxico	['school', 'point_of_interest', 'establishment']
147	ChIJgZG0QdenKIQRmV5To2tozCg	Aprende club de tareas (Regularizaciﾃｳn escolar)	preescolar	20.7994006	-103.4673073	C. Parque Mexicano 414, Parques Tesistan, 45200 Tesistﾃ｡n, Jal., Mﾃｩxico	['school', 'point_of_interest', 'establishment']
148	ChIJ85WlA4qjKIQRQp9FkIP3FWs	Kinder Guarderﾃｭa Decroly 14DJN0430N	preescolar	20.8501487	-103.4291509	Circuito ﾃｳpalo calle Varsonia Valle de los molinos, 45200 Guadalajara, Jal., Mﾃｩxico	['school', 'point_of_interest', 'establishment']
149	ChIJHZrFzb6jKIQRIuxbIPtdBSA	Jardin de Niﾃｱos Manuel Toussaint Ritter	preescolar	20.8534696	-103.4209629	45200 Valle de los Molinos, Jal., Mﾃｩxico	['school', 'point_of_interest', 'establishment']
150	ChIJU04n3r2jKIQRUWiOZTvDV98	PRIMARIA MARCO ANTONIO MONTES DE OCA	preescolar	20.8591132	-103.4522136	Av. Del Bosque, Mirador del Bosque, 45200 Jal., Mﾃｩxico	['school', 'point_of_interest', 'establishment']
151	ChIJVVUFH36rKIQRxmxi1IE5RPA	Cornerstone Academy	preescolar	20.6062711	-103.451256	Callejon del Iris 45, Bugambilias, 45238 Guadalajara, Jal., Mﾃｩxico	['primary_school', 'school', 'point_of_interest', 'establishment']
152	ChIJYUZumNOtKIQRa-ryOun2UVk	Neurotools Zona Sur	preescolar	20.6056151	-103.4468577	Cto. de las Flores Nte. 2288, Bugambilias, 45238 Zapopan, Jal., Mﾃｩxico	['school', 'point_of_interest', 'establishment']
153	ChIJG7ozAoSsKIQReUm7V3Moquk	Instituto DaVinci Talentos | Bugambilias	preescolar	20.6056541	-103.4472098	Cto. de las Flores Nte. 2304, Bugambilias, 45238 Zapopan, Jal., Mﾃｩxico	['school', 'point_of_interest', 'establishment']
154	ChIJVZANi2-sKIQRemsbSEjeaVI	JARDIN DE NIﾃ前S MA. GUADALUPE PALAFOX	preescolar	20.6238285	-103.4380137	Av. Lﾃｳpez Portillo 75, El Briseﾃｱo, 45236 Zapopan, Jal., Mﾃｩxico	['school', 'point_of_interest', 'establishment']
155	ChIJzX2CKmKsKIQRH9CBp3FdIn4	KINDER MARIA GUADALUPE COSIO VIDAURRI 213	preescolar	20.6150972	-103.433876	Hortencia 884, Agrﾃｭcola, 45236 Zapopan, Jal., Mﾃｩxico	['school', 'point_of_interest', 'establishment']
156	ChIJp1UWuYmsKIQRUtmMeYa584o	"Jardﾃｭn de Niﾃｱos ""Marﾃｭa Bertila"""	preescolar	20.6103551	-103.4357538	Calle Lﾃｳpez Portillo 101, Francisco Sarabia, 45236 Zapopan, Jal., Mﾃｩxico	['point_of_interest', 'establishment']
157	ChIJAT6Io3utKIQRqonu-UmX0JI	Jardﾃｭn de Niﾃｱos Pestalozzi	preescolar	20.6240021	-103.4416878	Av. Tepeyac 5483, Villa del Ixtﾃｩpete IV, 45236 Zapopan, Jal., Mﾃｩxico	['school', 'point_of_interest', 'establishment']
158	ChIJmSmjLImsKIQRLWdBcgu9FYg	JARDIN DE NIﾃ前S NETZAHUALCOYOTL 14EJN0797D	preescolar	20.6061346	-103.4364395	Gustavo Dﾃｭaz Ordaz Esquina Calle Lﾃｳpez Portillo, Miguel de la Madrid, 45239 Zapopan, Jal., Mﾃｩxico	['school', 'point_of_interest', 'establishment']
159	ChIJY--97oqrKIQRvSq3Y_MnOn4	Estancia Infantil Libertad	preescolar	20.6324045	-103.4530933	Coral 2320, Mariano Otero, 45067 Zapopan, Jal., Mﾃｩxico	['school', 'point_of_interest', 'establishment']
160	ChIJZRFiGhCsKIQRMUj1FUiYIWY	xochitlcalli	preescolar	20.6459127	-103.439	Volcﾃ｡n Fujiyama 7, Colli Urbano, 45070 Zapopan, Jal., Mﾃｩxico	['school', 'point_of_interest', 'establishment']
161	ChIJs3JjjB2sKIQRYw0C3wpvv3c	Instituto Miguel ﾃ］gel de Occidente	preescolar	20.6594679	-103.4443595	Av Guadalupe 6600, Guadalupe Inn, Exitmex, 45010 Zapopan, Jal., Mﾃｩxico	['primary_school', 'school', 'point_of_interest', 'establishment']
162	ChIJwRQvDhysKIQRd7qOuGsZOnY	Kinder Zapopantl	preescolar	20.6536813	-103.4348477	Misiﾃｳn San Fernando 250, Residencial Plaza Guadalupe, Plaza Guadalupe, 45030 Zapopan, Jal., Mﾃｩxico	['school', 'point_of_interest', 'establishment']
163	ChIJ7WxbhqevKIQRkn33xKs6MhA	Tzitlacalli Cd. Granja	preescolar	20.6746299	-103.4458998	Calz. Circunvalacion Ote. 129, Granja, 45010 Zapopan, Jal., Mﾃｩxico	['school', 'point_of_interest', 'establishment']
164	ChIJyxburNevKIQRxDeqc5xFs1I	CreeSer Montessori Primaria	preescolar	20.677619	-103.4483469	Calz de los Paraﾃｭsos 13A, Granja, 45010 Zapopan, Jal., Mﾃｩxico	['primary_school', 'school', 'point_of_interest', 'establishment']
165	ChIJWdKXxDSpKIQRgxntED-f3KU	Bambino Montessori	preescolar	20.6846192	-103.4519715	Calz de los Laureles 69, Granja, 45010 Zapopan, Jal., Mﾃｩxico	['school', 'primary_school', 'point_of_interest', 'establishment']
166	ChIJLYVm3CqpKIQR0ghaz3vLvbc	Kinder Xuchitla t/m Aurelio Ortega t/v	preescolar	20.7016799	-103.4523684	Indﾃｭgena San Juan de Ocotﾃ｡n, 45019 Zapopan, Jal., Mﾃｩxico	['school', 'point_of_interest', 'establishment']
167	ChIJ5_BzbSqvKIQRZnNnR6LBe8U	Jardin de Niﾃｱos Alfredo V Bonfil	preescolar	20.712723	-103.4511003	Sonora 240, San Juan de Ocotﾃ｡n, 45019 Zapopan, Jal., Mﾃｩxico	['school', 'point_of_interest', 'establishment']
168	ChIJVWS91iilKIQRvxou1BXNFC0	Jardﾃｭn de niﾃｱos Gabriela Mistral	preescolar	20.7627	-103.4441128	Octava Ote. 476, 45138 Nuevo Mﾃｩxico, Jal., Mﾃｩxico	['school', 'point_of_interest', 'establishment']
169	ChIJKW_lhOGlKIQRfm5wLxB56VE	Colegio Mano Amiga Guadalajara	preescolar	20.7698151	-103.4494182	Segunda Poniente 275 Col. Jardines de Nuevo Mﾃｩxico, 45200 Guadalajara, Jal., Mﾃｩxico	['primary_school', 'secondary_school', 'school', 'point_of_interest', 'establishment']
170	ChIJh664weClKIQRwJcVgXrg6vA	Colegio Sor Juana Inﾃｩs de la Cruz	preescolar	20.7728875	-103.4466021	C. Aguacate 1882, Marcelino Garcﾃｭa Barragﾃ｡n, 45134 Zapopan, Jal., Mﾃｩxico	['primary_school', 'school', 'point_of_interest', 'establishment']
171	ChIJaeeIKgOkKIQRVasQBiUj_7E	Jardﾃｭn Sonrisas	preescolar	20.8331683	-103.4482501	C. Golondrinas 3, Fraccionamiento las Golondrinas, 45200 Ejido Copalita, Jal., Mﾃｩxico	['school', 'point_of_interest', 'establishment']
172	ChIJ71Uvd0SlKIQR2y1J8ZoNt3Q	Colegio Galileo Galilei	preescolar	20.8331992	-103.4482361	C. Golondrinas 3, Fraccionamiento Las Golondrinas, 45200 Ejido Copalita, Jal., Mﾃｩxico	['school', 'point_of_interest', 'establishment']
173	ChIJL-0NnFalKIQRVGqekehlOtM	Preescolar	preescolar	20.8083521	-103.3749573	Calle Emiliano Zapata, 45205 San Esteban, Jal., Mﾃｩxico	['school', 'point_of_interest', 'establishment']
174	ChIJndHmNXWjKIQRTGIEDcJeY6Q	Kinder Umberto eco	preescolar	20.8512917	-103.420854	Valle del Sol, Av Valle de Ameca, 45200 Valle de los Molinos, Jal., Mﾃｩxico	['school', 'point_of_interest', 'establishment']
175	ChIJ4aZXLvilKIQRnb0E9xj6Avg	Jardin de Niﾃｱos Eduardo Matos Moctezuma	preescolar	20.8356307	-103.41174	45200 Cﾃｳpala, Jal., Mﾃｩxico	['school', 'point_of_interest', 'establishment']
176	ChIJ_x4prJyuKIQRBLR-bpoQITg	Kinder Kin	preescolar	20.6655455	-103.4168232	Av. San Luis Gonzaga 4737, Jardines de Guadalupe, 45020 Zapopan, Jal., Mﾃｩxico	['school', 'point_of_interest', 'establishment']
177	ChIJU6OGy5isKIQR00JAiIWbzW4	Montessori La Calma Campus Palomar	preescolar	20.5896898	-103.4453192	Av. Adolfo Lﾃｳpez Mateos Sur 1400-A, El Palomar, 45643 Palomar, Jal., Mﾃｩxico	['primary_school', 'school', 'point_of_interest', 'establishment']
178	ChIJM0DoYIutKIQRPeNwFMuDCPQ	Jardﾃｭn de niﾃｱos Cuauhtﾃｩmoc	preescolar	20.5901061	-103.4219307	C. Fresno 2656, La Palmira, 45609 Zapopan, Jal., Mﾃｩxico	['school', 'point_of_interest', 'establishment']
179	ChIJK83GVeGtKIQR29nlMT0E7oE	Continental School (salida)	preescolar	20.5844346	-103.4372403	C. Lirio 20, La Tijera, 45647 La Tijera, Jal., Mﾃｩxico	['school', 'point_of_interest', 'establishment']
180	ChIJueeXUV2sKIQRDjw5lxbNFQA	Jardﾃｭn de Niﾃｱos Federico Froebel	preescolar	20.6239456	-103.4273973	C. San Antonio 111, Las Fuentes, 45070 Zapopan, Jal., Mﾃｩxico	['school', 'point_of_interest', 'establishment']
181	ChIJw4m6SfitKIQRYl-Xos6YlAo	devel up Preschool	preescolar	20.6299759	-103.4273345	Pedro Simﾃｳn Laplace 4319, Arboledas, 45070 Zapopan, Jal., Mﾃｩxico	['school', 'point_of_interest', 'establishment']
182	ChIJo_dvkxasKIQRoiPSfwOfnCM	JARDIN DE NIﾃ前S 188	preescolar	20.6429402	-103.4321969	C. Volcan Paricutin 552, Colli Urbano, 45070 Zapopan, Jal., Mﾃｩxico	['school', 'point_of_interest', 'establishment']
183	ChIJ3bGeyRisKIQRMU2LtrGhyFA	Jardin de Niﾃｱos PATRIA	preescolar	20.6531535	-103.4296849	ESQ. playa chamela, Playa Yelapa Nte., Moctezuma, 45059 Zapopan, Jal., Mﾃｩxico	['school', 'point_of_interest', 'establishment']
184	ChIJdaIcHWusKIQRbeA4iA3Cd-s	Kinder Bilingﾃｼe Gabriela Mistral Sol	preescolar	20.6338144	-103.4310952	Guillermo Hernﾃ｡ndez 5664, Paseos del Sol, 45079 Zapopan, Jal., Mﾃｩxico	['school', 'point_of_interest', 'establishment']
185	ChIJm5e6gKauKIQRCFOGi_tqtFk	Millennium A.C.	preescolar	20.664206	-103.4366823	Av. Ecﾃｳnomos, Arcos de Guadalupe, 45037 Zapopan, Jal., Mﾃｩxico	['school', 'point_of_interest', 'establishment']
186	ChIJBSn1oaGuKIQRfKKzbOgQPvE	Kinder Icrea	preescolar	20.663451	-103.4305869	Av. San Luis Gonzaga 5373, Arcos de Guadalupe, 45037 Zapopan, Jal., Mﾃｩxico	['school', 'point_of_interest', 'establishment']
187	ChIJp92oxaSuKIQRV1lhJv7QkgI	Colegio Juana De Arco La Estancia, A.C.	preescolar	20.6696096	-103.4359937	Tchaikovsky 402, La Estancia, 45037 Zapopan, Jal., Mﾃｩxico	['primary_school', 'school', 'point_of_interest', 'establishment']
188	ChIJh93x6aSuKIQRRAIn-7GXfaM	Kinder Preescolar Guarderﾃｭa y Maternal Colegio Camelot	preescolar	20.668927	-103.4356775	Peter, Av. Piotr Ilich Tchaikovski 435, La Estancia, 45030 Zapopan, Jal., Mﾃｩxico	['primary_school', 'school', 'point_of_interest', 'establishment']
189	ChIJTSPxK8GuKIQRP4izqSoMhHA	Jardin De Niﾃｱos Salvador Barragﾃ｡n Camacho	preescolar	20.6855587	-103.4335792	C. G. Leroux, Lomas Universidad, 45016 Zapopan, Jal., Mﾃｩxico	['school', 'point_of_interest', 'establishment']
190	ChIJ17rrzMeuKIQR8Ltt5XsFg2Q	Jardﾃｭn De Niﾃｱos Sor Juana Ines De La Cruz	preescolar	20.6845829	-103.4361597	C. Corona 5850, Jocotﾃ｡n Zapopan Jalisco, Jocotﾃ｡n, 45017 Zapopan, Jal., Mﾃｩxico	['school', 'point_of_interest', 'establishment']
191	ChIJNQ2lAUSvKIQRpRbBuoH0GzU	Tﾃ､leny School Reggio Emilia	preescolar	20.7353377	-103.4340643	Privada del Carmen No. 1396, Residencial Poniente, 45138 Zapopan, Jal., Mﾃｩxico	['school', 'point_of_interest', 'establishment']
192	ChIJy8CoiGuvKIQRtJQExKa51AE	Jardin De Niﾃｱos Aurelia Ladron de Guevara	preescolar	20.7336104	-103.4226357	C. San Pedro 3181, Las Bﾃｳvedas, Sta Margarita, 45130 Zapopan, Jal., Mﾃｩxico	['school', 'point_of_interest', 'establishment']
193	ChIJ77CnsmyvKIQRaAFCcC2aolI	Gﾃｩnesis	preescolar	20.7300188	-103.4216702	Av. Acueducto 1210, Santa Margarita1a Secc., 45130 Zapopan, Jal., Mﾃｩxico	['school', 'point_of_interest', 'establishment']
194	ChIJ2xhe0iSlKIQRGrjWQHhakr4	Jardin de niﾃｱos sor Juana Inﾃｩs de la Cruz	preescolar	20.7586579	-103.4341322	Av. Guadalajara 301, 45138 Nuevo Mﾃｩxico, Jal., Mﾃｩxico	['school', 'point_of_interest', 'establishment']
195	ChIJ7cg_OuelKIQR61iCYke3gQY	Jardin De Niﾃｱos 591 Federico Froebel	preescolar	20.7730481	-103.444746	San Miguel 1884, Marcelino Garcﾃｭa Barragﾃ｡n, 45134 Nuevo Mﾃｩxico, Jal., Mﾃｩxico	['school', 'point_of_interest', 'establishment']
196	ChIJqRXJQgKuKIQRW8e-eQGlCKo	Colegio Uniﾃｳn Mﾃｩxico	preescolar	20.8221321	-103.4403211	Av de Los Molineros, Av. de los Molinos 1450, 45203 Fraccionamiento Los Molinos, Jal., Mﾃｩxico	['school', 'point_of_interest', 'establishment']
197	ChIJTxypd0ejKIQR8KYhV2l56gY	MDS	preescolar	20.849844	-103.4405185	Av Valle de los Molinos 440, Valle de los Molinos, 45100 Zapopan, Jal., Mﾃｩxico	['school', 'point_of_interest', 'establishment']
198	ChIJZ8yBa4qjKIQRTR4hB_iUcOo	Primaria Ignacio Chavez Sanchez	preescolar	20.8480548	-103.4239644	Valle de Zapopan S/N, Fraccionamiento Los Molinos, 45200 Zapopan, Jal., Mﾃｩxico	['school', 'primary_school', 'point_of_interest', 'establishment']
199	ChIJjZd0MrqsKIQRnvUlEvVpd18	Kinder Best Friends	preescolar	20.5799574	-103.4347693	C. 17 de Mayo 73, La Tijera, 45647 La Tijera, Jal., Mﾃｩxico	['school', 'point_of_interest', 'establishment']
200	ChIJA0H8vX2tKIQRg0YglmGV51M	"Jardﾃｭn de Niﾃｱos ""Carmen Torres Vemos"""	preescolar	20.6034457	-103.4316473	Degollado 166, Agua Blanca Habitacional, 45235 Zapopan, Jal., Mﾃｩxico	['school', 'point_of_interest', 'establishment']
201	ChIJl94o8JasKIQRPjSaA4C2y7s	Jardin de Niﾃｱos LOLTUN	preescolar	20.5923727	-103.4359297	esq. Calle San Pedro y San Pablo, San Luis 150, El Campanario, 45236 Zapopan, Jal., Mﾃｩxico	['school', 'point_of_interest', 'establishment']
202	ChIJlfLmfF6zKIQRrx-zPYDsnqA	Preescolar Bilingﾃｼe Lﾃｭderes del Cambio	preescolar	20.6005808	-103.3993858	Zaragoza 59, Santa Marﾃｭa Tequepexpan, 45601 San Pedro Tlaquepaque, Jal., Mﾃｩxico	['school', 'point_of_interest', 'establishment']
203	ChIJcUF0aIqsKIQRNBrM5tWS0RQ	JARDIN DE NIﾃ前S PABLO NERUDA	preescolar	20.6109926	-103.4316205	Ignacio Allende Esquina Milpa S/N, Francisco Sarabia, 45236 Zapopan, Jal., Mﾃｩxico	['school', 'point_of_interest', 'establishment']
204	ChIJq6GvEUmtKIQRnakqaz5VXVU	PREESCOLAR SOR JUANA INES DE LA CRUZ	preescolar	20.6088006	-103.425016	C. Colima 238, El Mante, 45235 Zapopan, Jal., Mﾃｩxico	['school', 'point_of_interest', 'establishment']
205	ChIJY3aJ-UitKIQR2P9MazMP2Lc	PREESCOLAR ESTEFANIA CASTAﾃ薦DA	preescolar	20.6088256	-103.4250061	C. Colima 238, El Mante, 45235 Zapopan, Jal., Mﾃｩxico	['school', 'point_of_interest', 'establishment']
206	ChIJO72My0OsKIQRip5Ix9r_a2k	Jardﾃｭn De Niﾃｱos Mtra. Irma Raquel Arias Lino	preescolar	20.6294044	-103.424988	Vega, Arboledas, 45070 Zapopan, Jal., Mﾃｩxico	['school', 'point_of_interest', 'establishment']
207	ChIJ9QKusGusKIQRhUBz2fzRk6c	Citlalli Jardin De Niﾃｱos Ac	preescolar	20.631855	-103.4307567	Aracely Souza 5699, Paseos del Sol, 45079 Zapopan, Jal., Mﾃｩxico	['school', 'point_of_interest', 'establishment']
208	ChIJl2TI3sOtKIQRkmOEEgPGOfQ	Umbrella School	preescolar	20.6362116	-103.431305	Marlla Arzarte, Marlla Arzate Dﾃｭaz de Leﾃｳn 1680, entre Calle Pedro Alcala y Felipe Zetter, Paseos del Sol, 45070 Zapopan, Jal., Mﾃｩxico	['primary_school', 'school', 'point_of_interest', 'establishment']
209	ChIJGRIBK0KsKIQRO2PE42LRIB0	Colegio Emma Godoy	preescolar	20.6301973	-103.4253587	Corona Boreal 4165, Arboledas, 45070 Zapopan, Jal., Mﾃｩxico	['school', 'point_of_interest', 'establishment']
210	ChIJ9wG7tBOsKIQRM3MiL8vHB88	JARDIN DE NIﾃ前S GUADALUPE VICTORIA	preescolar	20.639335	-103.4365922	C. Horacio Gaytﾃ｡n 1325, Paseos del Sol, 45070 Zapopan, Jal., Mﾃｩxico	['school', 'point_of_interest', 'establishment']
211	ChIJIZdzqyasKIQRWtAUwrGXSp0	Jardﾃｭn de Niﾃｱos Tonantzin	preescolar	20.65415	-103.4221086	Solsticio 4967, Mirador del Sol, 45054 Zapopan, Jal., Mﾃｩxico	['school', 'point_of_interest', 'establishment']
212	ChIJS7-N8gSsKIQRKbTdZK_hn2o	COLEGIO Bertha Von Glummer	preescolar	20.6508391	-103.4419223	Picador 6613, Hacienda del Tepeyac, 45053 Zapopan, Jal., Mﾃｩxico	['school', 'point_of_interest', 'establishment']
213	ChIJG22KuB6sKIQR8kUNz0KQe94	Torres Bodet	preescolar	20.6540603	-103.4325285	Av. Nicolﾃ｡s Copﾃｩrnico 36, Residencial Plaza Guadalupe, Plaza Guadalupe, 45030 Zapopan, Jal., Mﾃｩxico	['school', 'point_of_interest', 'establishment']
214	ChIJEbixyx2sKIQRsFTkiVIwgxM	POTLI	preescolar	20.656082	-103.4350708	C. Misiﾃｳn San Antonio 417, Residencial Plaza Guadalupe, Plaza Guadalupe, 45030 Zapopan, Jal., Mﾃｩxico	['school', 'point_of_interest', 'establishment']
215	ChIJESPCCxysKIQRrFZ3e0sL6yo	Mi Kinder App	preescolar	20.6532809	-103.4350625	5, Av. Tepeyac 5920, 45030 Zapopan, Jal., Mﾃｩxico	['school', 'point_of_interest', 'establishment']
216	ChIJRTOispiuKIQRS3zvm935kOI	Chanys - Centro de Desarrollo Infantil Enrique Pestalozzi	preescolar	20.6654266	-103.4273191	Av. Ecﾃｳnomos 5165, Jardines de Guadalupe, 45030 Zapopan, Jal., Mﾃｩxico	['school', 'point_of_interest', 'establishment']
217	ChIJVVUFwKOuKIQRTbY-S76xVV8	Jardin de Niﾃｱos	preescolar	20.6662816	-103.4323478	C. Asesores, Arcos de Guadalupe, 45037 Zapopan, Jal., Mﾃｩxico	['school', 'point_of_interest', 'establishment']
218	ChIJoc25HgavKIQRKGtk_JqUGw8	"Jardin de Niﾃｱos 105 ""Aurora Sanchez Gutierrez"""	preescolar	20.6708154	-103.4292208	C. Millet 503, La Estancia, 45030 Zapopan, Jal., Mﾃｩxico	['school', 'point_of_interest', 'establishment']
219	ChIJLxdFiJCuKIQR5Z6sUm84tMw	Centro de Estudios Montessori S.C.	preescolar	20.6856022	-103.4208167	Av. William Shakespeare 5085, Jardines de la Patria, 45110 Zapopan, Jal., Mﾃｩxico	['primary_school', 'school', 'point_of_interest', 'establishment']
220	ChIJxfgNM-quKIQRuMYxsFq2gPs	Anderson School	preescolar	20.6878181	-103.4252916	Av Naciones Unidas 5346, Vallarta Universidad, 45110 Zapopan, Jal., Mﾃｩxico	['secondary_school', 'primary_school', 'school', 'point_of_interest', 'establishment']
221	ChIJc9GCj7GvKIQRMHbmB8cguHI	Dicrealﾃｺ	preescolar	20.683777	-103.4288938	Av Juan palomar y arias y C. Octavio paz 5561, Av Novelistas, Jardines Vallarta, 45027 Guadalajara, Jal., Mﾃｩxico	['school', 'point_of_interest', 'establishment']
222	ChIJNQrZTTyvKIQRECK9MXRhYLE	Kinder Cepetoqui Guadalajara	preescolar	20.6830511	-103.3827823	Justicia 2591, Circunvalaciﾃｳn Vallarta, 44680 Guadalajara, Jal., Mﾃｩxico	['school', 'point_of_interest', 'establishment']
223	ChIJ6yKcDRauKIQRGVCAwawh0Vc	Preescolar y Guarderﾃｭa V. Van Gogh	preescolar	20.685587	-103.3752992	C. Agustﾃｭn de la Rosa 476, Ladrﾃｳn de Guevara, Ladron De Guevara, 44600 Guadalajara, Jal., Mﾃｩxico	['school', 'point_of_interest', 'establishment']
224	ChIJHe34YlSuKIQR1MTgNybNnrk	Beelieve Preschool of Life	preescolar	20.7047129	-103.3999717	P.ﾂｺ del Arroyo 2040, Colinas de San Javier, 44665 Guadalajara, Jal., Mﾃｩxico	['school', 'point_of_interest', 'establishment']
225	ChIJ1dBoyNmxKIQR_IWkWq6rFHI	PREESCOLAR AURORA MACIAS MIRANDA	preescolar	20.6988088	-103.3552137	Mezquitan, 44260 Guadalajara, Jal., Mﾃｩxico	['school', 'point_of_interest', 'establishment']
226	ChIJM775EiKuKIQRnHleTXI7P40	Preescolar Jose Clemente Orozco	preescolar	20.6884248	-103.365781	C. Jesﾃｺs Garcﾃｭa 1539, Villaseﾃｱor, 44600 Guadalajara, Jal., Mﾃｩxico	['school', 'point_of_interest', 'establishment']
227	ChIJi_UNnw2vKIQRhasyUg_mqlY	"JARDIN DE NIﾃ前S ""JOSE VASCONCELOS"""	preescolar	20.7273899	-103.4149311	Sta. Catalina 286, Santa Margarita1a Secc., 45140 Zapopan, Jal., Mﾃｩxico	['school', 'point_of_interest', 'establishment']
228	ChIJU1fFa2WvKIQR9lptu8vaJSw	"PREESCOLAR ""FRANCISCO MARQUEZ"" 14DJN1027X"	preescolar	20.7430838	-103.4180305	esquina con Av Tesistan, Prol. Angel Leaﾃｱo, Arcos de Zapopan, 45130 Zapopan, Jal., Mﾃｩxico	['school', 'point_of_interest', 'establishment']
229	ChIJ-Z0p512vKIQR8kGV4TLkYAY	ESTANCIA INFANTIL SAGRADO CORAZﾃ哲 DE JESUS	preescolar	20.7463911	-103.4293762	Calz Federalistas 2123, Jardines del Valle, 45138 Zapopan, Jal., Mﾃｩxico	['school', 'point_of_interest', 'establishment']
230	ChIJNyIe14ylKIQR-P_whtsgr2o	Colegio Ananda	preescolar	20.7614993	-103.4275322	Av. Guadalajara 1997, Hogares de Nuevo Mﾃｩxico, 45160 Zapopan, Jal., Mﾃｩxico	['school', 'point_of_interest', 'establishment']
231	ChIJN48miV2vKIQRr6GARsK2rUc	Kﾃｭnder Thomas alva edison	preescolar	20.7488574	-103.4340001	Av. Valle de Mﾃｩxico 2765, Viveros del Valle, Jardines del Valle, 45138 Zapopan, Jal., Mﾃｩxico	['school', 'point_of_interest', 'establishment']
232	ChIJSb1_x_SlKIQRI0e83ywxl4Y	Primaria Bosques	preescolar	20.7628599	-103.426452	C. 10 de Mayo, Hogares de Nuevo Mﾃｩxico, 45134 Zapopan, Jal., Mﾃｩxico	['school', 'point_of_interest', 'establishment']
233	ChIJJ9RRpBOwKIQRy897ZAqO05w	Preescolar Pilli	preescolar	20.7443473	-103.3390758	esq,. Florentino VelazquezZapopan,, Libertadores, Zapopan, Jal., Mﾃｩxico	['school', 'point_of_interest', 'establishment']
234	ChIJ9Tz-TSKwKIQRisFyVUJZYCk	Zona Escolar Preescolar 125 Federal	preescolar	20.7329938	-103.3507956	Voleibol 57, Auditorio, 45190 Zapopan, Jal., Mﾃｩxico	['school', 'point_of_interest', 'establishment']
235	ChIJ75X3LoGjKIQRnFySRPirmBM	"Plaza Comunitaria INEA ""Valle de los Molinos"" Clave: D-14-007-03"	preescolar	20.8533921	-103.4256499	Valle de Zapopan, Valle de Atemajac 23, 45200 Valle de los Molinos, Jal., Mﾃｩxico	['school', 'point_of_interest', 'establishment']
236	ChIJbYHiEwCtKIQRMPg40kFiKHY	Creer Preescolar	preescolar	20.5944838	-103.4334065	C. Agua Escondida 8825, El Campanario, 45234 Zapopan, Jal., Mﾃｩxico	['point_of_interest', 'establishment']
237	ChIJdbWVWP5TL4QRKjf87Zx1A8U	Colegio Tulipanes Agustin Yaﾃｱez Delgadillo	preescolar	20.5851346	-103.43242	Rosal 1250, Los Tulipanes, 45640 La Tijera, Jal., Mﾃｩxico	['primary_school', 'school', 'point_of_interest', 'establishment']
238	ChIJg-Mii7ysKIQRx6bJoX1MdIo	Colegio Continental Bilingﾃｼe	preescolar	20.5841304	-103.436938	Nardo 3556, La Tijera, 45647 La Tijera, Jal., Mﾃｩxico	['school', 'point_of_interest', 'establishment']
239	ChIJ0__-BJisKIQRCUXcBmJ13OU	MimoKids Estimulaciﾃｳn Sensorial	preescolar	20.5888244	-103.4401208	Ramal de La Tijera 1448, La Tijera, 45647 Guadalajara, Jal., Mﾃｩxico	['cafe', 'school', 'store', 'food', 'point_of_interest', 'establishment']
240	ChIJX0mOC-esKIQRnwhkdbGLRAM	Centro Educativo Real Inglﾃｩs	preescolar	20.5922288	-103.4131764	Av. Camino Real a Colima 950-a, Balcones de Santa Marﾃｭa, 45608 San Pedro Tlaquepaque, Jal., Mﾃｩxico	['school', 'primary_school', 'point_of_interest', 'establishment']
241	ChIJwcap0q2sKIQRTAcjIFVf8fU	Bertha Von Glﾃｼmer Preescolar	preescolar	20.5698465	-103.4424338	Matamoros 23, Los Gavilanes, 45640 Los Gavilanes, Jal., Mﾃｩxico	['school', 'point_of_interest', 'establishment']
242	ChIJw8d6MFCsKIQRetWrUXSNG3M	Magic Club Kﾃｭnder	preescolar	20.6238543	-103.4128595	C. Rﾃｭo Tuxpan 1516, Las ﾃ“uilas, 45080 Zapopan, Jal., Mﾃｩxico	['school', 'point_of_interest', 'establishment']
243	ChIJbQzcJamvKIQReXk_5XP17K0	Jardﾃｭn de Niﾃｱos Cesarina Gaona Ruﾃｭz	preescolar	20.6197572	-103.4208978	Tlatlelolco 3272, Dﾃｭaz Ordaz, 45080 Zapopan, Jal., Mﾃｩxico	['school', 'point_of_interest', 'establishment']
244	ChIJPcTZG1usKIQRwX57DjWRQrw	Junior Garden ac. Centro de Estimulaciﾃｳn Temprana	preescolar	20.6208549	-103.4183021	Av. del Pinar 3241, Pinar de la Calma, 45080 Zapopan, Jal., Mﾃｩxico	['school', 'point_of_interest', 'establishment']
245	ChIJ14PuZQCtKIQRu3bdsuWTvcY	Kinder Lincoln school	preescolar	20.620426	-103.4255021	Cvln. Sur 91, Las Fuentes, 45070 Zapopan, Jal., Mﾃｩxico	['school', 'point_of_interest', 'establishment']
246	ChIJR87ULSitKIQR2suiMLBfrts	Jardin de Niﾃｱos Mﾃｩxico	preescolar	20.6234162	-103.4125942	C. Rﾃｭo Tuxpan 1192-1486, Colinas de las ﾃ“uilas, 45080 Zapopan, Jal., Mﾃｩxico	['school', 'point_of_interest', 'establishment']
247	ChIJWTU-b7StKIQRU7gLDbhXpkE	Grownland	preescolar	20.6284073	-103.4198948	Av. Nicolﾃ｡s Copﾃｩrnico 3647, Arboledas, 45070 Zapopan, Jal., Mﾃｩxico	['school', 'point_of_interest', 'establishment']
248	ChIJ2bq_1iWtKIQRRuab-p72yy8	Instituto Neki	preescolar	20.6329478	-103.4119228	Perseo 3376, La Calma, 45070 Zapopan, Jal., Mﾃｩxico	['school', 'point_of_interest', 'establishment']
249	ChIJQXYvYj6tKIQRnHnWPFi0xdY	Grownland School	preescolar	20.6284073	-103.4198948	Av. Nicolﾃ｡s Copﾃｩrnico 3647, Arboledas, 45070 Zapopan, Jal., Mﾃｩxico	['school', 'point_of_interest', 'establishment']
250	ChIJfwCoLTasKIQRigs2luAa6Qo	Jardin de Niﾃｱos AquetZalli	preescolar	20.6377084	-103.4133663	Esq virgen, C. Pegaso 3279, La Calma, 45070 Zapopan, Jal., Mﾃｩxico	['school', 'point_of_interest', 'establishment']
251	ChIJmavrykqsKIQRdQeDzARmr-g	Jardﾃｭn de Niﾃｱos Intlanpalli	preescolar	20.636161	-103.4049785	Av. Obsidiana 3927, Loma Bonita Sur, 45086 Zapopan, Jal., Mﾃｩxico	['school', 'point_of_interest', 'establishment']
252	ChIJPUtoViisKIQRzmgEmRWKj5U	Jardﾃｭn de Niﾃｱos Narciso Mendoza	preescolar	20.6568272	-103.4156048	C. Prado de los Lirios 4515, Prados Tepeyac, 45050 Zapopan, Jal., Mﾃｩxico	['school', 'point_of_interest', 'establishment']
253	ChIJh_rmyBmsKIQRG2ggvkNKDnE	Colegio Maximiliano Maria Kolbe	preescolar	20.6485205	-103.4315603	Playa Oro 5755-B, La Primavera, 45058 Zapopan, Jal., Mﾃｩxico	['primary_school', 'school', 'point_of_interest', 'establishment']
254	ChIJteay0tSvKIQRM6gtkffNmDY	ﾃｩkoole gdl	preescolar	20.6637437	-103.4268479	C. Ingenieros 674, Jardines de Guadalupe, 45030 Zapopan, Jal., Mﾃｩxico	['school', 'point_of_interest', 'establishment']
255	ChIJB3zRCI-uKIQRBUlSHa8m970	BRETON PRESCHOOL	preescolar	20.6742874	-103.413356	Sta. Teresa de Jesﾃｺs 140, Camino Real, 45040 Zapopan, Jal., Mﾃｩxico	['school', 'point_of_interest', 'establishment']
256	ChIJG3IjAZeuKIQR81-XaB8LEjo	Jardﾃｭn de Niﾃｱos ECOKIDS	preescolar	20.6738823	-103.4248037	Av. Miguel Angel 173, Real Vallarta, 45020 Zapopan, Jal., Mﾃｩxico	['school', 'point_of_interest', 'establishment']
257	ChIJ79E0lPqvKIQRsYJYi4_jCMc	Jardﾃｭn de Niﾃｱos Tziltlacalli	preescolar	20.6878032	-103.4222041	Paseo del Valle 580, Jardines Universidad, 44660 Guadalajara, Jal., Mﾃｩxico	['school', 'point_of_interest', 'establishment']
258	ChIJvxsX4-2uKIQRR_QKHcsbCLs	My Yellow House Unamuno - Preschool	preescolar	20.6894746	-103.4160706	Miguel de Unamuno 4620, Jardines Universidad, 45110 Zapopan, Jal., Mﾃｩxico	['school', 'point_of_interest', 'establishment']
259	ChIJRQ_Dyu2uKIQRw8kt1wmRjCo	Frida Kahlo	preescolar	20.6878039	-103.4194202	Av Naciones Unidas 4935, Jardines Universidad, 45110 Zapopan, Jal., Mﾃｩxico	['school', 'point_of_interest', 'establishment']
260	ChIJjQJngpSuKIQR9nMvNQ0anWM	montessori Guadalajara	preescolar	20.6824934	-103.425884	Av Novelistas, Jardines Vallarta, 45027 Zapopan, Jal., Mﾃｩxico	['school', 'point_of_interest', 'establishment']
261	ChIJAR1wgQKvKIQRxLOZxAyR5N4	Preescolar Virreyes	preescolar	20.707428	-103.4139243	P.ﾂｺ de los Virreyes 851, Residencial Virreyes, 45110 Zapopan, Jal., Mﾃｩxico	['school', 'point_of_interest', 'establishment']
262	ChIJT4EIKwqvKIQRTe6tzlnaEDM	Colegio albert bandura	preescolar	20.7108524	-103.4196616	Extremadura, Puerta de Hierro, 45116 Zapopan, Jal., Mﾃｩxico	['school', 'point_of_interest', 'establishment']
263	ChIJLz_wA0WuKIQRBzbearZr1dg	Centro Educativo Arilou A.C.	preescolar	20.6947854	-103.3909056	esquina con, Turﾃｭn, C. Patagonia 3166, Providencia, 44630 Guadalajara, Jal., Mﾃｩxico	['school', 'point_of_interest', 'establishment']
264	ChIJFTAMeAKyKIQRnipelVZCT6E	PREESCOLAR BENITO JUAREZ	preescolar	20.665421	-103.3506552	44180, C. Nicolﾃ｡s Rﾃｩgules 133, Mexicaltzingo, Guadalajara, Jal., Mﾃｩxico	['school', 'point_of_interest', 'establishment']
265	ChIJKbwVWiCuKIQRXpEZTArA2us	Preescolar Cipriana Gutiﾃｩrrez Rodrﾃｭguez	preescolar	20.6904589	-103.3608585	44260, C. Gregorio Dﾃ｡vila 1087, Mezquitan Country, Guadalajara, Jal., Mﾃｩxico	['school', 'point_of_interest', 'establishment']
266	ChIJZdFZxHKvKIQRteuDh9MF5Uo	Jardﾃｭn de Niﾃｱos Ignacio Altamirano	preescolar	20.7314585	-103.4144329	Fresas 239, La Tuzania, 45138 Zapopan, Jal., Mﾃｩxico	['school', 'point_of_interest', 'establishment']
267	ChIJowVlPXivKIQRgFI0BxHOaIA	"Jardin de Niﾃｱos ""CUAHUTEMOC"""	preescolar	20.7436465	-103.4063591	C. Arco Benavente, Lomas de Zapopan, 45130 Zapopan, Jal., Mﾃｩxico	['school', 'point_of_interest', 'establishment']
268	ChIJYyGnhI2lKIQR9tRWpCL9Iq4	Diako Abc	preescolar	20.764079	-103.424798	Av. Guadalajara 2389, Hogares de Nuevo Mﾃｩxico, 45134 Nuevo Mﾃｩxico, Jal., Mﾃｩxico	['school', 'point_of_interest', 'store', 'establishment']
269	ChIJy2k3DIGvKIQRvsg-1_vDlAs	JARDIN DE NIﾃ前S IDOLINA GAONA RUIZ	preescolar	20.750809	-103.401586	esq. Paseo Rey Arturo, Av Torremolinos, Lomas de Zapopan, 45130 Zapopan, Jal., Mﾃｩxico	['school', 'point_of_interest', 'establishment']
270	ChIJLYC3aAClKIQRAaiPDIJLcXc	Taiyari Escuela Waldorf	preescolar	20.7787765	-103.4126863	Av. Dr. Angel Leaﾃｱo 4000, Los Guayabos, 45134 Nuevo Mﾃｩxico, Jal., Mﾃｩxico	['school', 'point_of_interest', 'establishment']
271	ChIJ74gXQtylKIQRbkaxSt9kFQE	Jardﾃｭn de niﾃｱos Luis donaldo Colosio Murrieta	preescolar	20.7596925	-103.397077	Hacienda de Los Nardos 20, Haciendas del Valle, 45130 Zapopan, Jal., Mﾃｩxico	['school', 'point_of_interest', 'establishment']
272	ChIJMep_smSlKIQRHyH1IfRIdjQ	Colegio Laubscher School	preescolar	20.762168	-103.3932232	45130, Av Valle de San Isidro 1492, Misiﾃｳn San Isidro, 45130 Zapopan, Jal., Mﾃｩxico	['primary_school', 'school', 'point_of_interest', 'establishment']
273	ChIJvRahe6WlKIQRZDXSIs8g80w	Pilhuancalli Montessori.	preescolar	20.7628059	-103.4437755	Novena Sur 474, 45138 Nuevo Mﾃｩxico, Jal., Mﾃｩxico	['point_of_interest', 'establishment']
274	ChIJg3Z1inWkKIQRZ0MjonlM02c	"Secundaria Gerardo Murillo ""Dr. ATL"" Mixta No.78"	preescolar	20.8470762	-103.4236516	Av Valle de los Molinos, Valle de los Molinos, 45200 Valle de los Molinos, Jal., Mﾃｩxico	['school', 'point_of_interest', 'establishment']
275	ChIJO3ooNV2jKIQR-swO9SuhDA8	Kinder Guarderﾃｭa Pasitos	preescolar	20.8550293	-103.427995	Argﾃｳn 83, entre vidrio Arce y Rotterdam, Valle de los molinos, 45200 Valle de los Molinos, Jal., Mﾃｩxico	['point_of_interest', 'establishment']
276	ChIJVVVVVfyvKIQRPzzsAiYSu34	PREESCOLAR JARDﾃ康 DE NIﾃ前S LAZARO CﾃRDENAS	preescolar	20.7540871	-103.3606422	C. Maestros 60A, Nuevo Vergel, 45180 Zapopan, Jal., Mﾃｩxico	['school', 'point_of_interest', 'establishment']
277	ChIJSSTTw4mlKIQRuPbWVYaE-KQ	Preescolar Piltzin 14DJN0760R	preescolar	20.7956407	-103.3742819	C. Felipe ﾃ］geles 111, 45205 San Esteban, Jal., Mﾃｩxico	['school', 'point_of_interest', 'establishment']
278	ChIJLV6AvL2tKIQRkbSyEWByAJ8	Preescolar Efraﾃｭn Gonzﾃ｡lez Luna	preescolar	20.6316069	-103.383631	C. Isla Salomﾃｳn 2047, Jardines de San Josﾃｩ, 44950 Guadalajara, Jal., Mﾃｩxico	['school', 'point_of_interest', 'establishment']
279	ChIJXcBuQxOtKIQR5WXB4t9TPz4	Jardﾃｭn de Niﾃｱos Francisco Mﾃ｡rquez	preescolar	20.5994866	-103.3826853	Prisciliano Sﾃ｡nchez 454, Guayabitos, 45530 San Pedro Tlaquepaque, Jal., Mﾃｩxico	['school', 'point_of_interest', 'establishment']
280	ChIJM6GsL-asKIQRjxOy8nq_kb8	"Jardﾃｭn de niﾃｱos ""Lauro Aguirre"""	preescolar	20.5933891	-103.4129725	Av. Bahﾃｭa de Todos Los Santos 2988, Parques de Santa Marﾃｭa, 45609 San Pedro Tlaquepaque, Jal., Mﾃｩxico	['school', 'point_of_interest', 'establishment']
281	ChIJ08KM-bStKIQRHeo0KVYtppk	Jardﾃｭn de Niﾃｱos Loma Bonita	preescolar	20.6345074	-103.4024697	Residencial Loma Bonita, C. Perla 3890, Loma Bonita, 44570 Guadalajara, Jal., Mﾃｩxico	['school', 'point_of_interest', 'establishment']
282	ChIJ80zrZnqtKIQRk1M-oX1-AfA	La casa De la nana	preescolar	20.6411663	-103.4122818	C. Plﾃｩyades 4110, La Calma, 45050 Zapopan, Jal., Mﾃｩxico	['school', 'point_of_interest', 'establishment']
283	ChIJZabxk06sKIQRxXSzhl-WIiE	Preescolar, Primaria, Colegio Espaﾃｱol.	preescolar	20.6296618	-103.4118849	Sierra de Pihuamo 1762, Las ﾃ“uilas, 45080 Zapopan, Jal., Mﾃｩxico	['primary_school', 'school', 'point_of_interest', 'establishment']
284	ChIJ52AtdYGuKIQR5lZpyLZSIMU	Apple Tree Kindergarten AC.	preescolar	20.6641379	-103.409378	Tulipﾃ｡n 859, Cd de los Niﾃｱos, 45040 Zapopan, Jal., Mﾃｩxico	['school', 'point_of_interest', 'establishment']
285	ChIJ11eO06etKIQRhwcU8BziW0s	Centro de desarrollo infantil No. 4 Melvin Jones	preescolar	20.6536803	-103.4165249	Tulum 4560, Jardines del Sol, 45060 Zapopan, Jal., Mﾃｩxico	['school', 'point_of_interest', 'establishment']
286	ChIJ__9PYyWsKIQRq_jLL5AsfNU	ECOLAKE	preescolar	20.6506758	-103.4168146	CTRA MEXICO GUAD PTE 614 SAN PEDRO, Av Moctezuma 464, Jal., Mﾃｩxico	['school', 'point_of_interest', 'establishment']
287	ChIJk8cMBCysKIQR6-1nFdW5fKI	Instituto Philadelphia	preescolar	20.6541105	-103.4104593	Av Xochitl 311, Prados Tepeyac, 45050 Zapopan, Jal., Mﾃｩxico	['primary_school', 'school', 'point_of_interest', 'establishment']
288	ChIJq6o-qTmsKIQRd41SJpcOSLY	conoce nuestro preescolar	preescolar	20.6400777	-103.419068	C. Volcﾃ｡n Vesubio 4830, Colli Urbano, 45070 Zapopan, Jal., Mﾃｩxico	['school', 'point_of_interest', 'establishment']
289	ChIJZXmunDmsKIQR4Zu-OGAOEWA	Ker Liber	preescolar	20.6418683	-103.4181057	C. Volcﾃ｡n Popocatﾃｩpetl 4774, Colli Urbano, 45070 Zapopan, Jal., Mﾃｩxico	['school', 'point_of_interest', 'establishment']
290	ChIJqy1jhyysKIQRh1yizEaLv3c	Instituto Gabriel Marcel	preescolar	20.6501784	-103.4078356	Av. Cuauhtﾃｩmoc 631, Cd del Sol, 45050 Zapopan, Jal., Mﾃｩxico	['school', 'point_of_interest', 'establishment']
291	ChIJV2F1dIWuKIQRvVxiolmnjKs	VILLA ALEGRE	preescolar	20.6709622	-103.4139716	Sta. Teresa de Jesﾃｺs 301-A, Camino Real, 45040 Zapopan, Jal., Mﾃｩxico	['school', 'point_of_interest', 'establishment']
292	ChIJ4a56fISuKIQRX4IjlBfpQMQ	Patria	preescolar	20.6667193	-103.4133379	Sta. Teresa de Jesﾃｺs, Camino Real, 45040 Zapopan, Jal., Mﾃｩxico	['school', 'point_of_interest', 'establishment']
293	ChIJFTc545yuKIQRuhR5oc6uPkM	Inteligencia y Formaciﾃｳn Educativa A.C.	preescolar	20.6632562	-103.4191522	Av Guadalupe 4884, Jardines de Guadalupe, 45030 Zapopan, Jal., Mﾃｩxico	['school', 'point_of_interest', 'establishment']
294	ChIJ2WLsdimvKIQRA7DkwaYopR8	Martﾃｭn Luther King Jr - Kindergarten	preescolar	20.6821851	-103.399063	Calle Toltecas 3536, Monraz, 44690 Guadalajara, Jal., Mﾃｩxico	['school', 'point_of_interest', 'establishment']
295	ChIJWUfRe0WuKIQRhafJPN3U2Pw	Jardﾃｭn de Niﾃｱos Nﾃｺmero 111	preescolar	20.6971373	-103.3909201	Av Pablo Neruda 3190, Providencia, 44630 Guadalajara, Jal., Mﾃｩxico	['school', 'point_of_interest', 'establishment']
296	ChIJFX5yVqWvKIQRbiQZdAbQTfA	JARDIN DE NIﾃ前S CARLOS FUENTES	preescolar	20.7205988	-103.3939174	Calle Gﾃｳmez Farias 236, Repﾃｺblica, 45100 Zapopan, Jal., Mﾃｩxico	['school', 'point_of_interest', 'establishment']
297	ChIJH9M6mXCvKIQRexhYWWwuMhA	KOI KIDS U-1687	preescolar	20.7127084	-103.4113839	Blvd. Puerta de Hierro 4965-interior 117, Puerta de Hierro, 45116 Zapopan, Jal., Mﾃｩxico	['school', 'point_of_interest', 'establishment']
298	ChIJGUZ-NTKvKIQRU0qosk8WGm8	JARDﾃ康 DE NIﾃ前S MARIA GORETTI	preescolar	20.7270327	-103.3735127	C. Ing. Pastor Rouaix 336, Constituyentes, 45180 Zapopan, Jal., Mﾃｩxico	['school', 'point_of_interest', 'establishment']
299	ChIJtzGbgwqvKIQR8eLb0yR_jz0	JARDIN DE NIﾃ前S FEDERICO FROEBEL	preescolar	20.7288487	-103.4053255	Sta. Esther 20, Santa Margarita1a Secc., 45140 Zapopan, Jal., Mﾃｩxico	['school', 'point_of_interest', 'establishment']
300	ChIJh4l5Cp6vKIQR4caoMJAHJjg	Jardﾃｭn de Niﾃｱos Juan Luis Vives	preescolar	20.7370504	-103.4036243	Manzana 1 200, Estatuto Jurﾃｭdico, 45149 Zapopan, Jal., Mﾃｩxico	['school', 'point_of_interest', 'establishment']
301	ChIJu-EOQHOvKIQRNA7Rmadqrqg	CENTRO EDUCATIVO CARMEN LYRA	preescolar	20.7321476	-103.4122239	Del Nogal 210, La Tuzania, 45130 Zapopan, Jal., Mﾃｩxico	['school', 'point_of_interest', 'establishment']
302	ChIJtUTJZwCvKIQRh1BHKfp0rVU	Preescolar	preescolar	20.7340223	-103.4078838	Guayabos 1035, La Arboleda, 45148 Zapopan, Jal., Mﾃｩxico	['school', 'point_of_interest', 'establishment']
303	ChIJKTkQ9HavKIQRoTGSe1QngzE	JARDIN DE NIﾃ前S GABRIELA MISTRAL	preescolar	20.7386048	-103.4081075	Esquina calle Arco de Tito, Arco Bizantino, Arcos de Zapopan, 45130 Zapopan, Jal., Mﾃｩxico	['school', 'point_of_interest', 'establishment']
304	ChIJa0b-TTWvKIQRSX2Digun-jw	Nuestro Pequeﾃｱo Mundo Mﾃ｡gico	preescolar	20.7346454	-103.4100808	Girasoles 258, La Tuzania, 45130 Zapopan, Jal., Mﾃｩxico	['school', 'point_of_interest', 'establishment']
305	ChIJ____7z-vKIQR-dqgYs76Q3o	Cumbres International School San Javier	preescolar	20.7217233	-103.4241613	Avenida del Servidor Pﾃｺblico 3030, La Mora, Exhacienda de, 45138 Zapopan, Jal., Mﾃｩxico	['school', 'point_of_interest', 'establishment']
306	ChIJM36A4XWvKIQRVFDYwmeoqgM	Jardin de niﾃｱos Heroes de Chapultepec	preescolar	20.7369707	-103.4060532	Anillo Perif. Nte. Manuel Gﾃｳmez Morﾃｭn 481, Arcos de Zapopan, 45130 Zapopan, Jal., Mﾃｩxico	['school', 'point_of_interest', 'establishment']
307	ChIJZ0h-ZWqvKIQRhi2lS3uWDvc	LITTLE SUNRISE PRESCHOOL	preescolar	20.7411988	-103.4115559	Arco Caracalla 1287, Arcos de Zapopan, 45130 Zapopan, Jal., Mﾃｩxico	['school', 'point_of_interest', 'establishment']
308	ChIJ1eMWvnivKIQRfggxiO42O0Y	JARDIN DE NIﾃ前S MARIA MONTESSORI SIGLO XXI	preescolar	20.7469596	-103.4061071	C. Trafalgar 2278, Lomas de Zapopan, 45130 Zapopan, Jal., Mﾃｩxico	['school', 'point_of_interest', 'establishment']
309	ChIJp90RXXylKIQRXwVPU4mxzoM	Jardﾃｭn De Niﾃｱos Guadalupe Victoria	preescolar	20.7595318	-103.3968666	Hacienda de Los Nardos 33A, Haciendas del Valle, 45133 Zapopan, Jal., Mﾃｩxico	['school', 'point_of_interest', 'establishment']
310	ChIJs-wnoX-vKIQRx1U57esccsU	Colegios Educativos de Excelencia	preescolar	20.7517856	-103.4066787	Av Torremolinos 3326, Colinas del Rey, 45130 Zapopan, Jal., Mﾃｩxico	['school', 'point_of_interest', 'establishment']
311	ChIJPa2G35ClKIQRrpZ6GTGarC8	JARDIN DE NIﾃ前S CHAPELA Y BLANCO	preescolar	20.7697149	-103.4193723	12 de Noviembre 3169, Hogares de Nuevo Mﾃｩxico, 45134 Zapopan, Jal., Mﾃｩxico	['school', 'point_of_interest', 'establishment']
312	ChIJ3-uEmLevKIQR24naOSsOwqA	Kindergreen La Cima	preescolar	20.7502663	-103.4142746	Av Jarales 178, La Cima, 45134 Nuevo Mﾃｩxico, Jal., Mﾃｩxico	['school', 'point_of_interest', 'establishment']
313	ChIJKbdro7e7KIQR-4D21W6Od-4	PREESCOLAR OVIDIO DECROLY 14DJN0430Z	preescolar	20.7627537	-103.3272254	Rubﾃｩn Darﾃｭo 3872, La Coronilla, 45189 Zapopan, Jal., Mﾃｩxico	['school', 'point_of_interest', 'establishment']
314	ChIJ4wQmBOC9KIQRDqVyX747qus	Preescolar Niﾃｱos Heroes	preescolar	20.8610278	-103.3419094	Juﾃ｡rez Juﾃ｡rez 4, 45242 San Francisco de Ixcatﾃ｡n, Jal., Mﾃｩxico	['school', 'point_of_interest', 'establishment']
315	ChIJCdtWSKatKIQR51RVp9uLQX0	Jardﾃｭn de Niﾃｱos Francisco de Quevedo	preescolar	20.6194956	-103.394442	Isla Mexiana 3045, Parques Colﾃｳn, 45608 San Pedro Tlaquepaque, Jal., Mﾃｩxico	['school', 'point_of_interest', 'establishment']
316	ChIJTSmI25GtKIQRkiaMX85KUBg	INSTITUTO NUEVA VIDA	preescolar	20.6242927	-103.3954595	Av Jaime Torres Bodet 3160, Jardines del Sauz, 44987 Guadalajara, Jal., Mﾃｩxico	['school', 'point_of_interest', 'establishment']
317	ChIJV_Cx7IitKIQRJlsKEsilG6c	Klubkualikids	preescolar	20.6201969	-103.3987615	Farallﾃｳn 4815, Mirador del Tesoro, 45608 San Pedro Tlaquepaque, Jal., Mﾃｩxico	['school', 'point_of_interest', 'establishment']
318	ChIJfTSm7pCtKIQRTA_sNuNrPUg	Jardﾃｭn de Niﾃｱos Adolfo Lﾃｳpez Mateos Nﾂｰ484 y Nﾂｰ485	preescolar	20.6195768	-103.3932058	Isla Mexiana 2964, Parques Colﾃｳn, 45608 San Pedro Tlaquepaque, Jal., Mﾃｩxico	['school', 'point_of_interest', 'establishment']
319	ChIJV6LN10StKIQRjklbsFDcmiI	Jardﾃｭn de Niﾃｱos Francisco Gabilondo Soler	preescolar	20.6094324	-103.3964497	Cda. Sta. Maria 500, Balcones de Santa Marﾃｭa, 45606 San Pedro Tlaquepaque, Jal., Mﾃｩxico	['school', 'point_of_interest', 'establishment']
320	ChIJS7mVB7StKIQRPhb2Pc8PM2M	Jardin De Niﾃｱos Francisco Gabilondo Soler 343 Y 416	preescolar	20.6325138	-103.3999604	Platino 4589-4608, Lomas de La Victoria, 45607 San Pedro Tlaquepaque, Jal., Mﾃｩxico	['school', 'point_of_interest', 'establishment']
321	ChIJPzPC70usKIQR8t9Es42lMAE	Nuevo Centro de Educaciﾃｳn Integral	preescolar	20.6322403	-103.409854	Av De La Calma Nﾂｰ 3111, La Calma, 45070 Zapopan, Jal., Mﾃｩxico	['primary_school', 'school', 'point_of_interest', 'establishment']
322	ChIJpxcAZ8etKIQRDhFqBzVaV4I	Jardﾃｭn de Niﾃｱos Josﾃｩ R. Osorio	preescolar	20.6399106	-103.3893441	Isla del Hierro 3058, La Cruz, 44950 Guadalajara, Jal., Mﾃｩxico	['school', 'point_of_interest', 'establishment']
323	ChIJCZ-v7cqtKIQRBeWkbyfTi_M	Centro Educativo Siembra	preescolar	20.646723	-103.3999363	Av. Obsidiana 2519, Victoria, 45089 Zapopan, Jal., Mﾃｩxico	['school', 'point_of_interest', 'establishment']
324	ChIJYyd6itatKIQRk6YnPKiSa60	Colegio Britanico de Guadalajara (Maternal y Preescolar)	preescolar	20.6602769	-103.4001874	La Morena 104, Chapalita Sur, 45040 Zapopan, Jal., Mﾃｩxico	['school', 'point_of_interest', 'establishment']
325	ChIJhQl1fMOvKIQRcgQxe7-b1Ag	Toma Nota Chapalita	preescolar	20.6678446	-103.4039608	Calle San Juan Bosco 87, Jardﾃｭn de San Ignacio, 45040 Zapopan, Jal., Mﾃｩxico	['school', 'point_of_interest', 'establishment']
326	ChIJK4gnTVStKIQRAOwhQF4772k	Kindergym Del Sol	preescolar	20.6573109	-103.4017067	Mixcoatl 1503, Cd del Sol, 45050 Zapopan, Jal., Mﾃｩxico	['school', 'point_of_interest', 'establishment']
327	ChIJGUivIHmuKIQRRCM0GgxzrxQ	Kinderglﾃｼck	preescolar	20.6645383	-103.3980526	Av. Tepeyac 275, Chapalita, 44500 Guadalajara, Jal., Mﾃｩxico	['school', 'point_of_interest', 'establishment']
328	ChIJoZDPxYOuKIQRp0OfG3dj1aM	Desarrollo en Armonia	preescolar	20.6643917	-103.4117631	Av Guadalupe 4441, Cd de los Niﾃｱos, 45040 Zapopan, Jal., Mﾃｩxico	['school', 'point_of_interest', 'establishment']
329	ChIJEUzhDWSuKIQRxrmotJCKCBc	Children's World Kindergarden	preescolar	20.6781854	-103.398512	Hipﾃｳdamo 156, 44690 Guadalajara, Jal., Mﾃｩxico	['school', 'point_of_interest', 'establishment']
330	ChIJOVDx2YCrKIQRMsKA0UKdRxc	Colegio Dorothea Erxlben	preescolar	20.6645292	-103.3980773	Av. Tepeyac 275, Chapalita, 44500 Guadalajara, Jal., Mﾃｩxico	['school', 'point_of_interest', 'establishment']
331	ChIJNxwIZIeuKIQR077EOngio-4	Instituto Anahuacalli	preescolar	20.668766	-103.405348	Av San Ignacio 201, Jardﾃｭn de San Ignacio, 45040 Zapopan, Jal., Mﾃｩxico	['school', 'primary_school', 'point_of_interest', 'establishment']
332	ChIJ5emP12GuKIQR1OWlsygFn1Q	Hop Hop: Maternal, Pre Kﾃｭnder, k1	preescolar	20.6810275	-103.4048256	C. Jesus D. Rojas #3870, Los Pinos, 45120 Zapopan, Jal., Mﾃｩxico	['school', 'point_of_interest', 'establishment']
333	ChIJpU6e4W6uKIQR8WGtvWOPcBA	El Principito	preescolar	20.6778841	-103.3904485	C. Lincoln 155, Vallarta Nte., 44690 Guadalajara, Jal., Mﾃｩxico	['school', 'point_of_interest', 'establishment']
334	ChIJJegNwmiuKIQR5xX0c3G8Xq0	IDOLINA GAONA COCIO	preescolar	20.6813262	-103.3914457	C. Beethoven 316, Juan Manuel, 44680 Guadalajara, Jal., Mﾃｩxico	['school', 'point_of_interest', 'establishment']
335	ChIJxeUwnXquKIQRdB5RWSfZmN4	Colegio Guadalupe	preescolar	20.6685878	-103.3967306	Av San Francisco 487, Chapalita, 44500 Guadalajara, Jal., Mﾃｩxico	['school', 'point_of_interest', 'establishment']
336	ChIJuTN_KGiuKIQRzx3MsX5fGlw	Kinder Beginnerﾂｴs Providencia	preescolar	20.6863771	-103.3920435	C. El Greco 574, Prados Providencia, 44670 Guadalajara, Jal., Mﾃｩxico	['school', 'point_of_interest', 'establishment']
337	ChIJ3XxLIE-uKIQR1SSoYD3j6f4	Jardﾃｭn de Niﾃｱos M.ﾂｪ Gutiﾃｩrrez Rodrﾃｭguez	preescolar	20.7001208	-103.3891129	C. Nueva Escocia 1667, Providencia, 44630 Guadalajara, Jal., Mﾃｩxico	['school', 'point_of_interest', 'establishment']
338	ChIJv023YLOvKIQRA-eesOYATv4	Jardﾃｭn De Niﾃｱos Prof. Jesﾃｺs Reyes Heroles	preescolar	20.7107023	-103.3879601	Cvln. Medas 314, Altamira, 45167 Zapopan, Jal., Mﾃｩxico	['school', 'point_of_interest', 'establishment']
339	ChIJfQR8YrGvKIQRCSzRMcF0yVs	Tic Tac Toe Kinder	preescolar	20.7150025	-103.3894919	Altamira 904, Loma Blanca, 45167 Zapopan, Jal., Mﾃｩxico	['school', 'point_of_interest', 'establishment']
340	ChIJ0yPh-q-vKIQRor-s4UK5yQs	Kinder House	preescolar	20.7199381	-103.3939917	Naranjos 219, Linda Vista, 45169 Zapopan, Jal., Mﾃｩxico	['school', 'point_of_interest', 'establishment']
341	ChIJORhxaQCvKIQRoGju8T-B1GA	DEI PRESCHOOL	preescolar	20.7443318	-103.3944808	Av. Escoreal 2341, Lomas de Zapopan, 45130 Zapopan, Jal., Mﾃｩxico	['school', 'point_of_interest', 'establishment']
342	ChIJz6W7FeSvKIQRoNfhT_vzbLY	Jardin de Niﾃｱos Marcelino Garcia Barragan	preescolar	20.7354486	-103.3955617	Bv. de la Espuela 350, El Vigﾃｭa, 45130 Zapopan, Jal., Mﾃｩxico	['school', 'point_of_interest', 'establishment']
343	ChIJB0NkL4OvKIQRQ-p3AupgIHs	Mini Mondo	preescolar	20.7438831	-103.4015758	Esquina y cerrada con, calle Marbella, C. Covadonga 671, Lomas de Zapopan, 45130 Zapopan, Jal., Mﾃｩxico	['school', 'point_of_interest', 'establishment']
344	ChIJ-eeFZoSvKIQRsVA960gBi6c	Colegio DEI PRESCHOOL	preescolar	20.7469378	-103.3980147	Campo Real 512, Lomas de Zapopan, 45130 Zapopan, Jal., Mﾃｩxico	['school', 'point_of_interest', 'establishment']
345	ChIJPbY0-eqlKIQRbMCZZhHJbRM	Kids Kinder Jean Piaget	preescolar	20.7582051	-103.3888336	Prol. Rﾃｭo Blanco 731, Mirador San Isidro, Misiﾃｳn San Isidro, 45130 Zapopan, Jal., Mﾃｩxico	['school', 'point_of_interest', 'establishment']
346	ChIJF4UXGGKlKIQR2OXqJlX7mMQ	Ochoa Ramﾃｭrez Renata Patricia	preescolar	20.7582059	-103.3888337	Prol. Rﾃｭo Blanco 731, Mirador San Isidro, Misiﾃｳn San Isidro, 45133 Zapopan, Jal., Mﾃｩxico	['school', 'point_of_interest', 'establishment']
347	ChIJv1qGpICvKIQRxkz6FOgqkf8	JARDIN DE NINOS PESTALOZZI	preescolar	20.7544711	-103.40012	Av Valdepeﾃｱas 8454, Las Palmas, 45130 Zapopan, Jal., Mﾃｩxico	['school', 'point_of_interest', 'establishment']
348	ChIJQeNn9T2lKIQRvqiYVryaJJE	"Jardin de Niﾃｱos ""Antonio Yaﾃｱez Jauregui"" T/V"	preescolar	20.7628082	-103.3895836	Misiﾃｳn del Bosque, 45133 Zapopan, Jal., Mﾃｩxico	['school', 'point_of_interest', 'establishment']
349	ChIJPeVtpWSlKIQRy3-CdlOJQM0	GENIUS PRE-SCHOOL KINDER	preescolar	20.7620906	-103.3926554	C. Flamenco 1663, Misiﾃｳn San Isidro, 45190 Zapopan, Jal., Mﾃｩxico	['school', 'point_of_interest', 'establishment']
350	ChIJAR21CmKlKIQR_XUQnD_hmdM	Kidsmun Estancia Infantil	preescolar	20.7562005	-103.3888253	Av Industria Textil 1709, Mirador San Isidro, Misiﾃｳn San Isidro, 45133 Zapopan, Jal., Mﾃｩxico	['school', 'point_of_interest', 'establishment']
351	ChIJ1fgkw_SvKIQRyWVas_p3FbY	Jardﾃｭn de Niﾃｱos Francisco Gabilondo Soler	preescolar	20.7528205	-103.3805585	Cam. de La Sierra 338, Bosques del Centinela, 45130 Zapopan, Jal., Mﾃｩxico	['school', 'point_of_interest', 'establishment']
352	ChIJfRUhOYSlKIQRhKZBm79cy7o	Jardﾃｭn de niﾃｱos	preescolar	20.8083555	-103.3748823	45205 San Esteban, Jal., Mﾃｩxico	['school', 'point_of_interest', 'establishment']
353	ChIJFxTNrf2wKIQRpPSrUlJFwDM	PREESCOLAR DIEGO RIVERA	preescolar	20.7182962	-103.3037567	El Verde( Planetario), 44395 Guadalajara, Jal., Mﾃｩxico	['school', 'point_of_interest', 'establishment']
354	ChIJ_w1KwK6tKIQRshMHWTawGdI	Jardin de niﾃｱos Tomas Escobedo Barba	preescolar	20.6222339	-103.3979286	El Sauz, 45608 Guadalajara, Jal., Mﾃｩxico	['school', 'point_of_interest', 'establishment']
355	ChIJX-y5qKKtKIQRGeYk8KIumqM	Jardﾃｭn de niﾃｱos Manuel Lﾃｳpez Cotilla T/M Manuel M. Ponce Cuellar T/V	preescolar	20.6272882	-103.3821936	52, C. Gerﾃｳnimo Treviﾃｱo 3848, Lﾃｳpez Portillo, 44960 Guadalajara, Jal., Mﾃｩxico	['school', 'point_of_interest', 'establishment']
356	ChIJYw9YO7qtKIQRlskBJDLNZJ0	Jardﾃｭn de Niﾃｱos Cuitlahuac	preescolar	20.6322071	-103.3915766	C. Isla Socorro 3071, Jardines del Sur, 44950 Guadalajara, Jal., Mﾃｩxico	['school', 'point_of_interest', 'establishment']
357	ChIJV7pkA7ytKIQR5fkvVObKm9s	Mﾃ厩ICO TENOCHTITLAN	preescolar	20.6330152	-103.3870316	Av Isla Deseada 2227, Jardines de La Cruz, 44987 Guadalajara, Jal., Mﾃｩxico	['school', 'point_of_interest', 'establishment']
358	ChIJI-cCEbutKIQRoc3-VVDG65A	Jardﾃｭn de Niﾃｱos AGUSTIN YAﾃ薦Z	preescolar	20.6293044	-103.389614	C. Isla Tory sn, Villa Guerrero, 44987 Guadalajara, Jal., Mﾃｩxico	['school', 'point_of_interest', 'establishment']
359	ChIJm0YTSLqtKIQR9H6cHe1apt4	JARDIN DE NIﾃ前S OVIDIO DECROLY	preescolar	20.6314944	-103.3911748	C. Isla Trapani 3041, Jardines del Sur, 44950 Guadalajara, Jal., Mﾃｩxico	['school', 'point_of_interest', 'establishment']
360	ChIJZc7W-LetKIQRyJsEIyG9TVY	Kinder y Primaria Hans Christian Andersen	preescolar	20.638268	-103.3935298	Av. Cruz del Sur 3295-17, Sta. Eduwiges, 44580 Guadalajara, Jal., Mﾃｩxico	['school', 'point_of_interest', 'establishment']
361	ChIJSbtMnJWtKIQRs7uNkk-jBPw	Centro Educativo Preescolar Crayola / Colegio Balzac	preescolar	20.6364521	-103.3810082	Av Rosario Castellanos 1991, Jardines de La Cruz, 44950 Guadalajara, Jal., Mﾃｩxico	['primary_school', 'school', 'point_of_interest', 'establishment']
362	ChIJ69rUZcmtKIQRfGGs6ev1-ws	CENTRO INFANTIL UNION AMERICANA - Kinder	preescolar	20.6426191	-103.398908	Av. Lapizlﾃ｡zuli 2978, Victoria, 45060 Guadalajara, Jal., Mﾃｩxico	['school', 'point_of_interest', 'establishment']
363	ChIJTy0-jumtKIQRkuihyNh-AyE	Miguel De Cervantes Saavedra Preescolar	preescolar	20.6462487	-103.37999	Av. Fray Andrﾃｩs de Urdaneta 2161, Jardines de La Cruz, 44950 Guadalajara, Jal., Mﾃｩxico	['school', 'point_of_interest', 'establishment']
364	ChIJJQc48rpTL4QR9BITfmsnHq8	Jardﾃｭn de niﾃｱos Octavio Paz	preescolar	20.6494233	-103.3739923	Cuba 216, Del Sur, 44920 Guadalajara, Jal., Mﾃｩxico	['school', 'point_of_interest', 'establishment']
365	ChIJqWiQthKuKIQRNjvPjrLxStc	Jardﾃｭn de Niﾃｱos Cri Cri y sus amigos A.C	preescolar	20.6762926	-103.3814909	C. Victoriano Salado ﾃ〕varez 13, Ladron De Guevara, 44600 Guadalajara, Jal., Mﾃｩxico	['school', 'point_of_interest', 'establishment']
366	ChIJ7-M5OnSuKIQR39VsihvzURY	SILUETAS DESARROLLO INFANTIL PREESCOLAR GUARDERIA CLUB DE TAREAS	preescolar	20.6662874	-103.3876375	Av Niﾃｱos Hﾃｩroes 2891, Jardines del Bosque, 44520 Guadalajara, Jal., Mﾃｩxico	['school', 'point_of_interest', 'establishment']
367	ChIJ6Zpjs2-uKIQRJkebNySrDXc	Aprender a Ser	preescolar	20.6756762	-103.3906347	Av. Miguel Hidalgo y Costilla 2935, Vallarta Nte., 44690 Guadalajara, Jal., Mﾃｩxico	['primary_school', 'school', 'point_of_interest', 'establishment']
368	ChIJEUjDZG6uKIQRW0sHDlaCX7M	Instituto de Educaciﾃｳn Creativa Morada Infantil A.C.	preescolar	20.6765566	-103.3884038	Av. Miguel Hidalgo y Costilla 2371, Vallarta Nte., 44690 Guadalajara, Jal., Mﾃｩxico	['school', 'point_of_interest', 'establishment']
369	ChIJORv-E2iuKIQRPn31tb0lVJk	Cheel JARDIN DE NIﾃ前S	preescolar	20.6842862	-103.3923461	Av. Manuel Acuﾃｱa 3053, Prados Providencia, 44670 Guadalajara, Jal., Mﾃｩxico	['school', 'point_of_interest', 'establishment']
370	ChIJlTM8FjiuKIQRTTImhWg_-RQ	step bY step	preescolar	20.6854121	-103.3912629	C. Goya 567, Prados Providencia, 44670 Guadalajara, Jal., Mﾃｩxico	['school', 'point_of_interest', 'establishment']
371	ChIJbxplH0SuKIQRs7fnFzuqtgA	Tzitlacalli Modena	preescolar	20.6935167	-103.3879607	Modena 1121, Lomas de Providencia, 44647 Guadalajara, Jal., Mﾃｩxico	['school', 'point_of_interest', 'establishment']
372	ChIJW8-KjVyuKIQRwMYNgrgmcFo	Jardﾃｭn de Niﾃｱos El Mundo de Cri-cri	preescolar	20.6889008	-103.395989	Av Aztecas 880, Prados Providencia, 44670 Guadalajara, Jal., Mﾃｩxico	['school', 'point_of_interest', 'establishment']
373	ChIJY3yAO0WuKIQRa2wnkm-Y974	Tzitlacalli Montevideo	preescolar	20.7003618	-103.3871168	Av Montevideo 3074, Providencia 5a Secc., 44638 Guadalajara, Jal., Mﾃｩxico	['school', 'point_of_interest', 'establishment']
374	ChIJ6SyXEEmuKIQROwikbh27p1c	Kinder Tri-ciclo	preescolar	20.7015234	-103.3856602	Av Montevideo 2838, Providencia 4a. Secc, 44639 Guadalajara, Jal., Mﾃｩxico	['school', 'point_of_interest', 'establishment']
375	ChIJT02Ru0muKIQRr7gc0g7Qdko	Colegio La Paz Preescolar	preescolar	20.699273	-103.382984	Av. Rubﾃｩn Darﾃｭo 1503, Providencia 4a. Secc, 44639 Guadalajara, Jal., Mﾃｩxico	['school', 'point_of_interest', 'establishment']
376	ChIJZWxNBcevKIQR5kCJ0Y7wqRk	Jardﾃｭn De Niﾃｱos Salvador Gﾃ｡lvez G.	preescolar	20.7253216	-103.3796298	Vista Hermosa 587, Los Maestros, 45150 Zapopan, Jal., Mﾃｩxico	['school', 'point_of_interest', 'establishment']
377	ChIJ62dEJoWvKIQRfYBUFOSpRk4	Jardin De Niﾃｱos 205 Juana Inﾃｩs De La Cruz	preescolar	20.7444555	-103.3960459	Talavera Ote. 2345, Lomas de Zapopan, 45130 Zapopan, Jal., Mﾃｩxico	['school', 'point_of_interest', 'establishment']
378	ChIJ2eqhX56vKIQRa9Fq9e8nj98	Jardﾃｭn de Niﾃｱos Moctezuma	preescolar	20.7356965	-103.4020819	Lﾃ｡zaro Cﾃ｡rdenas 330, Unidad Fovissste, 45149 Zapopan, Jal., Mﾃｩxico	['school', 'point_of_interest', 'establishment']
379	ChIJW19gDo-vKIQRXA8g7N_i5GM	ADOLFO LOPEZ MATEOS y MARIA CONSEPCION t/m	preescolar	20.7474889	-103.3914185	Av Industria Textil casi esquina con Industria de la Costruccion, Villas de Zapopan, 45132 Zapopan, Jal., Mﾃｩxico	['school', 'point_of_interest', 'establishment']
380	ChIJ6ft5A_SvKIQRJz797E3DtTA	Jardﾃｭn de Niﾃｱos Gabriela Mistral	preescolar	20.751615	-103.3763753	Av Bosques del Centinela 910, Jardines del Vergel, 45187 Zapopan, Jal., Mﾃｩxico	['school', 'point_of_interest', 'establishment']
381	ChIJq02NKpGlKIQRWFwWoLtUYbo	Coordinaciﾃｳn de zona escolar SEP	preescolar	20.7628395	-103.3896056	Misiﾃｳn del Bosque, 45133 Zapopan, Jal., Mﾃｩxico	['school', 'point_of_interest', 'establishment']
382	ChIJ_XeNfFOwKIQRuO15RIM8cGA	JAIME NUNO PREESCOLAR GENERAL	preescolar	20.7173857	-103.3185581	44300 Sierra de Mapimﾃｭ sur sin nﾃｺmero, Popular NO.9, 44300 Guadalajara, Jal., Mﾃｩxico	['school', 'point_of_interest', 'establishment']
383	ChIJQV3w1XetKIQRDsvfE0Th-bQ	JARDﾃ康 DE NIﾃ前S JALISCO	preescolar	20.6171342	-103.3729083	C. Josﾃｩ Miguel Macﾃｭas, Polanquito, 44969 Guadalajara, Jal., Mﾃｩxico	['school', 'point_of_interest', 'establishment']
384	ChIJDfwnV6OtKIQRtNgrrlabLls	Jardﾃｭn de niﾃｱos Cristﾃｳbal Colﾃｳn / instituto educativo de formaciﾃｳn integral sc	preescolar	20.6045612	-103.379104	Calle San Josﾃｩ Pte. 26, Nueva Santa Marﾃｭa, 45530 San Pedro Tlaquepaque, Jal., Mﾃｩxico	['school', 'point_of_interest', 'establishment']
385	ChIJZfZcx9mtKIQRaG6J4RvjjDM	CAIC NUEVA SANTA MARIA	preescolar	20.6044016	-103.3812969	San Isidro #87, Nueva Santa Marﾃｭa, 45530 San Pedro Tlaquepaque, Jal., Mﾃｩxico	['school', 'point_of_interest', 'establishment']
386	ChIJtd_a4vCtKIQRj2X8Bmo2_20	Jardin De Niﾃｱos Mariano Azuela	preescolar	20.6084702	-103.3690777	Buenos Aires, 45606 San Pedro Tlaquepaque, Jal., Mﾃｩxico	['school', 'point_of_interest', 'establishment']
387	ChIJ0_BitYatKIQRdhaoj6saSeQ	REPUBLICA PREESCOLAR GENERAL	preescolar	20.6235757	-103.3631914	C. Adolfo Cisneros 132, Echeverrﾃｭa, 44970 Guadalajara, Jal., Mﾃｩxico	['school', 'point_of_interest', 'establishment']
388	ChIJAQBnhZCyKIQRO0x7xkcqwpE	Preescolar El Pequeﾃｱo Mundo	preescolar	20.6038402	-103.3464943	Teatro de Las Americas 77, Cerro del Cuatro, 45599 San Pedro Tlaquepaque, Jal., Mﾃｩxico	['school', 'point_of_interest', 'establishment']
389	ChIJTyRg6JatKIQR3691WnU3JqQ	PREESCOLAR MANUEL CERVANTES IMAZ	preescolar	20.6320414	-103.377672	Lomas de Polanco, 44960 Guadalajara, Jal., Mﾃｩxico	['school', 'point_of_interest', 'establishment']
390	ChIJ-_0uy5atKIQREFm3UfAr9vw	Preescolar Leonardo da Vinci	preescolar	20.6327867	-103.3761083	Samuel Navarro 3252, Lomas de Polanco, 44960 Guadalajara, Jal., Mﾃｩxico	['school', 'point_of_interest', 'establishment']
391	ChIJUZ7T7patKIQR2yhJWqNXbQ4	Jardﾃｭn de Niﾃｱos Rotario	preescolar	20.6320754	-103.377754	C. Ramﾃｳn Alcorta 2117, Lomas de Polanco, 44960 Guadalajara, Jal., Mﾃｩxico	['school', 'point_of_interest', 'establishment']
392	ChIJESk7LsCtKIQR45myMu3e20g	COLEGIO JOSE VASCONCELOS	preescolar	20.6420181	-103.3825096	Isla Tobago No 2877, Jardines de La Cruz, 44950 Guadalajara, Jal., Mﾃｩxico	['primary_school', 'school', 'point_of_interest', 'establishment']
393	ChIJG2YpM5KtKIQRsovDDHeqRiQ	JARDIN DE NIﾃ前S TLATOA	preescolar	20.6354599	-103.3731341	Potrero del Llano 1534, 18 de Marzo, 44960 Guadalajara, Jal., Mﾃｩxico	['school', 'point_of_interest', 'establishment']
394	ChIJjfbHS5CtKIQRlqd0MTQ0FOM	Preescolar Ovide Decroly	preescolar	20.6314888	-103.3718773	C. Juan Josﾃｩ Rﾃｭos 3389, Lomas de Polanco, 44960 Guadalajara, Jal., Mﾃｩxico	['school', 'point_of_interest', 'establishment']
395	ChIJue3xs-OtKIQRB4rHYRUvRCg	Jardﾃｭn de Niﾃｱos - Vicente Guerrero	preescolar	20.6604364	-103.3742145	Cerezo 1318, Del Fresno, 44990 Guadalajara, Jal., Mﾃｩxico	['school', 'point_of_interest', 'establishment']
396	ChIJxSTPKdmtKIQReKutR7g6TQI	Brigth Mind World A.C.	preescolar	20.6593499	-103.3881064	Centella 1055, Jardines del Bosque, 44520 Guadalajara, Jal., Mﾃｩxico	['school', 'point_of_interest', 'establishment']
397	ChIJh0MYPgqyKIQRnqe0fDWYGas	PREESCOLAR COSTA DE MARFIL	preescolar	20.6461693	-103.3572898	44910, Zenzontle 971, 8 de Julio, Guadalajara, Jal., Mﾃｩxico	['school', 'point_of_interest', 'establishment']
398	ChIJn5qQUAmuKIQRhnZoXKeA3Kw	Kipling Kids' City	preescolar	20.6687035	-103.375581	C. Josﾃｩ Guadalupe Montenegro 2325, Col Americana, Lafayette, 44140 Guadalajara, Jal., Mﾃｩxico	['school', 'point_of_interest', 'establishment']
399	ChIJHSl9wRKuKIQR8uaTSu4gqRc	Ideas Enfoque Educativo	preescolar	20.6764936	-103.3808041	Av. Miguel Hidalgo y Costilla 1975, Arcos Vallarta, 44650 Guadalajara, Jal., Mﾃｩxico	['school', 'point_of_interest', 'establishment']
400	ChIJxwwriz6uKIQRUF9nfFTzS8I	Colegio Fray Pedro de Gante. Preescolar, Primaria, Secundaria, Bachillerato.	preescolar	20.6895206	-103.377741	Av Adolfo Lﾃｳpez Mateos Nte 833, Lomas de Guevara, 44680 Guadalajara, Jal., Mﾃｩxico	['school', 'point_of_interest', 'establishment']
401	ChIJ3egcbmiuKIQRQ_uNKyeSzlA	Kinder Alejandre y Michel	preescolar	20.6834771	-103.3753274	H. Y Cairo 2318, Ladron De Guevara, 44680 Guadalajara, Jal., Mﾃｩxico	['school', 'point_of_interest', 'establishment']
402	ChIJf1nBDjquKIQRcJldMGJhnLA	Hipatia Estancia Infantil Y Preescolar Bilingﾃｼe	preescolar	20.6981415	-103.375084	44630, Filadelfia 1120, Circunvalaciﾃｳn Americas, Guadalajara, Jal., Mﾃｩxico	['school', 'point_of_interest', 'establishment']
403	ChIJbybM-EmuKIQR9ECFzMmcdtc	Roosevelt School	preescolar	20.7036702	-103.3822549	Calle Ontario 1727, Colomos Providencia, 44620 Guadalajara, Jal., Mﾃｩxico	['school', 'point_of_interest', 'establishment']
404	ChIJHZySdziuKIQRgFytDbQPZGw	HONEYCOMB Centro De Estudio Infantil, A.C.	preescolar	20.6961533	-103.3826165	C. Colomos 2726, Providencia 2a. Secc, 44658 Guadalajara, Jal., Mﾃｩxico	['school', 'point_of_interest', 'establishment']
405	ChIJj7qHxtOxKIQR9qQA4sEq0H4	La casita musical Preescolar	preescolar	20.7075048	-103.3509283	C. Andrﾃｩs Quintana Roo 2056, La Guadalupana, 44220 Guadalajara, Jal., Mﾃｩxico	['school', 'point_of_interest', 'establishment']
406	ChIJ2VA7FrmvKIQRba9uvrWXvlE	Jardﾃｭn de Niﾃｱos Marcos Gonzalo Amador Medina	preescolar	20.7255859	-103.3856495	San Juan 180, Tepeyac, 45150 Zapopan, Jal., Mﾃｩxico	['school', 'point_of_interest', 'establishment']
407	ChIJ_7TpMuavKIQRWntEGlrzmZA	Jardﾃｭn de Niﾃｱos ISIDRO CASTILLO PEREZ	preescolar	20.7371807	-103.3694403	Los Sabinos y Paseo de Las Galateas S/N, P.ﾂｺ de Los Sabinos entre Calle De, Tabachines, 45188 Zapopan, Jal., Mﾃｩxico	['school', 'point_of_interest', 'establishment']
408	ChIJbzf6hMavKIQRuQiNnoSYDOo	Estancia Infaltil Idolina Gaona de Cosio	preescolar	20.7253104	-103.376576	C. Marﾃｭa de Jesﾃｺs Romo de Vivar 169, Los Maestros, 45150 Zapopan, Jal., Mﾃｩxico	['school', 'point_of_interest', 'establishment']
409	ChIJy1Lg9sCvKIQRXryI5sFlBFM	Kinder Johann Pestalozzi	preescolar	20.7300707	-103.3798862	Dr. J. M. E. Gutiﾃｩrrez de Hermosillo 602, Villas Belenes, 45150 Zapopan, Jal., Mﾃｩxico	['school', 'point_of_interest', 'establishment']
410	ChIJVz2MGL6vKIQRbymDgdtw7ZI	"Jardin De Niﾃｱos ""Niﾃｱos Heroes De Chapultepec"""	preescolar	20.7324037	-103.3864271	45100, Bv. de la Espuela 1, Conjunto Laureles, 45100 Zapopan, Jal., Mﾃｩxico	['school', 'point_of_interest', 'establishment']
411	ChIJLzKaPo2vKIQRLswibccQGPs	"Jardin de Niﾃｱos ""Gabriela Mistral"""	preescolar	20.7286153	-103.3665365	Gral. Esteban Vaca Calderﾃｳn 447, Constituciﾃｳn, 45130 Zapopan, Jal., Mﾃｩxico	['school', 'point_of_interest', 'establishment']
412	ChIJoWGM_LilKIQRYWpQ5wM2Tm0	Jardﾃｭn de niﾃｱos Rosaura Zapata	preescolar	20.7580034	-103.3676322	Periodistas 2233, Las Cabaﾃｱitas, 45130 Zapopan, Jal., Mﾃｩxico	['school', 'point_of_interest', 'establishment']
413	ChIJFz4nueWvKIQRFx13VCAzqdk	KINDER Torres Bodet	preescolar	20.7416946	-103.3683806	P.ﾂｺ de Los Colorines 2697, Tabachines, 45188 Zapopan, Jal., Mﾃｩxico	['school', 'point_of_interest', 'establishment']
414	ChIJSUTGwA6wKIQRR_zve0f5N-E	Niﾃｱos Hﾃｩroes	preescolar	20.7521223	-103.3426964	Timoteo Velﾃ｡zquez 16, Villas de Guadalupe, 45189 Zapopan, Jal., Mﾃｩxico	['school', 'point_of_interest', 'establishment']
415	ChIJ2d9OKwCtKIQRlG3RYwKjIiM	Jardﾃｭn de Niﾃｱos 421 窶廱uan de Dios Peza窶	preescolar	20.6037155	-103.3728762	C. Lﾃ｡zaro Cﾃ｡rdenas, Francisco I Madero, 45530 San Pedro Tlaquepaque, Jal., Mﾃｩxico	['school', 'point_of_interest', 'establishment']
416	ChIJwUxC6j2tKIQRHJznjgk1fno	Preescolar jesus ﾃ〕varez de castillo	preescolar	20.6086158	-103.369044	P.ﾂｺ de Los Buenos Aires 65, Buenos Aires, 45606 San Pedro Tlaquepaque, Jal., Mﾃｩxico	['school', 'point_of_interest', 'establishment']
417	ChIJib37izWtKIQR27LFSY8avJk	preescolar NIﾃ前S HEROES	preescolar	20.6275305	-103.3669811	Gregorio Almada 1682, Echeverrﾃｭa, 44970 Guadalajara, Jal., Mﾃｩxico	['school', 'point_of_interest', 'establishment']
418	ChIJyzU9d4OtKIQR4xuvCCgC6uE	JARDﾃ康 DE NIﾃ前S Mﾃ厩ICO	preescolar	20.6223813	-103.3676541	Entre calle Roberto J. Cordero. y Jose Arrese., Josﾃｩ Arteaga S/N, Echeverrﾃｭa, 44970 Guadalajara, Jal., Mﾃｩxico	['school', 'point_of_interest', 'establishment']
419	ChIJ4bJ_wZKtKIQRYXTJZ9DMNgA	JARDIN DE NIﾃ前S TZINTLI	preescolar	20.6392143	-103.3719518	Juan Sebastiﾃ｡n El Cano 2721, Colﾃｳn Industrial, 44930 Guadalajara, Jal., Mﾃｩxico	['school', 'point_of_interest', 'establishment']
420	ChIJuZD6huStKIQRb_Rt9wo5USk	Jardﾃｭn de Niﾃｱos EVA SAMANO DE LOPEZ MATEOS	preescolar	20.6573948	-103.3729754	C. Pino 2094, Del Fresno, 44909 Guadalajara, Jal., Mﾃｩxico	['school', 'point_of_interest', 'establishment']
421	ChIJaeKbZfutKIQRAodSAw9qx1g	Montessori Nuevo Milenio II	preescolar	20.6575508	-103.3683414	C. Primavera 1873, Del Fresno, 44909 Guadalajara, Jal., Mﾃｩxico	['school', 'point_of_interest', 'establishment']
422	ChIJf2VPAgauKIQRKWo1OAtH0R8	Colegio Josﾃｩ Vasconcelos Guadalajara	preescolar	20.6691089	-103.3694463	C. Josﾃｩ Guadalupe Montenegro 2033, Col Americana, Americana, 44150 Guadalajara, Jal., Mﾃｩxico	['school', 'point_of_interest', 'establishment']
423	ChIJ2f4I8x6uKIQRWmIZn4tKhPo	Jardﾃｭn de Niﾃｱos y Estancia Infantil Juan Jacobo Rousseau	preescolar	20.6839861	-103.3621207	C. Nicolﾃ｡s Romero 439, Santa Teresita, 44200 Guadalajara, Jal., Mﾃｩxico	['school', 'point_of_interest', 'establishment']
424	ChIJc5mpshyuKIQRJrIboKD-f6U	Nidos	preescolar	20.6760568	-103.3638734	C. Josﾃｩ Marﾃｭa Morelos 1245, Col Americana, Americana, 44160 Guadalajara, Jal., Mﾃｩxico	['school', 'point_of_interest', 'establishment']
425	ChIJiR_ZpyKuKIQRfczRK1RqCrM	Estancia infantil y Preescolar Hans Christian Andersen	preescolar	20.687481	-103.3696719	C. Pedro Antonio Buzeta 669, Ladron De Guevara, 44600 Guadalajara, Jal., Mﾃｩxico	['school', 'point_of_interest', 'establishment']
426	ChIJTeY2vCWuKIQR7AgtwA48MZQ	WOOD KIDS LAND PREESCOLAR	preescolar	20.6974918	-103.3670015	Av. Plan de San Luis 1952, Chapultepec Country, 44260 Guadalajara, Jal., Mﾃｩxico	['school', 'point_of_interest', 'establishment']
427	ChIJ15xkHSCuKIQRAkFRtw-R7Hk	eduintek	preescolar	20.6882332	-103.3595111	Plan de Ayutla 758, Villaseﾃｱor, 44200 Guadalajara, Jal., Mﾃｩxico	['school', 'point_of_interest', 'establishment']
428	ChIJ78e-CNGvKIQR6QY8eAtAIQk	Jardﾃｭn de Niﾃｱos Irene Robledo Garcia	preescolar	20.7188088	-103.3670991	C. Colina Aria 2373, Colinas de Atemajac, 45170 Zapopan, Jal., Mﾃｩxico	['school', 'point_of_interest', 'establishment']
429	ChIJ65AikdSvKIQRJTm4Cl7hF_s	CENTRO ESCOLAR WALTER ELIAS DISNEY	preescolar	20.7131144	-103.3636619	Av. Patria 2214, Patria, 45178 Zapopan, Jal., Mﾃｩxico	['school', 'point_of_interest', 'establishment']
430	ChIJbTsdtimwKIQRjH4XJl2FSlo	Jardin de Niﾃｱos Frida Kahlo	preescolar	20.7200363	-103.3572545	C. La Paz 100-A, Atemajac del Valle, 45190 Zapopan, Jal., Mﾃｩxico	['school', 'point_of_interest', 'establishment']
431	ChIJnWdVqXGvKIQR0y5kurPJvJg	Little Tot Gdl	preescolar	20.7172594	-103.3750937	San Jorge 510, Ecolﾃｳgica Seattle, 45150 Zapopan, Jal., Mﾃｩxico	['school', 'point_of_interest', 'establishment']
432	ChIJxTww6k2vKIQRBbetvfeuClI	Kinder Semillas de vida	preescolar	20.7205815	-103.3738874	(B) 818, Seattle, 45050 Zapopan, Jal., Mﾃｩxico	['school', 'point_of_interest', 'establishment']
433	ChIJM9qVYMSvKIQRTv74qxCv46M	PAZITO	preescolar	20.7264467	-103.3732576	C. Enrique Recio 819, Constituciﾃｳn, 45130 Zapopan, Jal., Mﾃｩxico	['school', 'point_of_interest', 'establishment']
434	ChIJG1gX3OOvKIQRUFe8zMXxZdQ	"Jardﾃｭn de Niﾃｱos ""Josﾃｩ Vasconcelos"""	preescolar	20.7407843	-103.3626276	P.ﾂｺ de Los Nﾃｭsperos 1760, Tabachines, 45188 Zapopan, Jal., Mﾃｩxico	['school', 'point_of_interest', 'establishment']
435	ChIJf8KDxpyvKIQR8NT2liAO-c0	Estancia Infantil Y Preescolar Desarrollo De Talentos	preescolar	20.7237135	-103.3747161	Eva Arce de Rivera 82, Los Maestros, 45150 Zapopan, Jal., Mﾃｩxico	['point_of_interest', 'establishment']
436	ChIJZfgz_rCvKIQRjFlbFhU_pPk	Omar	preescolar	20.747142	-103.3697551	C. Jardines de los Girasoles 1455, Jardines del Vergel, 45130 Zapopan, Jal., Mﾃｩxico	['school', 'point_of_interest', 'establishment']
437	ChIJVTGBUxiwKIQRFSKcFNZvzYE	Jardﾃｭn de Niﾃｱos Socorro Jimenez Carrillo	preescolar	20.7382407	-103.3498023	Calz Federalismo 2051, Parques del Auditorio, Arroyo Hondo, 45130 Zapopan, Jal., Mﾃｩxico	['school', 'point_of_interest', 'establishment']
438	ChIJoS-wrOyvKIQRFzYuYrPShJE	Jardﾃｭn de niﾃｱos Guillermo prieto	preescolar	20.7531281	-103.3667401	Rocﾃｭo 2428-2498, Las Cabaﾃｱitas, 45130 Zapopan, Jal., Mﾃｩxico	['school', 'point_of_interest', 'establishment']
439	ChIJSdfS7dmvKIQRdhGwKSWT2VQ	JARDIN DE NIﾃ前S TELPOCHCALLI	preescolar	20.7239625	-103.3636873	Gral. Ignacio L. Pesqueira 331, Santa Paula, 45179 Zapopan, Jal., Mﾃｩxico	['school', 'point_of_interest', 'establishment']
440	ChIJcVB_DwCvKIQRg5sudlhds2w	Jardﾃｭn del Vergel	preescolar	20.7500674	-103.3691598	Calle Calz. del Vergel 1524, Jardines del Vergel, 45180 Zapopan, Jal., Mﾃｩxico	['school', 'point_of_interest', 'establishment']
441	ChIJlxiQKfuvKIQRaTZpWmsXN9I	Jardin de Niﾃｱos Juan Escutia	preescolar	20.7462282	-103.3671141	Uniﾃｳn de Colonos 3, La Martinica, 45185 Zapopan, Jal., Mﾃｩxico	['school', 'point_of_interest', 'establishment']
442	ChIJW6-fbv6vKIQRd-w-pq1U-HU	Jardin De Niﾃｱos Constancio Hernﾃ｡ndez	preescolar	20.7532812	-103.3605411	C. Maestros 40, Lomas de Tabachines, 45185 Zapopan, Jal., Mﾃｩxico	['school', 'point_of_interest', 'establishment']
443	ChIJmeTkJA-wKIQRNCt_KBzdLBY	Jardﾃｭn de Niﾃｱos Emiliano Zapata	preescolar	20.7517665	-103.3451131	C. Jacinto Peﾃｱa 81, Villas de Guadalupe, 45189 Zapopan, Jal., Mﾃｩxico	['school', 'point_of_interest', 'establishment']
444	ChIJ7dhhB_u7KIQRF32YJPcXuGI	Jardﾃｭn de Niﾃｱos Tenoch	preescolar	20.771206	-103.3434903	C. Comitl 564, Mesa Colorada Poniente, 45189 Zapopan, Jal., Mﾃｩxico	['school', 'point_of_interest', 'establishment']
445	ChIJq9Mwk667KIQR5yCZUGEpA8s	Preescolar Federal Jean Piaget	preescolar	20.765414	-103.3313401	C. Tamarindo 560, Mirador Escondido, 45130 Zapopan, Jal., Mﾃｩxico	['school', 'point_of_interest', 'establishment']
446	ChIJhfu_MV-wKIQRkORZbxp8YoQ	PREESCOLAR AGUSTIN YAﾃ薦Z	preescolar	20.7325759	-103.3146882	Huentitﾃ｡n El Bajo, 44250 Guadalajara, Jal., Mﾃｩxico	['school', 'point_of_interest', 'establishment']
447	ChIJoWNS38GtKIQRCCSuDIYrGBI	Little Einsteins	preescolar	20.6077769	-103.3606464	Tierra Encantada 168, Terralta, 45594 San Pedro Tlaquepaque, Jal., Mﾃｩxico	['school', 'point_of_interest', 'establishment']
448	ChIJ4x2Ny4CyKIQR6TVGPVtiX4c	JARDIN DE NIﾃ前S SEVERO DIAZ GALINDO	preescolar	20.6167681	-103.3531836	Pablo Moncayo, Miravalle, 44990 Guadalajara, Jal., Mﾃｩxico	['school', 'point_of_interest', 'establishment']
449	ChIJ-Z2lSnyyKIQRyVcU_AzH-xw	JUAN ALDAMA PREESCOLAR GENERAL	preescolar	20.6219218	-103.3514955	C. Tomas Ramon Del Moral 4472, Villa Hermosa, 44948 Guadalajara, Jal., Mﾃｩxico	['school', 'point_of_interest', 'establishment']
450	ChIJjU7qxIOtKIQR8VfiB3Z5bkw	Jan Amos Komensky	preescolar	20.6215034	-103.3653862	C. Bartolomﾃｩ Gutiﾃｩrrez 3286, Echeverrﾃｭa, 44970 Guadalajara, Jal., Mﾃｩxico	['school', 'point_of_interest', 'establishment']
451	ChIJrQ8sgYqtKIQRSOvox434zdg	Instituto Patria	preescolar	20.6325081	-103.3617986	C. 18 2490, Colﾃｳn Industrial, 44940 Guadalajara, Jal., Mﾃｩxico	['school', 'point_of_interest', 'establishment']
452	ChIJp7j8E4StKIQRWm46K4k8lf0	Jardin De Niﾃｱos America	preescolar	20.6243688	-103.3656145	Heriberto M. Aja 1440, Echeverrﾃｭa, 44970 Guadalajara, Jal., Mﾃｩxico	['school', 'point_of_interest', 'establishment']
453	ChIJgReI_JqtKIQRDhDlO9_e2nE	Jardﾃｭn de Niﾃｱos 118	preescolar	20.6175441	-103.3775229	Calle Laura Mﾃｩndez 3770, Balcones del Cuatro, 44960 Guadalajara, Jal., Mﾃｩxico	['school', 'point_of_interest', 'establishment']
454	ChIJ-4X_lPmtKIQR8uiSlfmUm9o	Subsistema Estatal Narciso Mendoza	preescolar	20.6545899	-103.363219	Av. Cristﾃｳbal Colﾃｳn 1903, Morelos, 44910 Guadalajara, Jal., Mﾃｩxico	['school', 'point_of_interest', 'establishment']
455	ChIJgXqbcNixKIQRh0Elrp6CedY	COLEGIO NARCISO BASSOLS PREESCOLAR	preescolar	20.6672126	-103.3563597	C. Penitenciarﾃｭa 628, Americana, 44160 Guadalajara, Jal., Mﾃｩxico	['school', 'point_of_interest', 'establishment']
456	ChIJNbiSNzmyKIQRwdM_v7K8MSU	Preescolar Alitzel	preescolar	20.6480373	-103.3293787	C. Rﾃｭo Tizapﾃ｡n 1368, Atlas, 44870 Guadalajara, Jal., Mﾃｩxico	['school', 'point_of_interest', 'establishment']
457	ChIJ0z_Ghv6xKIQRdwVkxBj9jpA	Jardﾃｭn de Niﾃｱos	preescolar	20.6705163	-103.3555681	Penitencerﾃｭa 423, Col Americana, Americana, 44180 Guadalajara, Jal., Mﾃｩxico	['school', 'point_of_interest', 'establishment']
458	ChIJOxuLRf-xKIQRlPsnc4k3zo8	Jardﾃｭn de Niﾃｱos 4	preescolar	20.6662162	-103.3536641	Calle Vidrio 90, Mexicaltzingo, 44180 Guadalajara, Jal., Mﾃｩxico	['school', 'point_of_interest', 'establishment']
459	ChIJN_Y8g-KxKIQRlC6Iqf9mnS8	Jardﾃｭn de Niﾃｱos 61 Aida Elizondo Preciado	preescolar	20.6787788	-103.3585605	C. Juan N. Cumplido 155, Zona Centro, 44200 Guadalajara, Jal., Mﾃｩxico	['school', 'point_of_interest', 'establishment']
460	ChIJTZ95gRyuKIQRxvUwVwFEtsI	Jardﾃｭn de Niﾃｱos Marﾃｭa de la Luz Limas Izquierdo	preescolar	20.6786813	-103.3642796	Juan Manuel 1328, Col Americana, Villaseﾃｱor, 44200 Guadalajara, Jal., Mﾃｩxico	['school', 'point_of_interest', 'establishment']
461	ChIJpWhtfOOxKIQRT_kRpt3M_LA	Guarderﾃｭa Y Preescolar Federico Froebel	preescolar	20.6792363	-103.3538296	C. San Felipe 681, Zona Centro, 44100 Guadalajara, Jal., Mﾃｩxico	['school', 'point_of_interest', 'establishment']
462	ChIJT7fk8muvKIQRUN8SZI9TbT0	Colegio Melanie Klein	preescolar	20.6821517	-103.3656396	C. Joaquin Angulo 1314A, Santa Teresita, 44600 Guadalajara, Jal., Mﾃｩxico	['school', 'point_of_interest', 'establishment']
463	ChIJebRpBuOxKIQR-OIeqHAGjzg	Jardﾃｭn de NiﾃｱosRosaura Zapata	preescolar	20.6827961	-103.3562015	Pedro C. Negrete 144, San Felipe de Jesﾃｺs, 44380 Guadalajara, Jal., Mﾃｩxico	['school', 'point_of_interest', 'establishment']
464	ChIJY3X6YC6xKIQRy5KBgbhBc50	Jardin de Niﾃｱos #24	preescolar	20.6948684	-103.3560626	6 de Diciembre 129, Mezquitan, 44260 Guadalajara, Jal., Mﾃｩxico	['school', 'point_of_interest', 'establishment']
465	ChIJI7stmy-uKIQRQ6XhjeceJXs	Centro de desarrollo infantil Pilli	preescolar	20.6998178	-103.3678475	Av. Cvln. Jorge ﾃ〕varez del Castillo 1280, Lomas del Country, 44610 Guadalajara, Jal., Mﾃｩxico	['school', 'point_of_interest', 'establishment']
466	ChIJZZGpJ-2vKIQRnkgv0VM8LUg	Progress Educational Institute	preescolar	20.6995717	-103.3650159	C. Mallorca 1410, Lomas del Country, 44610 Guadalajara, Jal., Mﾃｩxico	['school', 'point_of_interest', 'establishment']
467	ChIJs2yUgdSvKIQRsYk6wJCq7S8	Centro Educativo Infantil Jean Piaget	preescolar	20.7136218	-103.3644083	Lomas Verdes 2255, Lomas de zoquipan, Patria, 45176 Zapopan, Jal., Mﾃｩxico	['school', 'point_of_interest', 'establishment']
468	ChIJd0fiAimwKIQRs53VgrPTDPQ	LEONARDO DA VINCI	preescolar	20.7204287	-103.3553267	Hidalgo 61, Atemajac del Valle, 45190 Zapopan, Jal., Mﾃｩxico	['school', 'point_of_interest', 'establishment']
469	ChIJL9J8mB-wKIQRXhN2m9Og7AI	Jardﾃｭn de Niﾃｱos Pablo Casals	preescolar	20.7216327	-103.3561969	Ricardo Gerardo Flores Magﾃｳn #52, Atemajac del Valle, 45190 Zapopan, Jal., Mﾃｩxico	['school', 'point_of_interest', 'establishment']
470	ChIJwRjQhSivKIQRAPpgpZTqugw	Jardﾃｭn de Niﾃｱos 191 Juan Ignacio Menchaca Manjarrez	preescolar	20.7250669	-103.360902	Manuel Anaya 1287, Atemajac del Valle, 45180 Zapopan, Jal., Mﾃｩxico	['school', 'point_of_interest', 'establishment']
471	ChIJwbKzEtCvKIQRq4vxpKpL1s8	Francisco Mﾃ｡rquez	preescolar	20.7216999	-103.3687898	Av. Atemajac 1121, Constituciﾃｳn, 45184 Zapopan, Jal., Mﾃｩxico	['school', 'point_of_interest', 'establishment']
472	ChIJqQkzxKOxKIQRKdChAoXS0Yc	Preescolar Marﾃｭa Carrillo Dﾃｭaz	preescolar	20.6950418	-103.3191104	C. Puerto Mulegﾃｩ 663, Circunvalaciﾃｳn Belisario, 44330 Guadalajara, Jal., Mﾃｩxico	['school', 'point_of_interest', 'establishment']
473	ChIJVSnjStqvKIQRoNIzPA_POew	Jardin de niﾃｱos Jose Lopez Portillo	preescolar	20.7255495	-103.3659712	Calle Gral. Meliton Albaﾃｱez 520, La Huerta, 45130 Zapopan, Jal., Mﾃｩxico	['school', 'point_of_interest', 'establishment']
474	ChIJK5dFl-CvKIQR-NrpIZKmI8s	JARDIN de NIﾃ前S Agustﾃｭn de la Rosa	preescolar	20.7353552	-103.3627482	esquina con Paseo de Los Sabinos, P.ﾂｺ de Los Sauces 350, Tabachines, 45188 Zapopan, Jal., Mﾃｩxico	['school', 'point_of_interest', 'establishment']
475	ChIJvWvgtx2wKIQRvzbF8LGyI4s	KINDER APRENDER JUGANDO	preescolar	20.7424807	-103.3564688	Entre Calle Cantera Morada y Calle Paseo de Las Tuyas, Ricardo Chﾃ｡vez Pﾃｩrez 19, Balcones de la Cantera, 45130 Zapopan, Jal., Mﾃｩxico	['school', 'point_of_interest', 'establishment']
476	ChIJe9zDQimwKIQRf4fw-Yh45mM	Jardﾃｭn de Niﾃｱos Josefa Ortiz de Domﾃｭnguez	preescolar	20.7186303	-103.3542784	C. Reforma 77A, Atemajac del Valle, 45190 Zapopan, Jal., Mﾃｩxico	['school', 'point_of_interest', 'establishment']
477	ChIJSyo93OKvKIQRwXAox09YXmc	Centro De Desarrollo Infantil Tabachines	preescolar	20.7445272	-103.3634438	Araucarias 3157, Tabachines, 45188 Zapopan, Jal., Mﾃｩxico	['school', 'point_of_interest', 'establishment']
478	ChIJaTCoBAClKIQRJpHSLNDh7aY	Colegio Silviano Carrillo Preescolar	preescolar	20.7586717	-103.3628591	Cedros 2566, Vistas del Centinela, 45187 Zapopan, Jal., Mﾃｩxico	['school', 'point_of_interest', 'establishment']
479	ChIJU8VgCP2vKIQR7NslbB6uvpU	PAULO FREIRE	preescolar	20.7492108	-103.3608816	Esquina Jazmin, C. Loma Alta, Lomas de Tabachines, 45130 Zapopan, Jal., Mﾃｩxico	['school', 'point_of_interest', 'establishment']
480	ChIJHWss6nmyKIQRd3PySMFDMoA	Jardﾃｭn de Niﾃｱos Ramﾃｳn Garcﾃｭa Ruﾃｭz	preescolar	20.629027	-103.3542329	Mina Amparo 222, Zona Industrial Sur, 44490 Guadalajara, Jal., Mﾃｩxico	['school', 'point_of_interest', 'establishment']
481	ChIJfYUIlo-yKIQR2q3hLKx9FGw	JARDﾃ康 DE NIﾃ前S GESSEL	preescolar	20.6093448	-103.3458023	Av. Arquitectura 426, Miravalle, 44990 Guadalajara, Jal., Mﾃｩxico	['school', 'point_of_interest', 'establishment']
482	ChIJB2uH_YWyKIQRN65GDpPH_TE	Frida Kahlo	preescolar	20.6131644	-103.3477162	Av De La Pintura 384, Miravalle, 44970 Guadalajara, Jal., Mﾃｩxico	['school', 'point_of_interest', 'establishment']
483	ChIJcz8J6oCtKIQR-QFSBj6BA1E	Jardin De Niﾃｱos Simone De Beauvoir	preescolar	20.6223503	-103.3606398	Ignacio Covarrubias R. 3114-3126, Echeverrﾃｭa, 44970 Guadalajara, Jal., Mﾃｩxico	['school', 'point_of_interest', 'establishment']
484	ChIJDStPJoetKIQRV-Gfx7Zf428	JARDﾃ康 DE NIﾃ前S ARNOLD GESELL	preescolar	20.6245694	-103.3613733	Erasmo Del Castillo 3037, Echeverrﾃｭa, 44970 Guadalajara, Jal., Mﾃｩxico	['school', 'point_of_interest', 'establishment']
485	ChIJ3e8pqnmyKIQRBf1UkC_m1mI	Jardin De Niﾃｱos Jose Maria Robles Hurtado	preescolar	20.6276138	-103.355592	Diego Rivera 3215, 5 de Mayo, 44970 Guadalajara, Jal., Mﾃｩxico	['school', 'point_of_interest', 'establishment']
486	ChIJQfSHaw2yKIQROXsxNo_UWM0	"JARDIN DE NIﾃ前S ""HEROE DE NACOZARI"""	preescolar	20.6440023	-103.3487085	Entre Calle 8 y Calle 10, C. 9 267, Ferrocarril, 44440 Guadalajara, Jal., Mﾃｩxico	['school', 'point_of_interest', 'establishment']
487	ChIJbyxzvdWzKIQRN3LIZQf0jkM	Jardin De Niﾃｱos Micropraxis	preescolar	20.6502342	-103.3562319	C. Mojonera 1494, Morelos, 44910 Guadalajara, Jal., Mﾃｩxico	['school', 'point_of_interest', 'establishment']
488	ChIJySg70SKyKIQRPsj8mB6wzOw	Jardﾃｭn de Niﾃｱos Guadalajara - Kinder Preescolar	preescolar	20.6556917	-103.3333489	C. Rﾃｭo Bravo 1318, Quinta Velarde, 44430 Guadalajara, Jal., Mﾃｩxico	['school', 'point_of_interest', 'establishment']
489	ChIJC30NEj2yKIQR6BaKREqpcSA	Jardﾃｭn de Niﾃｱos Naciones Unidas	preescolar	20.6529536	-103.3339431	C. Rﾃｭo Bravo 1430, Quinta Velarde, 44430 Guadalajara, Jal., Mﾃｩxico	['school', 'point_of_interest', 'establishment']
490	ChIJMzaNQf-xKIQRpaSdzoS6d4o	Jardﾃｭn de niﾃｱos Elisa Castillo	preescolar	20.6663781	-103.3542776	Calle Vidrio S/N, Mexicaltzingo, 44180 Guadalajara, Jal., Mﾃｩxico	['school', 'point_of_interest', 'establishment']
491	ChIJ1ZIXSuSxKIQRMFIAisGKy7I	Jardﾃｭn de Niﾃｱos 26 Silvia Ramﾃｭrez Ramﾃｭrez	preescolar	20.6814112	-103.3504091	C. Jesﾃｺs Gonzﾃ｡lez Ortega 319, Zona Centro, 44200 Guadalajara, Jal., Mﾃｩxico	['school', 'point_of_interest', 'establishment']
492	ChIJb1wvmv2xKIQRKYTwyomnmCA	Jean Piaget	preescolar	20.6730645	-103.3576954	Camarena 221, Col Americana, Americana, 44160 Guadalajara, Jal., Mﾃｩxico	['school', 'point_of_interest', 'establishment']
493	ChIJXbI_uuixKIQRmXp-kJNcnRg	JARDIN DE NIﾃ前S MIKIZTLI	preescolar	20.6841304	-103.3461647	C. Pino Suﾃ｡rez 484, Centro Barranquitas, 44280 Guadalajara, Jal., Mﾃｩxico	['school', 'point_of_interest', 'establishment']
494	ChIJ1eIR0eaxKIQRad51p8_jq9I	La Casota de Jean Piaget	preescolar	20.6852564	-103.3524328	Calle Hospital 768, Centro, 44298 Guadalajara, Jal., Mﾃｩxico	['school', 'point_of_interest', 'establishment']
495	ChIJSyC-F-mxKIQR3qyHfN2JPIY	GABRIELA MISTRAL PREESCOLAR GENERAL	preescolar	20.6851037	-103.3434768	Centro Barranquitas, 44200 Guadalajara, Jal., Mﾃｩxico	['school', 'point_of_interest', 'establishment']
496	ChIJadAPqdyxKIQRSBai5MSNHtA	Sector 04-E preescolar	preescolar	20.6946707	-103.3477306	Av. Fray Antonio Alcalde 1140, Miraflores, 44270 Guadalajara, Jal., Mﾃｩxico	['school', 'point_of_interest', 'establishment']
497	ChIJ1cOSDdyxKIQRJtYs98kpPDs	JARDIN DE NIﾃ前S ENGRACIA HERRERA	preescolar	20.6939041	-103.3518502	C. Mariano Bﾃ｡rcena 1139, Miraflores, 44260 Guadalajara, Jal., Mﾃｩxico	['school', 'point_of_interest', 'establishment']
498	ChIJrwAy69CxKIQRA1JfJ3aDAqA	Jardﾃｭn de Niﾃｱos No 497 Leonardo Oliva	preescolar	20.7019096	-103.3513398	C. Andrﾃｩs Quintana Roo 1675, La Guadalupana, 44260 Guadalajara, Jal., Mﾃｩxico	['school', 'point_of_interest', 'establishment']
499	ChIJv-ErANSxKIQRKZlSJXHV6KY	Jardﾃｭn De Niﾃｱos No 97 Francisco Rodrﾃｭguez Gﾃｳmez	preescolar	20.7062057	-103.3530672	Entre Calle Diego Aranda y Carpintero y Circ. Divisiﾃｲn del Norte, J. Jesﾃｺs Ortiz 1970, La Guadalupana, 44220 Guadalajara, Jal., Mﾃｩxico	['school', 'point_of_interest', 'establishment']
500	ChIJUZUX9c-xKIQReH-X0ab8x0I	Colegio Heinrich P. (Preescolar y Maternal)	preescolar	20.7016981	-103.3456081	C. Josﾃｩ Juan Tablada 1860, Jardines Alcalde, 44270 Guadalajara, Jal., Mﾃｩxico	['school', 'point_of_interest', 'establishment']
501	ChIJDft7BcKxKIQRZ3AKvJSKwgw	Jardﾃｭn de Niﾃｱos Agustﾃｭn Rivera y San Romﾃ｡n	preescolar	20.6900957	-103.342101	C. Agustin Rivera 921, El Retiro, 44280 Guadalajara, Jal., Mﾃｩxico	['school', 'point_of_interest', 'establishment']
502	ChIJ_w21ZM6xKIQR0ChrZiKKY1o	Winnetka Preescolar	preescolar	20.7060697	-103.3447365	C. Amado Aguirre 868, Jardines Alcalde, 44290 Guadalajara, Jal., Mﾃｩxico	['school', 'point_of_interest', 'establishment']
503	ChIJ6yM6ANSxKIQRr6cbHM8ysF4	Jardin De Niﾃｱos 333	preescolar	20.706151	-103.3530751	J. Jesﾃｺs Ortiz 1970, La Guadalupana, 44220 Guadalajara, Jal., Mﾃｩxico	['school', 'point_of_interest', 'establishment']
504	ChIJMwVdXcixKIQRGX95EWO2f9o	Jardﾃｭn de Niﾃｱos Gabriela Mistral	preescolar	20.702923	-103.3381571	Calle Josﾃｩ Marﾃｭa Rodrﾃｭguez 2073, Jardines Alcalde, 44298 Guadalajara, Jal., Mﾃｩxico	['school', 'point_of_interest', 'establishment']
505	ChIJwRx5Gq6xKIQRr7fvDpXB35I	Preescolar en Guadalajara	preescolar	20.6969306	-103.3450787	Miraflores, 44270 Guadalajara, Jal., Mﾃｩxico	['school', 'point_of_interest', 'establishment']
506	ChIJO9vp9DGwKIQR_WhZr7IPTF4	Jardﾃｭn de niﾃｱos Diego Rivera	preescolar	20.7188047	-103.3460135	C. Colonias 511, Atemajac del Valle, 45190 Zapopan, Jal., Mﾃｩxico	['school', 'point_of_interest', 'establishment']
507	ChIJiaqjUyKwKIQRd4khcdYk18Q	Jardin de Niﾃｱos Niﾃｱo Artillero	preescolar	20.7329057	-103.3505037	Voleibol 63, Auditorio, 45190 Zapopan, Jal., Mﾃｩxico	['school', 'point_of_interest', 'establishment']
508	ChIJO7k-VSKwKIQR3vQM8BGJcLU	Jardﾃｭn de niﾃｱos 121 Asunciﾃｳn Garcﾃｭa Sancho	preescolar	20.732747	-103.3501488	Voleibol 65, Auditorio, 45180 Zapopan, Jal., Mﾃｩxico	['school', 'point_of_interest', 'establishment']
509	ChIJf4TcsBewKIQRTUsLAGKzu-I	JARDﾃ康 DE NIﾃ前S WOLFGANG AMADEUS MOZART	preescolar	20.7379005	-103.3449318	y Gonzﾃ｡lez Gallo, Av. Mariano Barcena S/N, entre Callejon J. Jesus Gonzalez Gallo, Rinconada Auditorio, 45130 Zapopan, Jal., Mﾃｩxico	['school', 'point_of_interest', 'establishment']
510	ChIJjVBgXAOxKIQRq7yL0bAcreA	Jardﾃｭn de Niﾃｱos Adolfo Lﾃｳpez Mateos	preescolar	20.7462976	-103.3506147	C. Estaﾃｱo 33, Balcones de la Cantera, 45186 Zapopan, Jal., Mﾃｩxico	['school', 'point_of_interest', 'establishment']
511	ChIJAQAAAAmwKIQRzihVBd6Y_i8	Kinder CDI 9	preescolar	20.7553479	-103.3492105	Pﾃｭo V. Enrﾃｭquez 101, Villas de Guadalupe, 45189 Zapopan, Jal., Mﾃｩxico	['school', 'point_of_interest', 'establishment']
512	ChIJBRF6gk-wKIQR1kO7bp7iwrI	PREESCOLAR IDOLINA GAONA RUIZ	preescolar	20.7252799	-103.3268002	C. Marﾃｭa del Carmen Frﾃｭas 770, Lomas del Paraﾃｭso II, 44250 Guadalajara, Jal., Mﾃｩxico	['school', 'point_of_interest', 'establishment']
513	ChIJoyMPFlywKIQRMVaQC1pAt0I	Kinder Manuel Lopez Cotilla	preescolar	20.7335655	-103.3193593	44250, C. Volcﾃ｡n Villarrica 5310, Lomas del Paraﾃｭso ﾃ栗I, 45430 Guadalajara, Jal., Mﾃｩxico	['school', 'point_of_interest', 'establishment']
514	ChIJqW4Zoo-yKIQRKUGyaHc6BwY	JARDﾃ康 DE NIﾃ前S CONCEPCION MARTIN DEL CAMPO	preescolar	20.6100299	-103.345642	Arq. Mauricio Campos 4477, Miravalle, 44990 Guadalajara, Jal., Mﾃｩxico	['school', 'point_of_interest', 'establishment']
515	ChIJuQutqoiyKIQRsfbL3l4JFcQ	JARDﾃ康 DE NIﾃ前S QUETZALLI	preescolar	20.6130991	-103.3470857	Av De La Pintura 353, Miravalle, 44790 Guadalajara, Jal., Mﾃｩxico	['school', 'point_of_interest', 'establishment']
516	ChIJq6rbW_GyKIQRQbY-yPPTGUI	Maria Montessori	preescolar	20.6135537	-103.3294582	Repﾃｺblica 366, Las Vegas, 45590 San Pedro Tlaquepaque, Jal., Mﾃｩxico	['school', 'point_of_interest', 'establishment']
517	ChIJmVXccqOyKIQRwIdZUlKHhoE	Jardﾃｭn de Niﾃｱos Rosaura Zapata Cano	preescolar	20.6206074	-103.3466032	Av. Gobernador Luis G. Curiel S/N, Josﾃｩ Clemente Orozco, 44970 Guadalajara, Jal., Mﾃｩxico	['school', 'point_of_interest', 'establishment']
518	ChIJ_eQMlsCyKIQRRXVyNx1ILdQ	Jardin De Niﾃｱos Jean Piaget	preescolar	20.5923177	-103.3345723	C. Cardenal 588, El Vergel, 45595 San Pedro Tlaquepaque, Jal., Mﾃｩxico	['school', 'point_of_interest', 'establishment']
519	ChIJnSMhp_OyKIQR8nAyG_wa-lQ	Preescolar Deniss Kukucan	preescolar	20.6126757	-103.3321868	Prol Nuevo Mﾃｩxico 51, Lﾃ｡zaro Cﾃ｡rdenas, 45590 San Pedro Tlaquepaque, Jal., Mﾃｩxico	['school', 'point_of_interest', 'establishment']
520	ChIJ9d66ZvWzKIQRimfY0Sc0olE	Kinder 187	preescolar	20.6007854	-103.3332284	JARDIN DE NI?OS, C. Pablo Valdez, FCO MONTES DE OCA, Felipe Angeles, 45590 San Pedro Tlaquepaque, Jal., Mﾃｩxico	['school', 'point_of_interest', 'establishment']
521	ChIJf_cKT4-yKIQRIsXF3tHj3G4	ESTANCIA INFANTIL MUNICIPAL MIRAVALLE	preescolar	20.6125242	-103.3463001	Roberto Cantﾃｺ 365, Miravalle, 44790 Guadalajara, Jal., Mﾃｩxico	['school', 'point_of_interest', 'establishment']
522	ChIJIUt1lo-yKIQR_2zaiQYq3P0	Kinder Arnold Lucius Gessell	preescolar	20.6093433	-103.3458118	Av. Arquitectura 426, Miravalle, 44990 Guadalajara, Jal., Mﾃｩxico	['school', 'point_of_interest', 'establishment']
523	ChIJ7xqG7mKyKIQR4kXNtBhRqXs	Jardﾃｭn de Niﾃｱos Julio Verne	preescolar	20.6209811	-103.3452182	C. Espﾃ｡tula 3342, El Manantial, 44970 Guadalajara, Jal., Mﾃｩxico	['school', 'point_of_interest', 'establishment']
524	ChIJt4MXWY-yKIQRP3Zk5SQTAT4	Jardﾃｭn De Niﾃｱos Carrousel	preescolar	20.6121648	-103.3469636	C. Alberto Durero 4346, Miravalle, 44990 Guadalajara, Jal., Mﾃｩxico	['school', 'point_of_interest', 'establishment']
525	ChIJiaYrf4ayKIQR-_ZsKh17C0s	Josefa Ortiz de Dominguez	preescolar	20.6131037	-103.3497226	Paul Gauguin 4180, Miravalle, 44970 Guadalajara, Jal., Mﾃｩxico	['school', 'point_of_interest', 'establishment']
526	ChIJAXJQxmiyKIQR2oKdDtGzzpU	RAMON LOPEZ VELARDE PREESCOLAR GENERAL	preescolar	20.6329704	-103.3405353	Arroz 501-530, La Nogalera, 44470 Guadalajara, Jal., Mﾃｩxico	['school', 'point_of_interest', 'establishment']
527	ChIJHfNT8XGyKIQRWcaUnZ-TUuI	PREESCOLAR JOSE VASCONCELOS	preescolar	20.6361275	-103.3483577	Balderas 159, El Dean, 44440 Guadalajara, Jal., Mﾃｩxico	['school', 'point_of_interest', 'establishment']
528	ChIJkdWLck-yKIQRzvHOqCryZS8	PREESCOLAR QUETZALLI	preescolar	20.6363464	-103.3227048	Rﾃｭo Presas 1321, Col. La Loma, 44890 Guadalajara, Jal., Mﾃｩxico	['school', 'point_of_interest', 'establishment']
529	ChIJu7zQPwCzKIQR4PW4a1c_7Fo	Preescolar Estatal Manuel Lﾃｳpez Cotilla	preescolar	20.6329941	-103.3171417	Av. Marcos Montero Ruiz 264, La Capacha, 45500 San Pedro Tlaquepaque, Jal., Mﾃｩxico	['school', 'point_of_interest', 'establishment']
530	ChIJx_5pTTCyKIQRizeqk99szkk	Kinder Reforma	preescolar	20.6537088	-103.3216782	Fray Antonio de Segovia 735, Olﾃｭmpica, 44430 Guadalajara, Jal., Mﾃｩxico	['school', 'point_of_interest', 'establishment']
531	ChIJvQfTEB6yKIQRhXpBUYVc808	JARDIN DE NIﾃ前S N.11 MODELO	preescolar	20.6654044	-103.3403211	Cuitlﾃ｡huac 467, Analco, 44450 Guadalajara, Jal., Mﾃｩxico	['school', 'point_of_interest', 'establishment']
532	ChIJ6fLQkDiyKIQRDXSDiJQzqew	Jardin de Niﾃｱos 157 PROFA. ANTONIA MUﾃ前Z MONTES	preescolar	20.6447236	-103.3280336	Rﾃｭo Mascota 1966, Atlas, 44870 Guadalajara, Jal., Mﾃｩxico	['school', 'point_of_interest', 'establishment']
533	ChIJu_hB98qzKIQRzsxIovQqVbI	Instituto Tlaquepaque Preescolar Kinder	preescolar	20.6419002	-103.3150845	C. Donato Guerra 262, San Juan, 45500 San Pedro Tlaquepaque, Jal., Mﾃｩxico	['school', 'point_of_interest', 'establishment']
534	ChIJn3Mh8vWxKIQR_4-BrbcCCe8	Jardﾃｭn De Niﾃｱos Analco	preescolar	20.666915	-103.3404509	Guadalupe Victoria 386, Analco, 44450 Guadalajara, Jal., Mﾃｩxico	['school', 'point_of_interest', 'establishment']
535	ChIJO3UcaySyKIQRTi4ttwknimw	Kinder Unidad Modelo	preescolar	20.6596751	-103.3285116	Esq. Calle D, C. 1, Unidad Modelo, 44420 Guadalajara, Jal., Mﾃｩxico	['school', 'point_of_interest', 'establishment']
536	ChIJj2A5cZqxKIQRSpH2nBrEuPU	MARIANO AZUELA PREESCOLAR GENERAL	preescolar	20.6832491	-103.3236895	44329, Francisco de Icaza 1193A, Belisario Domﾃｭnguez, 44350 Guadalajara, Jal., Mﾃｩxico	['school', 'point_of_interest', 'establishment']
537	ChIJlV1uGfGxKIQRuCQD6bniIeU	Kinder Guarderﾃｭa Christian Andersen	preescolar	20.6736827	-103.3438002	Pedro Bruzeta 669, Briseﾃｱo, 44600 Guadalajara, Jal., Mﾃｩxico	['school', 'point_of_interest', 'establishment']
538	ChIJrU9Yze-xKIQRmekDOP4PCo0	KINDER GUARDERIA Julio Cortazar	preescolar	20.6783548	-103.3443294	Calle Venustiano Carranza 62, Zona Centro, 44100 Guadalajara, Jal., Mﾃｩxico	['school', 'point_of_interest', 'establishment']
539	ChIJf1P-wZWxKIQRlS8YdMDv9Lc	"JARDIN DE NIﾃ前S ""ALEJA CAMARENA"""	preescolar	20.6889565	-103.3312305	Centro Mﾃｩdico 210, Independencia Oriente, 44340 Guadalajara, Jal., Mﾃｩxico	['school', 'point_of_interest', 'establishment']
540	ChIJrSOlGc-xKIQRBpAykKJqsyE	JARDIN DE NIﾃ前S GABRIELA MISTRAL	preescolar	20.7034343	-103.3430554	Av. Cvln. Divisiﾃｳn del Nte. 790, Jardines Alcalde, 44290 Guadalajara, Jal., Mﾃｩxico	['school', 'point_of_interest', 'establishment']
541	ChIJX2v-rLexKIQRo9-zCdJBtnk	PREESCOLAR JOSE CLEMENTE OROZCO	preescolar	20.7045998	-103.3332394	44379, Calle Rogelio Bacon 1718, Independencia, Guadalajara, Jal., Mﾃｩxico	['school', 'point_of_interest', 'establishment']
542	ChIJ2zgN87exKIQRxEbSscd8DY4	Jardin de ninos PILLITLAN	preescolar	20.7022399	-103.3343609	Platﾃｳn 1591, Independencia, 44379 Guadalajara, Jal., Mﾃｩxico	['school', 'point_of_interest', 'establishment']
543	ChIJOe40b_uxKIQRSKoVtgrJIh8	GARABATOS Centro de Desarrollo Infantil a.c.	preescolar	20.6996337	-103.3422946	C. P.ﾂｺ de los Filﾃｳsofos 1584, Colinas de La Normal, 44270 Guadalajara, Jal., Mﾃｩxico	['school', 'point_of_interest', 'establishment']
544	ChIJ10G5xsyxKIQRAlU9Fb_-2_M	COLEGIO NACIONES UNIDAS	preescolar	20.7116947	-103.3431685	Av. Fidel Velazquez 873, entre Calle Toledo y Calle Cadiz, Santa Elena Alcalde, 44220 Guadalajara, Jal., Mﾃｩxico	['school', 'point_of_interest', 'establishment']
545	ChIJ131ZUo-xKIQRPis1MESenQM	Jardﾃｭn de Niﾃｱos Adolfo Lﾃｳpez Mateos	preescolar	20.7159161	-103.350817	Andalucﾃｭa 2287, 44220 Guadalajara, Jal., Mﾃｩxico	['school', 'point_of_interest', 'establishment']
546	ChIJt956YLexKIQRvtR6rjM5iKM	Jardﾃｭn de Niﾃｱos Pulgarcito	preescolar	20.7021442	-103.3313148	C. Sierra Leona 1616, Independencia, 44379 Guadalajara, Jal., Mﾃｩxico	['school', 'point_of_interest', 'establishment']
547	ChIJc5tAPymwKIQRjDlkssK1U08	GUARDERﾃ喉 PEQUEﾃ前 MUNDO -PREESCOLAR FEDERICO FROEBEL	preescolar	20.7192312	-103.3541438	Emiliano Zapata 78, Atemajac del Valle, 45190 Zapopan, Jal., Mﾃｩxico	['school', 'point_of_interest', 'establishment']
548	ChIJEZfKd7SxKIQR5hUZmxd_ydc	JARDIN DE NIﾃ前S FEDERAL QUETZALCOATL	preescolar	20.7100597	-103.3300482	Monte Colli 262, Infonavit Independencia, 44240 Guadalajara, Jal., Mﾃｩxico	['school', 'point_of_interest', 'establishment']
549	ChIJUd-KhD6wKIQRJuTXVtYzcHw	Jardﾃｭn de Niﾃｱos	preescolar	20.7328193	-103.3409661	Independencia SN, Refugio, 47470 Lagos de Moreno, Jal., Mﾃｩxico	['school', 'point_of_interest', 'establishment']
550	ChIJF_GeGTqwKIQRBdrnene-3kg	JARDIN DE NIﾃ前S EMILIANO ZAPATA	preescolar	20.7257599	-103.342006	Las Flores 17, Vﾃｭctor Hugo, 45190 Zapopan, Jal., Mﾃｩxico	['school', 'point_of_interest', 'establishment']
551	ChIJw9SAmkuwKIQRgR20NM7DtiQ	Jardin de Niﾃｱos	preescolar	20.7173973	-103.3308364	C. Eutimio Pinzﾃｳn 984, Rancho Nuevo, 44240 Guadalajara, Jal., Mﾃｩxico	['school', 'point_of_interest', 'establishment']
552	ChIJezQ4nRawKIQRaSk7ghl2r-I	Jardin De Niﾃｱos 307 Leona Vicario	preescolar	20.7400098	-103.3415182	Niﾃｱo Artillero 155, Arroyo Hondo 2a. Secc, Arroyo Hondo, 45186 Zapopan, Jal., Mﾃｩxico	['school', 'point_of_interest', 'establishment']
553	ChIJmxAwKjawKIQRUWTcmULhopM	Jardﾃｭn de Niﾃｱos 204	preescolar	20.7217508	-103.3357106	Normalistas 3103, Rancho Nuevo, 45195 Guadalajara, Jal., Mﾃｩxico	['school', 'point_of_interest', 'establishment']
554	ChIJM4Hzv6SxKIQRcfVlra3jDpc	Preescolar Gerardo Murillo Coronado (DR ATL)	preescolar	20.7352329	-103.3448873	Jardines del Auditorio, 45180 Zapopan, Jal., Mﾃｩxico	['school', 'point_of_interest', 'establishment']
555	ChIJCUwwFeexKIQRaPiVekfNCtQ	Jardﾃｭn de Niﾃｱos Marﾃｭa Montessori	preescolar	20.7516053	-103.3411401	Florentino Velﾃ｡zquez 1988, Villas de Guadalupe, 45130 Zapopan, Jal., Mﾃｩxico	['school', 'point_of_interest', 'establishment']
556	ChIJ88hZTaG6KIQRf0N2y2xcBhg	Jardin De Niﾃｱos Irene Robledo Garcia	preescolar	20.7647352	-103.3413301	Elote 80A, Crucero de La Mesa, Mesa Colorada Oriente, 45189 Zapopan, Jal., Mﾃｩxico	['school', 'point_of_interest', 'establishment']
557	ChIJdzVdDy-xKIQRX51yooQAxkM	Jardﾃｭn Josﾃｩ gariby	preescolar	20.75717	-103.3334487	Vista Real & Vista Puesta del Sol, Vista Hermosa, 45189 Zapopan, Jal., Mﾃｩxico	['school', 'point_of_interest', 'establishment']
558	ChIJR7eA6lSwKIQRSKRFA8dvuiQ	PREESCOLAR RICARDO FLORES MAGON	preescolar	20.7163063	-103.3165816	44300, C. Monte Olimpo 3176, San Patricio, Guadalajara, Jal., Mﾃｩxico	['school', 'point_of_interest', 'establishment']
559	ChIJzzo6MTq7KIQRO1TfOay3eds	Preescolar Federal Ignacio L Vallarta	preescolar	20.8371926	-103.3280353	RMPC+VQ, 45287 El Paso de Guadalupe, Jal., Mﾃｩxico	['school', 'point_of_interest', 'establishment']
560	ChIJZbTSv967KIQRt7JN9h5RRyI	Preescolar Federal Narciso Mendoza	preescolar	20.8237755	-103.2856985	RPF7+P8, 45286 El Ancﾃｳn, Jal., Mﾃｩxico	['school', 'point_of_interest', 'establishment']
561	ChIJucQ5i1ezKIQRC3grp3P_Oh0	Jardﾃｭn de niﾃｱos Paula Gﾃｳmez Alonso	preescolar	20.600778	-103.3330592	C. Pablo Valdez 213, El Campesino, 45597 San Pedro Tlaquepaque, Jal., Mﾃｩxico	['school', 'point_of_interest', 'establishment']
562	ChIJPW_HL-KzKIQRORvqwEAkyZs	Jardﾃｭn de Niﾃｱos Nezahualcﾃｳyotl	preescolar	20.61226	-103.335407	El Tapatﾃｭo, 45590 San Pedro Tlaquepaque, Jal., Mﾃｩxico	['school', 'point_of_interest', 'establishment']
563	ChIJbcO3Q_6yKIQRtTPu_gnOgOE	"Preescolar ""Niﾃｱos Heroes"""	preescolar	20.6171741	-103.3143514	C. Batalla de Bachimba, Revoluciﾃｳn, 45580 San Pedro Tlaquepaque, Jal., Mﾃｩxico	['school', 'point_of_interest', 'establishment']
564	ChIJDUY2nYWzKIQRIoa_1C_9d6g	Preescolar Nicolﾃ｡s bravo	preescolar	20.5953581	-103.3186605	Av. San Martin 246, La Duraznera, 45580 San Pedro Tlaquepaque, Jal., Mﾃｩxico	['school', 'point_of_interest', 'establishment']
565	ChIJ4TDZEKWyKIQR39fDuscZ2zE	Josﾃｩ Vasconcelos Primaria y Preescolar	preescolar	20.5859727	-103.3493297	45599, C. Loma del Rﾃｭo 142, Lomas del Cuatro, San Pedro Tlaquepaque, Jal., Mﾃｩxico	['school', 'point_of_interest', 'establishment']
566	ChIJCbE2ClKyKIQRHlEpRSzngp8	JARDIN DE NIﾃ前S 261-E MANUEL LOPEZ COTILLA	preescolar	20.6333619	-103.3168478	Av. Marcos Montero Ruiz 286, El Alamo, 45560 San Pedro Tlaquepaque, Jal., Mﾃｩxico	['school', 'point_of_interest', 'establishment']
567	ChIJ--aJUkayKIQRlEIEw1u_Z44	CRISTOBAL COLON	preescolar	20.6408518	-103.3262672	Rﾃｭo Mascota 2219, 44890 Guadalajara, Jal., Mﾃｩxico	['school', 'point_of_interest', 'establishment']
568	ChIJFWzfPQCzKIQRJDRbtihvgD8	Preescolar Fuentes Carlos	preescolar	20.6473318	-103.3334956	Fray Antonio de Segovia 1592, Atlas, 44870 Guadalajara, Jal., Mﾃｩxico	['school', 'point_of_interest', 'establishment']
569	ChIJVeBr5yOyKIQRfBwvMQjQLzE	JARDIN DE NIﾃ前S SRA GUADALUPE BORJA DE DIAZ ORDAZ	preescolar	20.6608217	-103.331198	Blvd. Gral. Marcelino Garcﾃｭa Barragﾃ｡n 1169, Obrera, 44420 Guadalajara, Jal., Mﾃｩxico	['school', 'point_of_interest', 'establishment']
570	ChIJFU8nlTyyKIQRIDazToowprs	Pierre	preescolar	20.6536434	-103.3312814	Rﾃｭo Paranﾃ｡ 1380, Olﾃｭmpica, 44430 Guadalajara, Jal., Mﾃｩxico	['school', 'point_of_interest', 'establishment']
571	ChIJVyxAYA-yKIQRF55FsLRg7LM	Jardﾃｭn de Niﾃｱos Federal Andrﾃｩs	preescolar	20.6569461	-103.329513	Rﾃｭo Grijalva 1027, Olﾃｭmpica, 44430 Guadalajara, Jal., Mﾃｩxico	['school', 'point_of_interest', 'establishment']
572	ChIJHfeOWyGyKIQRrOIvqaIY4jM	Escuela Felipe Carrillo Puerto	preescolar	20.6615985	-103.3309243	C. Dr. Silverio Garcﾃｭa 691, Obrera, 44420 Guadalajara, Jal., Mﾃｩxico	['school', 'point_of_interest', 'establishment']
573	ChIJR0stnySyKIQRKj6J30rDIqk	JARDIN DE NIﾃ前S ANDRES SANDOVAL	preescolar	20.6573387	-103.3290879	Rﾃｭo Grijalva, Olﾃｭmpica, 44430 Guadalajara, Jal., Mﾃｩxico	['school', 'point_of_interest', 'establishment']
574	ChIJ2ywOFUaxKIQRRF5cGL5HLB0	Jardﾃｭn de Niﾃｱos Alberto Sabin	preescolar	20.6669953	-103.3337934	Heroico Colegio Militar 328, Reforma, 44890 Guadalajara, Jal., Mﾃｩxico	['school', 'point_of_interest', 'establishment']
575	ChIJERDmyo2xKIQRcaaxKR9twFg	Colegio Independencia Guadalajara (Preescolar)	preescolar	20.6758288	-103.3311619	C. Josefa Ortiz de Domﾃｭnguez 340, San Juan de Dios, 44360 Guadalajara, Jal., Mﾃｩxico	['primary_school', 'school', 'point_of_interest', 'establishment']
576	ChIJFWLehIyxKIQRRDq6FgPuG2A	Jardﾃｭn de Niﾃｱos Abel Ayala	preescolar	20.67315	-103.3333941	Av. Francisco Javier Mina 500, San Juan de Dios, 44360 Guadalajara, Jal., Mﾃｩxico	['school', 'point_of_interest', 'establishment']
577	ChIJM6kVaO6xKIQRarM3LsO1AqA	"Jardin de Niﾃｱos, No. 8 T/M ""20 de noviembre"", No. 558 T/V ""Niﾃｱos Hﾃｩroes"""	preescolar	20.6798758	-103.342867	San Felipe, esquina calle Humbolt, Centro Barranquitas, 44280 Guadalajara, Jal., Mﾃｩxico	['school', 'point_of_interest', 'establishment']
578	ChIJjYGmbgaxKIQR9r06MBX8MHs	preescolar juana de arco	preescolar	20.685446	-103.3257263	Av. Belisario Domﾃｭnguez 912-A, Belisario Domﾃｭnguez, 44370 Guadalajara, Jal., Mﾃｩxico	['school', 'point_of_interest', 'establishment']
579	ChIJLyEvDeaxKIQRD2bog9lIJ1w	ESCUELA NORMAL OCCIDENTAL	preescolar	20.6838093	-103.3486548	C. Pedro Loza 459, Zona Centro, 44100 Guadalajara, Jal., Mﾃｩxico	['primary_school', 'school', 'point_of_interest', 'establishment']
580	ChIJxylzWzKxKIQRuP7Rcxb2C9w	"Preescolar ""Aurelio Ortega"""	preescolar	20.6730966	-103.3557517	44100, Americana, 44100 Guadalajara, Jal., Mﾃｩxico	['point_of_interest', 'establishment']
581	ChIJY-cDf-GxKIQRm3yz_kfHlc0	Preescolar Virginia Romero Viuda Orozco	preescolar	20.6827063	-103.3556786	Herrera y Cairo 867, Jesﾃｺs, 44200 Guadalajara, Jal., Mﾃｩxico	['school', 'point_of_interest', 'establishment']
582	ChIJvX1OOLyxKIQRCJB7mZF6FkI	Jardﾃｭn De Niﾃｱos Independencia	preescolar	20.6940554	-103.3281424	Sierra Nevada 1450, Independencia Oriente, 44340 Guadalajara, Jal., Mﾃｩxico	['school', 'point_of_interest', 'establishment']
583	ChIJ2ytwN7mxKIQRwjbA6TAvyvE	Preescolar Thomas Jefferson In Calli	preescolar	20.6968162	-103.3314917	C. Siete Colinas #1340, Independencia, 44290 Guadalajara, Jal., Mﾃｩxico	['school', 'point_of_interest', 'establishment']
584	ChIJmc95oLuxKIQREgbXLooLdUs	Centro Naobee	preescolar	20.6982512	-103.3268874	Sierra Nevada 1726, Monumental, 44320 Guadalajara, Jal., Mﾃｩxico	['school', 'health', 'point_of_interest', 'establishment']
585	ChIJdbkYtq-xKIQRiWKJKZvXD7s	Despertares	preescolar	20.6974941	-103.3269258	Sierra Nevada 1688, Belisario Domﾃｭnguez, 44320 Guadalajara, Jal., Mﾃｩxico	['school', 'point_of_interest', 'establishment']
586	ChIJadf6LbexKIQRaiBGX9QZm3Y	Jardin De Niﾃｱos HADA 1	preescolar	20.7034398	-103.3306084	C. Sierra Leona #1704, Independencia, 44379 Guadalajara, Jal., Mﾃｩxico	['school', 'point_of_interest', 'establishment']
587	ChIJfYB0gbCxKIQRGivMZ7i3JFU	JARDIN de NIﾃ前S IMAGINACION	preescolar	20.7025806	-103.3272666	Calz. Independencia Norte 1853, Independencia, 44379 Guadalajara, Jal., Mﾃｩxico	['school', 'point_of_interest', 'establishment']
588	ChIJUdlQnSSxKIQRc1POkb58buY	Jean Frﾃｩdﾃｩric Herbart Preschool	preescolar	20.7072503	-103.3298853	C. Montes Celestes 1912, Independencia, 44379 Guadalajara, Jal., Mﾃｩxico	['school', 'point_of_interest', 'establishment']
589	ChIJteI6WZSxKIQRYzURO2XARaA	Plantel educativo Cuauhtﾃｩmoc, (Estancia Infantil, Guarderia y Jardin de niﾃｱos)	preescolar	20.7081858	-103.338703	Manuel Davalos Ornelas y Francisco Martﾃｭn del Campo 2294, C. Juan Zubaran entre Esq, Jardines Alcalde, 44298 Guadalajara, Jal., Mﾃｩxico	['school', 'point_of_interest', 'establishment']
590	ChIJXbGBkEuwKIQRM1bxUDi-rjI	PREESCOLAR LUIS DONALDO COLOSIO MURRIETA	preescolar	20.7173969	-103.3308272	C. Eutimio Pinzﾃｳn 984, Rancho Nuevo, 44240 Guadalajara, Jal., Mﾃｩxico	['school', 'point_of_interest', 'establishment']
591	ChIJ0U7Vd7SxKIQRkMoMlM2DJ3A	Kinder J. de N. Quetzalcoatl	preescolar	20.7100476	-103.3298492	Monte Colli 278, San Elﾃｭas, 44240 Guadalajara, Jal., Mﾃｩxico	['school', 'point_of_interest', 'establishment']
592	ChIJUbBs4Om7KIQR2KtahXeQNJs	Preescolar Federal Jose Clemente Orozco	preescolar	20.8218893	-103.2706955	RPCH+QP, 45286 San Miguel de Abajo, Jal., Mﾃｩxico	['school', 'point_of_interest', 'establishment']
593	ChIJNfRbNvy5KIQRJMPF9fbBVac	Preescolar Federal Felipe Angeles	preescolar	20.8513353	-103.2574958	VP2V+G2, 45260 Hacienda de Guadalupe, Jal., Mﾃｩxico	['school', 'point_of_interest', 'establishment']
594	ChIJEbmTFjuzKIQRubLGdxf95ns	Jardﾃｭn de niﾃｱos Nueva Espaﾃｱa	preescolar	20.6191956	-103.3213324	Calle Mﾃ｡rtires de Cananea 3205, Revoluciﾃｳn, 45580 San Pedro Tlaquepaque, Jal., Mﾃｩxico	['school', 'point_of_interest', 'establishment']
595	ChIJkbBiRhetKIQR5C1KbWbhXlY	Servicios, Educaciﾃｳn y Entretenimiento S.C.	preescolar	20.618892	-103.3209376	Constituciﾃｳn 3227, Residencial Revoluciﾃｳn, 45580 Tlaaquepaque, Jal., Mﾃｩxico	['school', 'point_of_interest', 'establishment']
596	ChIJdQcQ_auzKIQRAEd79yMAf_I	JARDIN DE NIﾃ前S MANUEL M PONCE	preescolar	20.6273023	-103.306849	C. Ocampo 204, Colonial Tlaquepaque, 45570 San Pedro Tlaquepaque, Jal., Mﾃｩxico	['school', 'point_of_interest', 'establishment']
597	ChIJ3w9V3U6yKIQRxs6PvCaWZdw	Jardﾃｭn de Niﾃｱos Margarita Maza de Juarez	preescolar	20.6371323	-103.3204618	Casi esquina con Calle Rio Tajo, C. Rﾃｭo Reforma, Rancho Blanco, 44897 Guadalajara, Jal., Mﾃｩxico	['school', 'point_of_interest', 'establishment']
598	ChIJAxNQ5cqzKIQRhkFQeoO4EoQ	PREESCOLAR IRENE ROBLEDO GARCIA	preescolar	20.6474689	-103.3103842	Faraones 824, La Paz, 44860 Guadalajara, Jal., Mﾃｩxico	['school', 'point_of_interest', 'establishment']
599	ChIJJTyXSEmyKIQRy-U--Qcx-is	Jardﾃｭn de Niﾃｱos Independencia	preescolar	20.6393266	-103.3194606	Rﾃｭo Independencia 481, Atlas, 44870 Guadalajara, Jal., Mﾃｩxico	['school', 'point_of_interest', 'establishment']
600	ChIJGwYizUuyKIQRzhtZ2Axgf8E	Jardﾃｭn de Niﾃｱos Eva Gonzalez Blanco	preescolar	20.641509	-103.3174295	Rﾃｭo Haynamota 154, Prados del Nilo, 44840 Guadalajara, Jal., Mﾃｩxico	['school', 'point_of_interest', 'establishment']
601	ChIJD-xrpyyyKIQRO7GfqUzHYiE	Jardin de Niﾃｱos Federico Froebel	preescolar	20.6624005	-103.3135161	C. Aldama 1692, San Antonio, 44800 Guadalajara, Jal., Mﾃｩxico	['school', 'point_of_interest', 'establishment']
602	ChIJ7ZNtgDKyKIQRC6InqZTyeVg	COLEGIO PREESCOLAR NUEVA GALICIA	preescolar	20.6587054	-103.3145712	Calle Gral Carlos Fuero, Col. La Loma, Universitaria, 44800 Guadalajara, Jal., Mﾃｩxico	['school', 'point_of_interest', 'establishment']
603	ChIJY9Vz3YuxKIQRAYEapKS2SQY	Jardﾃｭn de niﾃｱos No. 9 MANUEL MARTINEZ VALDEZ	preescolar	20.6712009	-103.3308417	C. ﾃ〕varo Obregﾃｳn, Oblatos, 44400 Guadalajara, Jal., Mﾃｩxico	['school', 'point_of_interest', 'establishment']
604	ChIJwdBMoIixKIQREywihXqHRKI	JARDIN DE NIﾃ前S LEV SEMIONOVICH	preescolar	20.6720675	-103.3243089	C. Francisco Gﾃｳmez de Mendiola 47 A, Oblatos, 44380 Guadalajara, Jal., Mﾃｩxico	['school', 'point_of_interest', 'establishment']
605	ChIJ19cw-IWxKIQRgAlm25Ju9_k	Jardin De Niﾃｱos Bonampak	preescolar	20.6740324	-103.323936	Calle Gral. Pedro Marﾃｭa Anaya 1020, Oblatos, 44700 Guadalajara, Jal., Mﾃｩxico	['school', 'point_of_interest', 'establishment']
606	ChIJN3uNjPWxKIQRe4RTs1Ghj2E	JARDIN DE NIﾃ前S AURELIA LADRﾃ哲 DE GUEVARA	preescolar	20.6666175	-103.3399562	Guadalupe Victoria 414, Analco, 44450 Guadalajara, Jal., Mﾃｩxico	['school', 'point_of_interest', 'establishment']
607	ChIJSRRwB46xKIQR18EO2DxKWLk	GUNGA-DIN	preescolar	20.6782451	-103.3298465	C. Jarauta 473, La Perla, 44360 Guadalajara, Jal., Mﾃｩxico	['school', 'point_of_interest', 'establishment']
608	ChIJT-ydQZyxKIQR2Ukfr3pgOnk	Las Tortuguitas Centro Educativo Infantil	preescolar	20.684023	-103.3169993	Josﾃｩ Luis Mora 1435, Mirador, 44370 Guadalajara, Jal., Mﾃｩxico	['school', 'point_of_interest', 'establishment']
609	ChIJcU0U2wuxKIQRIdOs-EJluoQ	PREESCOLAR TOMAS ESCOBEDO BARBA	preescolar	20.6973708	-103.3087531	C. Nudo de Cempoaltepetl 1127, San Marcos, 44330 Guadalajara, Jal., Mﾃｩxico	['school', 'point_of_interest', 'establishment']
610	ChIJZ2KNr5mxKIQRfiUt3Jia0Zw	Kinder Graciela Bustillos	preescolar	20.6846246	-103.3125283	C. Rita Pﾃｩrez de Moreno 858, Santa Marﾃｭa, 44719 Guadalajara, Jal., Mﾃｩxico	['school', 'point_of_interest', 'establishment']
611	ChIJAWnLALuxKIQRaWwrlt2N0CM	Estancia Infantil In Calli	preescolar	20.6973288	-103.3269443	Sierra Nevada 1676, Monumental, 44320 Guadalajara, Jal., Mﾃｩxico	['school', 'point_of_interest', 'establishment']
612	ChIJDY9ZALuxKIQR1MK1TLBepUQ	Maternal y Preescolar	preescolar	20.6982092	-103.3268908	Sierra Nevada 1688, Monumental, 44240 Guadalajara, Jal., Mﾃｩxico	['school', 'point_of_interest', 'establishment']
613	ChIJNzG2ka6xKIQR01Usk-vM1EY	Colegio Helen Keller III Estancia Infantil Y Preescolar	preescolar	20.7077827	-103.3203554	C. Fraternidad 231, La Esperanza (La Federacha ), 44300 Guadalajara, Jal., Mﾃｩxico	['school', 'point_of_interest', 'establishment']
614	ChIJZcKA5a-xKIQRgu_p5qHy3Z8	Jardﾃｭn de Niﾃｱos Disney	preescolar	20.703608	-103.3233432	C. Uxmal 109, Monumental, 44320 Guadalajara, Jal., Mﾃｩxico	['school', 'point_of_interest', 'establishment']
615	ChIJZfnZX6WxKIQRYEQPMJzcNrI	Jardﾃｭn de Niﾃｱos Thomas Jefferson	preescolar	20.7025709	-103.3227631	C. Uxmal 109, Monumental, 44320 Guadalajara, Jal., Mﾃｩxico	['school', 'point_of_interest', 'establishment']
616	ChIJT3D74TaxKIQR0tIGytf3-xU	Kﾃｭnder Artﾃｭculo 3 Constitucional	preescolar	20.7128258	-103.3246511	San Basilio 553, Lomas de Independencia, 44240 Guadalajara, Jal., Mﾃｩxico	['school', 'point_of_interest', 'establishment']
617	ChIJd6beL1ewKIQRutjSUlhWnvA	Jardin De Niﾃｱos Ma. Salomﾃｩ Briseﾃｱo Bravo	preescolar	20.7242907	-103.3177489	Santiago Camberos 3525, Lomas del Paraﾃｭso I, 44250 Guadalajara, Jal., Mﾃｩxico	['school', 'point_of_interest', 'establishment']
618	ChIJeeSepU2wKIQR3bnUkVBMADY	Centro Infantil Voon Neumann	preescolar	20.7176315	-103.3261507	Juan B. Berdeja 4119-4125, Rancho Nuevo, 44240 Guadalajara, Jal., Mﾃｩxico	['school', 'point_of_interest', 'establishment']
619	ChIJq9-3N0ixKIQRiKQSUFRd-ME	preescolar	preescolar	20.7368023	-103.3186402	Huentitﾃ｡n El Bajo, 44250 Guadalajara, Jal., Mﾃｩxico	['school', 'point_of_interest', 'establishment']
620	ChIJCRAh4F2wKIQR_RzoLXJrfEc	COLEGIO MIGUEL ANGEL BUONARROTI	preescolar	20.7367428	-103.3186624	C. Volcﾃ｡n Fogo 5554, Huentitﾃ｡n El Bajo, 44250 Guadalajara, Jal., Mﾃｩxico	['school', 'point_of_interest', 'establishment']
621	ChIJWRvoPVywKIQRiRIalWM8L9w	PREESCOLAR JUAN JOSE ARREOLA	preescolar	20.7335002	-103.3193615	44250, C. Volcﾃ｡n Villarrica 5313, Lomas del Paraﾃｭso ﾃ栗I, Guadalajara, Jal., Mﾃｩxico	['school', 'point_of_interest', 'establishment']
622	ChIJgxyqMl-wKIQRQLSjMNDzF1U	"Gregorio Torres Quintero""kinder De Colores"""	preescolar	20.732675	-103.3145078	Volcﾃ｡n Babuyan 5274, Huentitﾃ｡n El Bajo, 44250 Guadalajara, Jal., Mﾃｩxico	['school', 'point_of_interest', 'establishment']
623	ChIJccZK6gywKIQRm5ewW6Xqrq0	Jardin De Niﾃｱos Pilli	preescolar	20.752356	-103.3373501	45130, Cerro de la Higuera, Zapopan, Jal., Mﾃｩxico	['school', 'point_of_interest', 'establishment']
624	ChIJSQmgquq7KIQRnwLiExYtPWU	Kinder para los chavalones	preescolar	20.7658812	-103.3311927	Encino 962, Mirador Escondido, 45130 Zapopan, Jal., Mﾃｩxico	['school', 'point_of_interest', 'establishment']
625	ChIJIQgXIv-yKIQRgM9hn75uF6U	Jardﾃｭn de Niﾃｱos 81 Enrique Rebsamen	preescolar	20.6189965	-103.3170155	Calle Mﾃ｡rtires de Cananea 3412, Fraccionamiento Revoluciﾃｳn, 44008 San Pedro Tlaquepaque, Jal., Mﾃｩxico	['school', 'point_of_interest', 'establishment']
626	ChIJuSUMb6qzKIQRZ7C-FgIRgtw	Jardﾃｭn de niﾃｱos Teokalli 14DJN2000X	preescolar	20.6229465	-103.3088042	Acueducto 4068, Revoluciﾃｳn, 45580 San Pedro Tlaquepaque, Jal., Mﾃｩxico	['school', 'point_of_interest', 'establishment']
627	ChIJ3efx1U2yKIQR05Fxv6n7YXE	Jardﾃｭn de Niﾃｱos Sor Juana Ines de La Cruz	preescolar	20.6354728	-103.3181848	Moctezuma 18, Rancho Blanco, 45560 San Pedro Tlaquepaque, Jal., Mﾃｩxico	['school', 'point_of_interest', 'establishment']
628	ChIJF2apAPayKIQROiw9G95LwMw	Jardin De Niﾃｱos Justo Sierra Alamo Industrial	preescolar	20.6185967	-103.3302241	C. Grﾃｺa, Alamo Industrial, 45593 San Pedro Tlaquepaque, Jal., Mﾃｩxico	['school', 'point_of_interest', 'establishment']
629	ChIJ-1j7SP6yKIQRuC9STiQg7_M	Jean Piaget	preescolar	20.6208948	-103.3169315	C. Plan de Ayala 3439, Fraccionamiento Revoluciﾃｳn, 45580 San Pedro Tlaquepaque, Jal., Mﾃｩxico	['school', 'point_of_interest', 'establishment']
630	ChIJKV9mLbWzKIQRnymMLhTWlow	Misiﾃｳn Montessori	preescolar	20.6428442	-103.3119625	C. Florida 122, San Juan, 45500 San Pedro Tlaquepaque, Jal., Mﾃｩxico	['school', 'point_of_interest', 'establishment']
631	ChIJYRcZBUuyKIQRHe_xPz5bOho	Instituto Tlaquepaque	preescolar	20.6413853	-103.3152364	Cruz Verde 261, Centro, 45500 San Pedro Tlaquepaque, Jal., Mﾃｩxico	['school', 'primary_school', 'secondary_school', 'point_of_interest', 'establishment']
632	ChIJwR1gG2OzKIQRVhxR3-eAZlE	Jn f froebel	preescolar	20.6476291	-103.3178452	Osiris 2074, Prados del Nilo, 44840 Guadalajara, Jal., Mﾃｩxico	['school', 'point_of_interest', 'establishment']
633	ChIJaUZ9CMyzKIQRuejILdYveTA	JARDIN DE NIﾃ前S JULIO VERNE	preescolar	20.6514989	-103.3075152	C. Ejido 740, Magaﾃｱa, 44800 Guadalajara, Jal., Mﾃｩxico	['school', 'point_of_interest', 'establishment']
634	ChIJVVUILDSyKIQRYxgt1p6ZblI	Escuela Jean Piaget	preescolar	20.6478691	-103.3179321	Osiris 2063, Prados del Nilo, 44840 Guadalajara, Jal., Mﾃｩxico	['primary_school', 'school', 'point_of_interest', 'establishment']
635	ChIJ9WUDwoGxKIQRX2io6ixLAGI	JARDIN DE NIﾃ前S NIﾃ前S HEROES DE CHAPULTEPEC	preescolar	20.6726199	-103.3136041	C. Juan de Dios Robledo 318, San Juan Bosco, 44730 Guadalajara, Jal., Mﾃｩxico	['school', 'point_of_interest', 'establishment']
636	ChIJO6E7-9WzKIQRDd75KqS37xs	Jardﾃｭn de Niﾃｱos nﾂｺ 126 Carmen Vizcarra	preescolar	20.6682735	-103.3072438	C. Pﾃ｡nfilo Pﾃｩrez 211, Progreso, 44730 Guadalajara, Jal., Mﾃｩxico	['school', 'point_of_interest', 'establishment']
637	ChIJx5UCVN2xKIQRgI9gKVYcLfQ	"Guarderﾃｭa - Preescolar Federico Froebel ""La Casita"""	preescolar	20.6728489	-103.3189907	Calle Gral. Pedro Marﾃｭa Anaya 1291, La Penal, 44730 Guadalajara, Jal., Mﾃｩxico	['school', 'point_of_interest', 'establishment']
638	ChIJ5310J3yxKIQRPtoYaBjMsoU	JARDIN DE NIﾃ前S JUAN ENRIQUE PESIALOZZI	preescolar	20.6727839	-103.3067788	C. Francisco Villa 421, Progreso, 44730 Guadalajara, Jal., Mﾃｩxico	['school', 'point_of_interest', 'establishment']
639	ChIJi9n7o3uxKIQRl8Nmme0i6eE	Jardﾃｭn de Niﾃｱos Federico Froebel	preescolar	20.6767294	-103.3043008	C. Pﾃ｡nfilo Pﾃｩrez 621, Blanco y Cuﾃｩllar, 44730 Guadalajara, Jal., Mﾃｩxico	['school', 'point_of_interest', 'establishment']
640	ChIJdf966dazKIQRlb7YHXyhRf0	JARDﾃ康 DE NIﾃ前S SILVANO BARBA GONZALEZ	preescolar	20.664796	-103.3049408	Av. Francisco Javier Mina 968, San Andrﾃｩs, 44810 Guadalajara, Jal., Mﾃｩxico	['school', 'point_of_interest', 'establishment']
641	ChIJWzyPNzyyKIQRFzBuE5n9JZU	Preescolar y Guarderﾃｭa Benito Juﾃ｡rez	preescolar	20.6601987	-103.3244779	Calz. Revoluciﾃｳn 1437, La Loma, 44159 Guadalajara, Jal., Mﾃｩxico	['point_of_interest', 'establishment']
642	ChIJO-I1JHexKIQR4W5qJrZI-Vg	Colegio Enrique C. Rﾃｩbsamen Preescolar y Primaria	preescolar	20.6830111	-103.3076851	Santo Tomﾃ｡s 1919, Talpita, 44719 Guadalajara, Jal., Mﾃｩxico	['school', 'primary_school', 'point_of_interest', 'establishment']
643	ChIJoxRp-HOxKIQRcDLxFS1kOAQ	JARDIN DE NIﾃ前S ROSAURA ZAPATA	preescolar	20.6870086	-103.306666	C. Ignacio Machain 1028, Talpita, 44710 Guadalajara, Jal., Mﾃｩxico	['school', 'point_of_interest', 'establishment']
644	ChIJMQE4RQmxKIQRySZoYGkzUTg	PREESCOLAR VICENTE GUERRERO	preescolar	20.6988761	-103.3076518	C. Mesa Central 1119, Santa Rosa, 44700 Guadalajara, Jal., Mﾃｩxico	['school', 'point_of_interest', 'establishment']
645	ChIJRcnyX6CxKIQRheIBw1DnvCc	Jardin de Niﾃｱos Federico Froebel	preescolar	20.6945532	-103.3141025	C. Puerto Ensenada 916, Circunvalaciﾃｳn Belisario, 44330 Guadalajara, Jal., Mﾃｩxico	['school', 'point_of_interest', 'establishment']
646	ChIJ6XfiTnGxKIQRhMDd5T1vvpI	Jardﾃｭn de Niﾃｱos LIBERTAD	preescolar	20.6854764	-103.3061796	C. Damiﾃ｡n Carmona 966, Talpita, 44719 Guadalajara, Jal., Mﾃｩxico	['school', 'point_of_interest', 'establishment']
647	ChIJtevsLwuxKIQRp4wHOI1ZaIk	KINDER Estancia infantil	preescolar	20.6927916	-103.3090746	Calz Juan Pablo II 1717, Vicente Guerrero, 44330 Guadalajara, Jal., Mﾃｩxico	['school', 'point_of_interest', 'establishment']
648	ChIJvTf2H3qxKIQROJHxQXt2zVU	JARDIN DE NIﾃ前S David Alfaro Siqueiros	preescolar	20.6791421	-103.306906	C. Jesﾃｺs Urueta 2026, Blanco y Cuﾃｩllar, 44730 Guadalajara, Jal., Mﾃｩxico	['school', 'point_of_interest', 'establishment']
649	ChIJCR9BNwixKIQRxRFC4w8sK70	Jardﾃｭn de Niﾃｱos Josﾃｩ Guadalupe Zuno	preescolar	20.701236	-103.3112973	Av de la Cruz 2198, San Vicente, 44330 Guadalajara, Jal., Mﾃｩxico	['school', 'point_of_interest', 'establishment']
650	ChIJ3U2yLsmxKIQRNZyNTCnp3xc	Jardﾃｭn de niﾃｱos Juliette Colbert	preescolar	20.7315355	-103.3154548	C. Volcﾃ｡n Telica 5138, Lomas del Paraﾃｭso ﾃ栗I, 44250 Guadalajara, Jal., Mﾃｩxico	['school', 'point_of_interest', 'establishment']
651	ChIJ0ZdbeFmwKIQRaoBaksMV-7E	Jardﾃｭn De Niﾃｱos	preescolar	20.7294444	-103.3177864	Volcﾃ｡n Coquimbo, Lomas del Paraﾃｭso ﾃ栗I, 44250 Guadalajara, Jal., Mﾃｩxico	['school', 'point_of_interest', 'establishment']
652	ChIJdz6j-xWxKIQRYRsPY24ZM2A	PREESCOLAR ESTEFANIA CASTAﾃ薦DA	preescolar	20.6980369	-103.2899061	Batalla de Petatlﾃ｡n 2520-2524, Rﾃｭo Verde, 44700 Guadalajara, Jal., Mﾃｩxico	['school', 'point_of_interest', 'establishment']
653	ChIJnY9AElyxKIQRA5vQ4Z1d1Ss	"Centro de Asistencia Infantil Comunitario CAIC 5 ""La Coronilla"" DIF Zapopan"	preescolar	20.7585835	-103.3238531	Ramﾃｳn Lﾃｳpez Velarde 1680, La Coronilla, 45189 Zapopan, Jal., Mﾃｩxico	['school', 'point_of_interest', 'establishment']
654	ChIJ11z9XTCzKIQRTRB2utcWnMM	Jardin de Niﾃｱos Mi Estrellita Maria Curie	preescolar	20.6527794	-103.30198	C. Europa #2750, Hormiguero, 44810 Guadalajara, Jal., Mﾃｩxico	['school', 'point_of_interest', 'establishment']
655	ChIJw6qNK7izKIQR8PG3ZKbg2NY	Howard Gardner	preescolar	20.6433008	-103.3006604	C. Fray Nicolﾃ｡s Ornelas 2871, Jardines de la Paz, 44860 Guadalajara, Jal., Mﾃｩxico	['school', 'point_of_interest', 'establishment']
656	ChIJRYm5MLyzKIQRqw9PyPg87Jw	Jardﾃｭn de Niﾃｱos Vigotsky	preescolar	20.6396954	-103.2929829	Lucio Blanco 686, Lindavista, 45520 Guadalajara, Jal., Mﾃｩxico	['school', 'point_of_interest', 'establishment']
657	ChIJM-4B9ruzKIQRkrjooWFnzvo	Jardﾃｭn De Niﾃｱos Decroly	preescolar	20.6393828	-103.2951877	Jardﾃｭn 30, Lindavista, 45520 San Pedro Tlaquepaque, Jal., Mﾃｩxico	['school', 'point_of_interest', 'establishment']
658	ChIJcRjHAdezKIQRHM3ogQ0WWZY	"JARDIN DE NIﾃ前S ""FEDERICO FROEBEL"""	preescolar	20.6659734	-103.3038231	entre Gomez de Mendiola y Perez Jimenez, Guelatao 185, Santos Degollado, 44710 Guadalajara, Jal., Mﾃｩxico	['school', 'point_of_interest', 'establishment']
659	ChIJrch-KACzKIQREqaN3f1uBAs	Preescolar Gustavo Diaz Ordaz	preescolar	20.6593585	-103.2909988	C. Andrﾃｩs Bello 3279, San Andrﾃｩs, 44810 Guadalajara, Jal., Mﾃｩxico	['school', 'point_of_interest', 'establishment']
660	ChIJJ3IRDsCzKIQRdkWV7CvcfVE	J.N y E.I Castillo de Chapultepec	preescolar	20.6682109	-103.3073313	C. Pﾃ｡nfilo Pﾃｩrez 209, La Penal, 44730 Guadalajara, Jal., Mﾃｩxico	['school', 'point_of_interest', 'establishment']
661	ChIJXZ3CGjOyKIQR8IcHzDNpvU8	Colegio Xitlalin Ac	preescolar	20.6517162	-103.315347	C. Hernando de Martell 583, Sutaj, 44840 Guadalajara, Jal., Mﾃｩxico	['primary_school', 'school', 'point_of_interest', 'establishment']
662	ChIJd4j5L2SxKIQREPty6_sZ40A	JARDIN DE NIﾃ前S GUADALAJARA	preescolar	20.6775277	-103.2960021	C. Ramﾃｳn Castellanos 1003, San Isidro, 44740 Guadalajara, Jal., Mﾃｩxico	['school', 'point_of_interest', 'establishment']
663	ChIJl1-4m0SxKIQRCkQ-k8oZKrE	PREESCOLAR PLUTARCO ELIAS CALLES	preescolar	20.6844288	-103.2831815	C. Pedro Sﾃ｡nchez 3655, Beatriz Hernﾃ｡ndez, 44720 Guadalajara, Jal., Mﾃｩxico	['school', 'point_of_interest', 'establishment']
664	ChIJ32md1GSxKIQR_QZFNaiwZD4	JARDIN DE NIﾃ前S Francis Bacon	preescolar	20.6777938	-103.3009012	Calle Felipe Angeles 707A, Blanco y Cuﾃｩllar, 44730 Guadalajara, Jal., Mﾃｩxico	['school', 'point_of_interest', 'establishment']
665	ChIJI0tr1GixKIQR0rw7jUKlw8Y	PREESCOLAR LEONA VICARIO	preescolar	20.6841198	-103.2949393	Av Artesanos 943,San Martﾃｭn, Circunvalaciﾃｳn Oblatos, 44710 Guadalajara, Jal., Mﾃｩxico	['school', 'point_of_interest', 'establishment']
666	ChIJ31zuZm2xKIQRd0hpolPtTso	Jardﾃｭn de niﾃｱos PIERRE FAURE	preescolar	20.6910608	-103.3005613	C. Francisco Villa 1281, Colonia Oblatos, 44716 Guadalajara, Jal., Mﾃｩxico	['school', 'point_of_interest', 'establishment']
667	ChIJD4NNoxGxKIQRkPu_Wt1sceU	"Jardin de niﾃｱos ""JOSE MARTﾃ"""	preescolar	20.7005644	-103.2992838	Orquesta 1526, Guadalajara Ote, 44700 Guadalajara, Jal., Mﾃｩxico	['school', 'point_of_interest', 'establishment']
668	ChIJE0fn50qxKIQR3f5wwzX8xEI	Tomas Escobedo Barba Matutino y Vespertino	preescolar	20.713297	-103.313528	Sabidurﾃｭa 343, Jardines de Santa Isabel, 44300 Guadalajara, Jal., Mﾃｩxico	['school', 'point_of_interest', 'establishment']
669	ChIJxVvjiAWxKIQRwhe5t7MX1aQ	Jardﾃｭn de Niﾃｱos Sebastiﾃ｡n Lerdo de Tejada	preescolar	20.7058729	-103.3066889	San Marcos 2726, La Esperanza (La Federacha ), 44300 Guadalajara, Jal., Mﾃｩxico	['school', 'point_of_interest', 'establishment']
670	ChIJx9yIK_2wKIQR48xVpDEqc2U	MARIA MONTESSORI	preescolar	20.7185761	-103.3012638	Huentitﾃ｡n El Alto, 44390 Guadalajara, Jal., Mﾃｩxico	['school', 'point_of_interest', 'establishment']
671	ChIJ6cH01QOxKIQRGh0BU76cUiI	Centro educativo Rosaura Zapata Cano	preescolar	20.7127306	-103.3069694	C. Batallﾃｳn de San Patricio 867, Jardines de Santa Isabel, 44300 Guadalajara, Jal., Mﾃｩxico	['school', 'point_of_interest', 'establishment']
672	ChIJwaUqgyKxKIQRccukcQkt2iI	Prescolar Lazaro Cardenas del Rio	preescolar	20.707316	-103.2894498	C. Ramon Serratos 2086, Santa Cecilia, 44700 Guadalajara, Jal., Mﾃｩxico	['school', 'point_of_interest', 'establishment']
673	ChIJ203_tkaxKIQRxFBr4h9_CBM	Jardﾃｭn de Niﾃｱos Maria Enriqueta Camarillo de Pereyra	preescolar	20.6889598	-103.2832557	C. Hacienda de Cedros 2020, Balcones de Oblatos, 44720 Guadalajara, Jal., Mﾃｩxico	['school', 'point_of_interest', 'establishment']
674	ChIJ9QSsujixKIQRso0lYNFtg7k	Kinder	preescolar	20.7185619	-103.3263983	Juan B. Berdeja 3043, Rancho Nuevo, 44240 Guadalajara, Jal., Mﾃｩxico	['school', 'point_of_interest', 'establishment']
675	ChIJSQwAirizKIQRWxx-50tCyWg	Jardin de niﾃｱos Justo Sierra	preescolar	20.6450313	-103.2981602	C. Francisco Lﾃｳpez de Gomara 1154, Jardines de la Paz, 44860 Guadalajara, Jal., Mﾃｩxico	['school', 'point_of_interest', 'establishment']
676	ChIJwbuvo7mzKIQRZTKicmlGJ7E	Jardﾃｭn de Niﾃｱos #65 Francisco Silva Romero	preescolar	20.641941	-103.2991362	Calle Emiliano Zapata 440, Jardines de la Paz, 45519 San Pedro Tlaquepaque, Jal., Mﾃｩxico	['school', 'point_of_interest', 'establishment']
677	ChIJ-5RovLmzKIQRpa4B4IkN9ko	Jardﾃｭn de Niﾃｱos No.527 Rosaura Zapata Cano	preescolar	20.6419412	-103.2991391	Calle Emiliano Zapata 440, Jardines de la Paz, 45519 Guadalajara, Jal., Mﾃｩxico	['school', 'point_of_interest', 'establishment']
678	ChIJdbUPZbyzKIQR1zL9KTGGMNE	Jardﾃｭn de Niﾃｱos Friedrich Froebel	preescolar	20.6383216	-103.2941343	San Alfonso 50, Los Altos, 45520 San Pedro Tlaquepaque, Jal., Mﾃｩxico	['school', 'point_of_interest', 'establishment']
679	ChIJwQ9am7-zKIQRMFnNq6lcYKc	Jardﾃｭn de Niﾃｱos y Guarderia Juana de Arco	preescolar	20.6459293	-103.2915273	C. Manuel Romero de Terreros 3343, Jardines de Los Historiadores, 44860 Guadalajara, Jal., Mﾃｩxico	['school', 'point_of_interest', 'establishment']
680	ChIJXZkvaaWzKIQRFCyGsGMgmqY	Jardﾃｭn de Niﾃｱos Jaime Torres Bodet	preescolar	20.6326411	-103.3001122	C. Rufino Tamayo 16, Lomas de Tlaquepaque, 45559 San Pedro Tlaquepaque, Jal., Mﾃｩxico	['school', 'point_of_interest', 'establishment']
681	ChIJmUDNtZezKIQRLbwOEbml3j0	Preescolar Jean Piaguete	preescolar	20.6373552	-103.2859071	Av Sta Rosalﾃｭa 1032, Residencial La Soledad, 45525 San Pedro Tlaquepaque, Jal., Mﾃｩxico	['school', 'point_of_interest', 'establishment']
682	ChIJxfE2PrSzKIQRjjlychkO1sw	Little Clevers Preschool	preescolar	20.6408546	-103.2880725	C. Zalatitﾃ｡n 970, Lindavista, 45520 San Pedro Tlaquepaque, Jal., Mﾃｩxico	['school', 'point_of_interest', 'establishment']
683	ChIJbRie0VGyKIQRm1Z3CTveXfU	Jardﾃｭn de Niﾃｱos Leona Vicario	preescolar	20.6534821	-103.2862186	Teresa Reynosa 3729, Insurgentes, 44820 Guadalajara, Jal., Mﾃｩxico	['school', 'point_of_interest', 'establishment']
684	ChIJxeOlQc-zKIQROtSGDXosikQ	JARDIN DE NIﾃ前S LEV SEMIONOVICH VYGOTSKY	preescolar	20.6526829	-103.3018615	C. Europa 2756, Hormiguero, 44810 Guadalajara, Jal., Mﾃｩxico	['school', 'point_of_interest', 'establishment']
685	ChIJC0yuG-izKIQRMKTzhGEqiq4	Jardin De Niﾃｱos El Tren Magico Miguel Aleman	preescolar	20.657627	-103.2888793	C. Rubﾃｩn Rodrﾃｭguez 327, Cantarranas, 44829 Guadalajara, Jal., Mﾃｩxico	['school', 'point_of_interest', 'establishment']
686	ChIJ5U9t-t-zKIQRiksVRBuLFDs	JARDIN DE NIﾃ前S MARIANO BARCENA	preescolar	20.6698606	-103.2899731	Sudﾃ｡n 540, Libertad, 44750 Guadalajara, Jal., Mﾃｩxico	['school', 'point_of_interest', 'establishment']
687	ChIJn4EBuWizKIQRVkLnIj9RaSs	Jardﾃｭn de Niﾃｱos Nezahualcoyotl (Matutino)	preescolar	20.6698458	-103.2899759	Sudﾃ｡n 540, Lagos de Oriente, 44770 Guadalajara, Jal., Mﾃｩxico	['school', 'point_of_interest', 'establishment']
688	ChIJ4d4k5WOzKIQRII7h6y6aIw4	INEIH	preescolar	20.6618025	-103.2999245	Av. del Parque 34, San Andrﾃｩs, 44810 Guadalajara, Jal., Mﾃｩxico	['school', 'point_of_interest', 'establishment']
689	ChIJBeXUZZOzKIQR-DDr6-j2Xl0	Jardin de Niﾃｱos Melanie Klein	preescolar	20.6456079	-103.2831715	Privada, Sta. Isabel 1340, Joyas del Nilo, Villas del Nilo, 44820 Guadalajara, Jal., Mﾃｩxico	['school', 'point_of_interest', 'establishment']
690	ChIJxTNCLkGxKIQRpSHBEYZSDwQ	Jardﾃｭn de Niﾃｱos 311 Leona Vicario	preescolar	20.6906076	-103.2842391	C. Hacienda de Tala 3241, Balcones de Oblatos, 44720 Guadalajara, Jal., Mﾃｩxico	['school', 'point_of_interest', 'establishment']
691	ChIJiworTm2xKIQRivyfJ6SGziM	Kﾃｭnder Winnie Pooh	preescolar	20.7053631	-103.3088795	Puerto Ensenada, C. Puerto Angel &, Circunvalaciﾃｳn Belisario, 44330 Guadalajara, Jal., Mﾃｩxico	['school', 'point_of_interest', 'establishment']
692	ChIJT6qkiBSxKIQREIwjmJdJBA0	Preescolar Anahuac	preescolar	20.6957819	-103.2945361	Av Artesanos 1487, Colonia Oblatos, 44700 Guadalajara, Jal., Mﾃｩxico	['school', 'point_of_interest', 'establishment']
693	ChIJczQchSKxKIQR0L8CsFXMIMw	PREESCOLAR SARA MERCADO GONZALEZ	preescolar	20.7076209	-103.2888266	C. Ramon Serratos 2140, Santa Cecilia, 44700 Guadalajara, Jal., Mﾃｩxico	['school', 'point_of_interest', 'establishment']
694	ChIJxUAbnRmxKIQRudEGzx7DPY0	"""Jean piaget"""	preescolar	20.7075849	-103.2943885	Av Joaquﾃｭn Amaro 2459, San Miguel de Huentitﾃ｡n, 44780 Guadalajara, Jal., Mﾃｩxico	['school', 'point_of_interest', 'establishment']
695	ChIJlW9_FUmxKIQRnetJ_4Lin14	PREESCOLAR FRANCISCO GONZALEZ BOCANEGRA	preescolar	20.6903974	-103.2737649	El Bethel, 44720 Guadalajara, Jal., Mﾃｩxico	['school', 'point_of_interest', 'establishment']
696	ChIJ4akPsEexKIQRvoRqIaZAbcQ	SALVADOR M LIMA PREESCOLAR GENERAL	preescolar	20.6921434	-103.2800136	San Josﾃｩ Rﾃｭo Verde, 44726 Guadalajara, Jal., Mﾃｩxico	['school', 'point_of_interest', 'establishment']
697	ChIJx_BWQMezKIQR2cXJyE5pVuI	Jardﾃｭn de Niﾃｱos DHENI	preescolar	20.6476947	-103.2964784	Josﾃｩ Marﾃｭa Marroquﾃｭ 3075, Jardines de la Paz, 44860 Guadalajara, Jal., Mﾃｩxico	['school', 'point_of_interest', 'establishment']
698	ChIJ0ykzQ5mzKIQRzc_WInNHhB0	Jardﾃｭn de niﾃｱos Estefanﾃｭa Castaﾃｱeda	preescolar	20.6370492	-103.277298	Av. Central, Infonavit Rﾃｭo Nilo, 45403 Tonalﾃ｡, Jal., Mﾃｩxico	['school', 'point_of_interest', 'establishment']
699	ChIJI2rufZezKIQRCFKFWI57Iss	SOLEDAD ANAYA SOLORZANO	preescolar	20.6352806	-103.2861015	C. Fﾃｩlix Cervantes 1406, Residencial La Soledad, 45525 San Pedro Tlaquepaque, Jal., Mﾃｩxico	['school', 'point_of_interest', 'establishment']
700	ChIJPes9cYyzKIQRhoSrqBYdr3o	Preescolar Y Guarderﾃｭa Jimao	preescolar	20.6536515	-103.2789936	Jesﾃｺs Carrillo 403A, Tetlﾃ｡n II, 44820 Guadalajara, Jal., Mﾃｩxico	['school', 'point_of_interest', 'establishment']
701	ChIJVUrtF-WzKIQR0ENWduRJxiE	JARDﾃ康 DE NIﾃ前S RAFAELA VILLEGAS ISLAS	preescolar	20.6614267	-103.2795374	Presa Tivoli 106, Jardines de San Francisco, 44790 Guadalajara, Jal., Mﾃｩxico	['school', 'point_of_interest', 'establishment']
702	ChIJdR5RCOuzKIQRxAbtBmZlItE	Colegio Leon Tolstoi	preescolar	20.6499394	-103.2856177	Efrﾃｩn Hernﾃ｡ndez 3637, Parques del Nilo 2a. Secc, 44820 Guadalajara, Jal., Mﾃｩxico	['school', 'point_of_interest', 'establishment']
703	ChIJQ0qpP_2zKIQRV5p4Svkd3uw	PREESCOLAR CAIC LAGOS DE ORIENTE	preescolar	20.6696495	-103.2764788	C. Presa del Cuarenta 592, Lagos de Oriente, 44770 Guadalajara, Jal., Mﾃｩxico	['school', 'point_of_interest', 'establishment']
704	ChIJZ8fMaMKzKIQRh0iMtDN8Fl8	Anna Freud	preescolar	20.6547247	-103.2905121	C. Adriﾃ｡n Puga 3415, San Andrﾃｩs, 44810 Guadalajara, Jal., Mﾃｩxico	['school', 'point_of_interest', 'establishment']
705	ChIJ40HDfkKxKIQR58LC4YF8E8I	Jardﾃｭn de Niﾃｱos EL Pﾃ恒ILA	preescolar	20.6851144	-103.2891262	C. Hacienda de Cedros 1638, Balcones de Oblatos, 44720 Guadalajara, Jal., Mﾃｩxico	['school', 'point_of_interest', 'establishment']
706	ChIJvZWXUMKxKIQRwiQ3-OSBViU	Jardﾃｭn de Niﾃｱos #288 Josﾃｩ Vasconcelos	preescolar	20.6815383	-103.2837182	Gaspar Antonio XIV 1369, Beatriz Hernﾃ｡ndez, 44760 Guadalajara, Jal., Mﾃｩxico	['school', 'point_of_interest', 'establishment']
707	ChIJYxJ87dexKIQR11qVu3bXCk0	Agustﾃｭn yaﾃｱes	preescolar	20.684943	-103.2917498	Juan B. Berdeja, Rancho Nuevo, 44240, Jal., Mﾃｩxico	['school', 'point_of_interest', 'establishment']
708	ChIJh_sVL0GxKIQR250xZJeqPb0	Rosaura Zapata Cano Nﾂｺ 311 T/M / Leona Vicario Nﾂｺ 653 T/V	preescolar	20.6906049	-103.2842313	C. Hacienda de Tala 3225, Arandas, 44720 Guadalajara, Jal., Mﾃｩxico	['school', 'point_of_interest', 'establishment']
709	ChIJ0Qn6X_uxKIQRt6KoJhyS2iA	Kinder abraham castellanos	preescolar	20.700561	-103.287895	C. Hacienda la Colmena 2640, Rﾃｭo Verde, 44700 Guadalajara, Jal., Mﾃｩxico	['school', 'point_of_interest', 'establishment']
710	ChIJLba7uz6xKIQRiKTewlduLXQ	Jardﾃｭn de Niﾃｱos Agustﾃｭn Yaﾃｱez No 79	preescolar	20.6988742	-103.284734	C. Diﾃｳdoro Corella 2576, Tetlﾃ｡n Rﾃｭo Verde, 44727 Guadalajara, Jal., Mﾃｩxico	['school', 'point_of_interest', 'establishment']
711	ChIJEzFbck-xKIQR9UA7KhKXRLM	Jardﾃｭn de niﾃｱos 1 de Mayo	preescolar	20.6864239	-103.2765823	Miguel Arroyo 31, Heliodoro Hernﾃ｡ndez Loza, 44720 Guadalajara, Jal., Mﾃｩxico	['school', 'point_of_interest', 'establishment']
712	ChIJYSbAFeOwKIQRQY6r_LTP5g4	Guarderias de Guadaalupe A.C	preescolar	20.7203009	-103.2994461	C. Joaquin Romero 1325, Colinas de Huentitﾃ｡n, 44390 Guadalajara, Jal., Mﾃｩxico	['school', 'point_of_interest', 'establishment']
713	ChIJwVDA5lGzKIQRJtX20Y_eCQ4	J. N. Marﾃｭa C. Bancalari 160	preescolar	20.6372388	-103.2902222	Carlos, Gonzﾃ｡lez Pena 385, Lindavista, 45527 San Pedro Tlaquepaque, Jal., Mﾃｩxico	['school', 'point_of_interest', 'establishment']
714	ChIJEWOAg5KzKIQR6HhS-MJFdG0	Jardin De Niﾃｱos Insurgentes De Mﾃｩxico	preescolar	20.6456035	-103.2782041	Alberto Macﾃｭas Gutiﾃｩrrez 825, Brisas del Nilo, 44828 Guadalajara, Jal., Mﾃｩxico	['school', 'point_of_interest', 'establishment']
715	ChIJM_rgBJyzKIQR3GZgFmd47vg	Jardﾃｭn de Niﾃｱos Sor Juana Inﾃｩs de la Cruz	preescolar	20.6292012	-103.2830507	Real de Los Mezquites 96, Camichines, 45400 Tonalﾃ｡, Jal., Mﾃｩxico	['school', 'point_of_interest', 'establishment']
716	ChIJ99VQvZyzKIQRYhkRl383r1I	Preescolar Kindergarten	preescolar	20.6293161	-103.2793204	Lomas del Camichin I, 45417 Tonalﾃ｡, Jal., Mﾃｩxico	['school', 'point_of_interest', 'establishment']
717	ChIJiQnYFACzKIQRZQazD1f2Hc0	ei kinderland	preescolar	20.6362948	-103.2860038	C. Doroteo y Ramﾃｳn Corona 113, Residencial La Soledad, 45525 San Pedro Tlaquepaque, Jal., Mﾃｩxico	['school', 'point_of_interest', 'establishment']
718	ChIJTzeOQ5qzKIQR1oGnCtbIlWg	Jardin De Niﾃｱos - Irene Robledo Garcﾃｭa	preescolar	20.6339948	-103.2817308	P.ﾂｺ del Malecﾃｳn 10, Infonavit La Soledad, 45403 Tonalﾃ｡, Jal., Mﾃｩxico	['school', 'point_of_interest', 'establishment']
719	ChIJB3E3u_azKIQRTJAM2e4IiwI	PREESCOLAR J MARIA CONCEPCION BECERRA VILLARRUEL	preescolar	20.654909	-103.2711607	44820, Av. Malecﾃｳn 198, Tetlﾃ｡n II, Guadalajara, Jal., Mﾃｩxico	['school', 'point_of_interest', 'establishment']
720	ChIJuc8pwe2zKIQR-fTfu6-eSg4	Centro Educativo Rosaura Zapata	preescolar	20.652272	-103.2796486	C. Laura Apodaca 493, Insurgentes, 44820 Guadalajara, Jal., Mﾃｩxico	['school', 'point_of_interest', 'establishment']
721	ChIJ79rzi1exKIQR2DOBzKRhDQk	Jardﾃｭn de Niﾃｱos Ignacio Manuel Altamirano	preescolar	20.672937	-103.2775344	esquina con Calle Canaﾃ｡n, C. Presa del Estribon 760, San Joaquﾃｭn, 44770 Guadalajara, Jal., Mﾃｩxico	['school', 'point_of_interest', 'establishment']
722	ChIJL-IkYv6zKIQRqJ6JBA9bPFo	PABLO CASALS PREESCOLAR GENERAL	preescolar	20.6688095	-103.2710128	C. Malecﾃｳn 544, Benito Juﾃ｡rez, 44770 Guadalajara, Jal., Mﾃｩxico	['school', 'point_of_interest', 'establishment']
723	ChIJCzQfQ1-xKIQR18K1UIk-o4o	Colegio IEHP | Jardﾃｭn de Niﾃｱos - Hermosa Provincia	preescolar	20.6714192	-103.2848656	Belﾃｩn 3438, Hermosa Provincia, 44770 Guadalajara, Jal., Mﾃｩxico	['school', 'point_of_interest', 'establishment']
724	ChIJObKfTqy2KIQRg1vvbgnInO4	Jardﾃｭn de Niﾃｱos Anahuac	preescolar	20.6779198	-103.2622897	Jilotlan de Los Dolores 176, Jalisco ﾃ栗I Secc, 45403 Tonalﾃ｡, Jal., Mﾃｩxico	['school', 'point_of_interest', 'establishment']
725	ChIJpbzauMizKIQR2qaGqGElhZQ	GUARDERIA Y KINDER GABRIELA MISTRAL	preescolar	20.6635939	-103.2832861	C. Jardines de Babilonia 196, Jardines de San Francisco, 44790 Guadalajara, Jal., Mﾃｩxico	['school', 'point_of_interest', 'establishment']
726	ChIJ3dsDc0-xKIQRnbJCQYxEfYI	"JARDﾃ康 DE NIﾃ前S ""JOSﾃ VIZCARRA"""	preescolar	20.6864284	-103.2765694	Eduardo Zepeda Campos 31, Heliodoro Hernﾃ｡ndez Loza, 44720 Guadalajara, Jal., Mﾃｩxico	['school', 'point_of_interest', 'establishment']
727	ChIJ47u0tRy0KIQRgPWxJnuYJJM	Preescolar Maria Montessori	preescolar	20.6684241	-103.2545027	Av. Zalatitan, Alamedas de Zalatitan, 45405 Tonalﾃ｡, Jal., Mﾃｩxico	['school', 'point_of_interest', 'establishment']
728	ChIJPenynQq0KIQRgMAQ-diM2Xs	Jardﾃｭn de Niﾃｱos Josﾃｩ Marﾃｭa Morelos y Pavﾃｳn	preescolar	20.6504074	-103.2659552	Batalla de Puebla, 20 de Noviembre, 45416 Tonalﾃ｡, Jal., Mﾃｩxico	['school', 'point_of_interest', 'establishment']
729	ChIJK_7v0360KIQRzHKYoYFuh6g	Preescolar General	preescolar	20.6311493	-103.2634545	Pihuamo 7861, Loma Dorada Delegaciﾃｳn B, 45402 Tonalﾃ｡, Jal., Mﾃｩxico	['school', 'point_of_interest', 'establishment']
730	ChIJD69y43C0KIQRyQrAzej6i4Y	JARDﾃ康 DE NIﾃ前S Hermanas Agazzi	preescolar	20.6402001	-103.2585562	Puesta del Sol, 45404 Tonalﾃ｡, Jal., Mﾃｩxico	['school', 'point_of_interest', 'establishment']
731	ChIJe56Y_4qzKIQRc_cUgTsYqBs	Jardﾃｭn de Niﾃｱos Marﾃｭa Guadalupe Castaﾃｱeda Torres	preescolar	20.6572483	-103.2620506	C. Hidalgo 33, Zalatitﾃ｡n, 45400 Tonalﾃ｡, Jal., Mﾃｩxico	['school', 'point_of_interest', 'establishment']
732	ChIJi6_aMwy0KIQRJ631PvWFLSM	Jardin de niﾃｱos Dante Alighieri	preescolar	20.6542421	-103.2579412	Loma Estrella 215, Loma Bonita I, 45405 Tonalﾃ｡, Jal., Mﾃｩxico	['school', 'point_of_interest', 'establishment']
733	ChIJN-b5mVOxKIQR9HSFWtbpnuc	KINDER CRI CRI	preescolar	20.6787593	-103.2699913	C. Sucre 1233, Lomas del Gallo, 44760 Guadalajara, Jal., Mﾃｩxico	['school', 'point_of_interest', 'establishment']
734	ChIJvY1ZT6y2KIQReLSp3kRg_WI	ESTANCIA Y PREESCOLAR	preescolar	20.6804192	-103.2624077	Jilotlan de Los Dolores 376, Jalisco ﾃ栗I Secc, 45403 Tonalﾃ｡, Jal., Mﾃｩxico	['school', 'point_of_interest', 'establishment']
735	ChIJR6e0zqm2KIQR73tskpLgr1s	Kinder Jaime Torres Bodet	preescolar	20.6737319	-103.2581597	Selene 16, Los Camichines I, 45403 Tonalﾃ｡, Jal., Mﾃｩxico	['school', 'point_of_interest', 'establishment']
736	ChIJo7DF7v-NL4QRtsFy1d3XnqE	"Jardﾃｭn de niﾃｱos ""Rosita Rincﾃｳn"""	preescolar	20.6913436	-103.2628058	Morelos 3, Jalisco II Secc, 45412 Atenquique, Jal., Mﾃｩxico	['school', 'point_of_interest', 'establishment']
737	ChIJlV_1ZTW1KIQRLFDvjeMS4Ys	Jardﾃｭn de Niﾃｱos Pablo Moncayo	preescolar	20.6698639	-103.2595472	Madre Selva 161, Alamedas de Zalatitan, 45407 Tonalﾃ｡, Jal., Mﾃｩxico	['school', 'point_of_interest', 'establishment']
738	ChIJJ4OiTci1KIQR2QJuxApS5sg	Jardﾃｭn de Niﾃｱos Amado Nervo	preescolar	20.6421899	-103.253907	Av. Zalatitan 974, Educadores Jaliscienses, 45400 Tonalﾃ｡, Jal., Mﾃｩxico	['school', 'point_of_interest', 'establishment']
739	ChIJh_56NwC3KIQR87IPN_7q5x4	Tonalﾃ｡ centro	preescolar	20.6907453	-103.2566204	Emiliano Zapata, 45412 Tonalﾃ｡, Jal., Mﾃｩxico	['school', 'point_of_interest', 'establishment']
740	ChIJq3gCIwC3KIQRnG4f-lPCt2E	Kindee Juan escupﾃｭa	preescolar	20.6936266	-103.2614378	Juanacatlﾃ｡n 68, Jalisco II Secc, 45412 Tonalﾃ｡, Jal., Mﾃｩxico	['school', 'point_of_interest', 'establishment']
